"Station Name","VANCOUVER INTL A"
"Province","BRITISH COLUMBIA"
"Latitude","49.19"
"Longitude","-123.18"
"Elevation","4.30"
"Climate Identifier","1108395"
"WMO Identifier","71892"
"TC Identifier","YVR"
"All times are specified in Local Standard Time (LST). Add 1 hour to adjust for Daylight Saving Time where and when it is observed."

"Legend"
"E","Estimated"
"M","Missing"
"NA","Not Available"
"‡","Partner data that is not subject to review by the National Climate Archives"

"Date/Time","Year","Month","Day","Time","Data Quality","Temp (°C)","Temp Flag","Dew Point Temp (°C)","Dew Point Temp Flag","Rel Hum (%)","Rel Hum Flag","Wind Dir (10s deg)","Wind Dir Flag","Wind Spd (km/h)","Wind Spd Flag","Visibility (km)","Visibility Flag","Stn Press (kPa)","Stn Press Flag","Hmdx","Hmdx Flag","Wind Chill","Wind Chill Flag","Weather"
"2017-08-01 00:00","2017","08","01","00:00","‡","18.4","","16.1","","86","","30","","12","","48.3","","102.09","","","","","","NA"
"2017-08-01 01:00","2017","08","01","01:00","‡","17.8","","16.0","","89","","29","","14","","48.3","","102.09","","","","","","Mainly Clear"
"2017-08-01 02:00","2017","08","01","02:00","‡","18.6","","16.2","","86","","31","","20","","48.3","","102.07","","","","","","NA"
"2017-08-01 03:00","2017","08","01","03:00","‡","18.1","","14.7","","80","","30","","21","","48.3","","102.10","","","","","","NA"
"2017-08-01 04:00","2017","08","01","04:00","‡","18.1","","15.2","","83","","30","","26","","48.3","","102.12","","","","","","Mainly Clear"
"2017-08-01 05:00","2017","08","01","05:00","‡","17.8","","14.9","","83","","29","","23","","32.2","","102.13","","","","","","NA"
"2017-08-01 06:00","2017","08","01","06:00","‡","17.9","","15.0","","83","","30","","26","","48.3","","102.13","","","","","","NA"
"2017-08-01 07:00","2017","08","01","07:00","‡","18.6","","15.0","","79","","30","","26","","48.3","","102.15","","","","","","Cloudy"
"2017-08-01 08:00","2017","08","01","08:00","‡","19.1","","14.8","","76","","29","","28","","48.3","","102.16","","","","","","NA"
"2017-08-01 09:00","2017","08","01","09:00","‡","20.0","","15.6","","75","","30","","25","","48.3","","102.14","","","","","","NA"
"2017-08-01 10:00","2017","08","01","10:00","‡","20.3","","15.3","","72","","30","","29","","40.2","","102.13","","","","","","Cloudy"
"2017-08-01 11:00","2017","08","01","11:00","‡","20.6","","15.3","","71","","30","","29","","40.2","","102.10","","25","","","","NA"
"2017-08-01 12:00","2017","08","01","12:00","‡","20.9","","15.6","","71","","30","","31","","32.2","","102.06","","25","","","","NA"
"2017-08-01 13:00","2017","08","01","13:00","‡","22.2","","15.4","","65","","30","","25","","48.3","","102.00","","26","","","","Cloudy"
"2017-08-01 14:00","2017","08","01","14:00","‡","22.1","","16.2","","69","","31","","23","","24.1","","101.96","","27","","","","NA"
"2017-08-01 15:00","2017","08","01","15:00","‡","22.3","","16.2","","68","","31","","22","","24.1","","101.89","","27","","","","NA"
"2017-08-01 16:00","2017","08","01","16:00","‡","22.1","","15.9","","68","","30","","24","","24.1","","101.80","","27","","","","Cloudy"
"2017-08-01 17:00","2017","08","01","17:00","‡","22.0","","15.9","","68","","31","","21","","24.1","","101.75","","27","","","","NA"
"2017-08-01 18:00","2017","08","01","18:00","‡","21.5","","15.8","","69","","30","","24","","24.1","","101.71","","26","","","","NA"
"2017-08-01 19:00","2017","08","01","19:00","‡","21.3","","15.2","","68","","31","","26","","16.1","","101.68","","25","","","","Mostly Cloudy"
"2017-08-01 20:00","2017","08","01","20:00","‡","21.2","","15.8","","71","","32","","18","","16.1","","101.68","","26","","","","NA"
"2017-08-01 21:00","2017","08","01","21:00","‡","20.2","","16.5","","79","","32","","14","","16.1","","101.70","","25","","","","NA"
"2017-08-01 22:00","2017","08","01","22:00","‡","19.2","","16.2","","83","","33","","4","","16.1","","101.73","","","","","","Mostly Cloudy"
"2017-08-01 23:00","2017","08","01","23:00","‡","18.4","","15.1","","81","","31","","9","","16.1","","101.74","","","","","","NA"
"2017-08-02 00:00","2017","08","02","00:00","‡","19.2","","16.2","","83","","31","","16","","16.1","","101.78","","","","","","NA"
"2017-08-02 01:00","2017","08","02","01:00","‡","18.6","","16.5","","88","","30","","18","","16.1","","101.80","","","","","","Mostly Cloudy"
"2017-08-02 02:00","2017","08","02","02:00","‡","18.3","","16.2","","87","","31","","21","","16.1","","101.81","","","","","","NA"
"2017-08-02 03:00","2017","08","02","03:00","‡","18.0","","16.0","","88","","31","","21","","16.1","","101.82","","","","","","NA"
"2017-08-02 04:00","2017","08","02","04:00","‡","18.0","","15.7","","86","","30","","23","","16.1","","101.82","","","","","","Mostly Cloudy"
"2017-08-02 05:00","2017","08","02","05:00","‡","17.7","","15.6","","87","","31","","23","","16.1","","101.84","","","","","","NA"
"2017-08-02 06:00","2017","08","02","06:00","‡","17.9","","15.8","","88","","30","","23","","19.3","","101.85","","","","","","NA"
"2017-08-02 07:00","2017","08","02","07:00","‡","18.5","","15.8","","84","","31","","25","","19.3","","101.86","","","","","","Cloudy"
"2017-08-02 08:00","2017","08","02","08:00","‡","19.4","","15.8","","79","","31","","27","","19.3","","101.88","","","","","","NA"
"2017-08-02 09:00","2017","08","02","09:00","‡","20.3","","15.8","","75","","30","","28","","19.3","","101.87","","25","","","","NA"
"2017-08-02 10:00","2017","08","02","10:00","‡","20.9","","15.8","","72","","30","","30","","24.1","","101.85","","25","","","","Cloudy"
"2017-08-02 11:00","2017","08","02","11:00","‡","21.9","","16.0","","69","","30","","28","","24.1","","101.80","","27","","","","NA"
"2017-08-02 12:00","2017","08","02","12:00","‡","22.1","","15.8","","67","","31","","26","","24.1","","101.76","","27","","","","NA"
"2017-08-02 13:00","2017","08","02","13:00","‡","22.1","","15.8","","67","","31","","24","","24.1","","101.73","","27","","","","Cloudy"
"2017-08-02 14:00","2017","08","02","14:00","‡","22.1","","15.5","","66","","30","","27","","24.1","","101.67","","26","","","","NA"
"2017-08-02 15:00","2017","08","02","15:00","‡","22.1","","15.9","","68","","31","","24","","24.1","","101.59","","27","","","","NA"
"2017-08-02 16:00","2017","08","02","16:00","‡","21.9","","15.7","","68","","31","","22","","24.1","","101.52","","26","","","","Cloudy"
"2017-08-02 17:00","2017","08","02","17:00","‡","21.5","","15.5","","68","","30","","23","","19.3","","101.47","","26","","","","NA"
"2017-08-02 18:00","2017","08","02","18:00","‡","21.7","","15.1","","66","","31","","23","","16.1","","101.41","","26","","","","NA"
"2017-08-02 19:00","2017","08","02","19:00","‡","20.7","","15.2","","71","","31","","18","","16.1","","101.40","","25","","","","Cloudy"
"2017-08-02 20:00","2017","08","02","20:00","‡","21.2","","14.8","","67","","31","","20","","12.9","","101.40","","25","","","","NA"
"2017-08-02 21:00","2017","08","02","21:00","‡","21.2","","15.2","","68","","30","","18","","12.9","","101.44","","25","","","","NA"
"2017-08-02 22:00","2017","08","02","22:00","‡","19.5","","15.9","","79","","34","","9","","12.9","","101.46","","","","","","Cloudy"
"2017-08-02 23:00","2017","08","02","23:00","‡","19.8","","15.8","","78","","31","","25","","12.9","","101.48","","","","","","NA"
"2017-08-03 00:00","2017","08","03","00:00","‡","18.5","","15.9","","84","","31","","19","","12.9","","101.48","","","","","","NA"
"2017-08-03 01:00","2017","08","03","01:00","‡","17.7","","15.7","","88","","31","","18","","12.9","","101.49","","","","","","Cloudy"
"2017-08-03 02:00","2017","08","03","02:00","‡","17.6","","15.7","","89","","31","","20","","12.9","","101.50","","","","","","NA"
"2017-08-03 03:00","2017","08","03","03:00","‡","17.6","","15.8","","89","","31","","21","","12.9","","101.51","","","","","","NA"
"2017-08-03 04:00","2017","08","03","04:00","‡","17.6","","15.5","","87","","31","","21","","16.1","","101.54","","","","","","Mostly Cloudy"
"2017-08-03 05:00","2017","08","03","05:00","‡","17.1","","15.3","","89","","31","","19","","16.1","","101.55","","","","","","NA"
"2017-08-03 06:00","2017","08","03","06:00","‡","17.7","","15.4","","86","","32","","20","","16.1","","101.57","","","","","","NA"
"2017-08-03 07:00","2017","08","03","07:00","‡","18.6","","15.5","","82","","31","","22","","19.3","","101.59","","","","","","Cloudy"
"2017-08-03 08:00","2017","08","03","08:00","‡","19.3","","15.4","","78","","31","","26","","19.3","","101.59","","","","","","NA"
"2017-08-03 09:00","2017","08","03","09:00","‡","20.2","","15.5","","74","","31","","25","","19.3","","101.57","","","","","","NA"
"2017-08-03 10:00","2017","08","03","10:00","‡","20.4","","15.6","","74","","31","","28","","19.3","","101.53","","25","","","","Cloudy"
"2017-08-03 11:00","2017","08","03","11:00","‡","21.1","","15.9","","72","","30","","23","","19.3","","101.52","","26","","","","NA"
"2017-08-03 12:00","2017","08","03","12:00","‡","21.9","","16.0","","69","","30","","25","","19.3","","101.47","","27","","","","NA"
"2017-08-03 13:00","2017","08","03","13:00","‡","22.6","","16.3","","67","","30","","20","","19.3","","101.42","","27","","","","Cloudy"
"2017-08-03 14:00","2017","08","03","14:00","‡","22.9","","15.9","","64","","29","","20","","19.3","","101.38","","27","","","","NA"
"2017-08-03 15:00","2017","08","03","15:00","‡","23.3","","16.1","","63","","31","","16","","19.3","","101.29","","28","","","","NA"
"2017-08-03 16:00","2017","08","03","16:00","‡","23.9","","15.8","","60","","30","","14","","19.3","","101.23","","28","","","","Cloudy"
"2017-08-03 17:00","2017","08","03","17:00","‡","23.7","","15.4","","59","","29","","10","","19.3","","101.15","","28","","","","NA"
"2017-08-03 18:00","2017","08","03","18:00","‡","22.8","","15.4","","62","","29","","12","","19.3","","101.08","","27","","","","NA"
"2017-08-03 19:00","2017","08","03","19:00","‡","21.7","","14.9","","65","","27","","8","","19.3","","101.05","","26","","","","Mostly Cloudy"
"2017-08-03 20:00","2017","08","03","20:00","‡","20.6","","14.7","","69","","21","","7","","19.3","","101.04","","","","","","NA"
"2017-08-03 21:00","2017","08","03","21:00","‡","20.3","","15.5","","73","","21","","18","","16.1","","101.06","","25","","","","NA"
"2017-08-03 22:00","2017","08","03","22:00","‡","17.9","","16.0","","88","","30","","12","","12.9","","101.05","","","","","","Mostly Cloudy"
"2017-08-03 23:00","2017","08","03","23:00","‡","18.8","","15.7","","82","","27","","3","","12.9","","101.10","","","","","","NA"
"2017-08-04 00:00","2017","08","04","00:00","‡","17.0","","15.1","","88","","31","","10","","12.9","","101.09","","","","","","NA"
"2017-08-04 01:00","2017","08","04","01:00","‡","16.9","","14.9","","88","","34","","10","","12.9","","101.11","","","","","","Cloudy"
"2017-08-04 02:00","2017","08","04","02:00","‡","16.2","","14.7","","90","","30","","7","","12.9","","101.14","","","","","","NA"
"2017-08-04 03:00","2017","08","04","03:00","‡","15.8","","14.6","","93","","31","","11","","12.9","","101.15","","","","","","NA"
"2017-08-04 04:00","2017","08","04","04:00","‡","16.4","","14.9","","91","","31","","15","","12.9","","101.13","","","","","","Cloudy"
"2017-08-04 05:00","2017","08","04","05:00","‡","16.1","","14.7","","92","","29","","13","","16.1","","101.13","","","","","","NA"
"2017-08-04 06:00","2017","08","04","06:00","‡","17.6","","15.2","","85","","30","","18","","19.3","","101.15","","","","","","NA"
"2017-08-04 07:00","2017","08","04","07:00","‡","17.7","","15.7","","88","","30","","22","","19.3","","101.17","","","","","","Cloudy"
"2017-08-04 08:00","2017","08","04","08:00","‡","18.1","","15.7","","85","","30","","22","","19.3","","101.18","","","","","","NA"
"2017-08-04 09:00","2017","08","04","09:00","‡","18.8","","15.8","","83","","30","","19","","19.3","","101.18","","","","","","NA"
"2017-08-04 10:00","2017","08","04","10:00","‡","19.9","","15.8","","77","","30","","22","","19.3","","101.17","","","","","","Cloudy"
"2017-08-04 11:00","2017","08","04","11:00","‡","20.3","","15.8","","75","","31","","19","","19.3","","101.16","","25","","","","NA"
"2017-08-04 12:00","2017","08","04","12:00","‡","20.4","","16.1","","76","","30","","20","","19.3","","101.14","","25","","","","NA"
"2017-08-04 13:00","2017","08","04","13:00","‡","21.1","","16.0","","73","","30","","16","","19.3","","101.11","","26","","","","Cloudy"
"2017-08-04 14:00","2017","08","04","14:00","‡","21.0","","15.7","","71","","27","","15","","19.3","","101.07","","25","","","","NA"
"2017-08-04 15:00","2017","08","04","15:00","‡","20.6","","15.4","","72","","24","","9","","19.3","","101.04","","25","","","","NA"
"2017-08-04 16:00","2017","08","04","16:00","‡","20.9","","15.3","","70","","23","","7","","19.3","","100.99","","25","","","","Cloudy"
"2017-08-04 17:00","2017","08","04","17:00","‡","20.3","","15.0","","71","","24","","8","","19.3","","100.95","","","","","","NA"
"2017-08-04 18:00","2017","08","04","18:00","‡","19.9","","14.0","","68","","25","","7","","19.3","","100.93","","","","","","NA"
"2017-08-04 19:00","2017","08","04","19:00","‡","19.3","","14.9","","75","","36","","2","","16.1","","100.92","","","","","","Cloudy"
"2017-08-04 20:00","2017","08","04","20:00","‡","19.2","","14.2","","72","","1","","4","","16.1","","100.93","","","","","","NA"
"2017-08-04 21:00","2017","08","04","21:00","‡","18.4","","13.6","","74","","0","","1","","16.1","","100.96","","","","","","NA"
"2017-08-04 22:00","2017","08","04","22:00","‡","18.3","","14.8","","79","","12","","6","","16.1","","100.98","","","","","","Cloudy"
"2017-08-04 23:00","2017","08","04","23:00","‡","18.8","","15.3","","80","","8","","11","","19.3","","101.01","","","","","","NA"
"2017-08-05 00:00","2017","08","05","00:00","‡","18.7","","15.3","","80","","8","","7","","19.3","","101.02","","","","","","NA"
"2017-08-05 01:00","2017","08","05","01:00","‡","18.2","","14.8","","81","","9","","9","","19.3","","101.04","","","","","","Cloudy"
"2017-08-05 02:00","2017","08","05","02:00","‡","16.3","","14.2","","87","","11","","4","","19.3","","101.04","","","","","","NA"
"2017-08-05 03:00","2017","08","05","03:00","‡","16.2","","15.0","","92","","36","","2","","19.3","","101.07","","","","","","NA"
"2017-08-05 04:00","2017","08","05","04:00","‡","15.7","","15.1","","96","","36","","1","","19.3","","101.11","","","","","","Cloudy"
"2017-08-05 05:00","2017","08","05","05:00","‡","15.8","","14.4","","91","","11","","5","","16.1","","101.11","","","","","","NA"
"2017-08-05 06:00","2017","08","05","06:00","‡","16.5","","15.0","","90","","12","","9","","12.9","","101.17","","","","","","NA"
"2017-08-05 07:00","2017","08","05","07:00","‡","16.9","","15.3","","90","","10","","14","","12.9","","101.19","","","","","","Cloudy"
"2017-08-05 08:00","2017","08","05","08:00","‡","18.3","","15.0","","81","","12","","10","","16.1","","101.24","","","","","","NA"
"2017-08-05 09:00","2017","08","05","09:00","‡","19.4","","15.3","","77","","13","","12","","16.1","","101.28","","","","","","NA"
"2017-08-05 10:00","2017","08","05","10:00","‡","20.4","","15.0","","71","","12","","13","","19.3","","101.29","","","","","","Cloudy"
"2017-08-05 11:00","2017","08","05","11:00","‡","21.5","","15.2","","67","","12","","9","","19.3","","101.29","","26","","","","NA"
"2017-08-05 12:00","2017","08","05","12:00","‡","22.4","","15.5","","65","","14","","9","","19.3","","101.29","","27","","","","NA"
"2017-08-05 13:00","2017","08","05","13:00","‡","22.9","","15.3","","62","","13","","10","","19.3","","101.26","","27","","","","Cloudy"
"2017-08-05 14:00","2017","08","05","14:00","‡","23.5","","15.6","","61","","12","","10","","19.3","","101.23","","28","","","","NA"
"2017-08-05 15:00","2017","08","05","15:00","‡","23.8","","15.6","","60","","13","","11","","19.3","","101.21","","28","","","","NA"
"2017-08-05 16:00","2017","08","05","16:00","‡","23.6","","15.2","","59","","16","","8","","19.3","","101.17","","28","","","","Cloudy"
"2017-08-05 17:00","2017","08","05","17:00","‡","22.8","","14.9","","61","","13","","10","","19.3","","101.15","","27","","","","NA"
"2017-08-05 18:00","2017","08","05","18:00","‡","22.1","","14.7","","62","","12","","11","","16.1","","101.15","","26","","","","NA"
"2017-08-05 19:00","2017","08","05","19:00","‡","20.2","","14.6","","70","","10","","13","","16.1","","101.14","","","","","","Cloudy"
"2017-08-05 20:00","2017","08","05","20:00","‡","18.6","","14.7","","78","","10","","14","","16.1","","101.18","","","","","","NA"
"2017-08-05 21:00","2017","08","05","21:00","‡","18.0","","14.2","","78","","11","","12","","16.1","","101.22","","","","","","NA"
"2017-08-05 22:00","2017","08","05","22:00","‡","17.5","","14.2","","81","","13","","8","","16.1","","101.23","","","","","","Cloudy"
"2017-08-05 23:00","2017","08","05","23:00","‡","17.1","","14.8","","86","","13","","7","","16.1","","101.26","","","","","","NA"
"2017-08-06 00:00","2017","08","06","00:00","‡","16.6","","14.4","","87","","9","","3","","16.1","","101.29","","","","","","NA"
"2017-08-06 01:00","2017","08","06","01:00","‡","15.5","","14.1","","91","","3","","4","","16.1","","101.29","","","","","","Cloudy"
"2017-08-06 02:00","2017","08","06","02:00","‡","15.8","","14.8","","94","","13","","5","","16.1","","101.32","","","","","","NA"
"2017-08-06 03:00","2017","08","06","03:00","‡","14.9","","13.9","","93","","36","","1","","16.1","","101.34","","","","","","NA"
"2017-08-06 04:00","2017","08","06","04:00","‡","13.6","","13.0","","96","","2","","3","","16.1","","101.36","","","","","","Cloudy"
"2017-08-06 05:00","2017","08","06","05:00","‡","14.4","","13.0","","91","","36","","1","","16.1","","101.39","","","","","","NA"
"2017-08-06 06:00","2017","08","06","06:00","‡","13.9","","12.9","","93","","36","","3","","16.1","","101.42","","","","","","NA"
"2017-08-06 07:00","2017","08","06","07:00","‡","16.9","","15.1","","89","","36","","2","","16.1","","101.43","","","","","","Cloudy"
"2017-08-06 08:00","2017","08","06","08:00","‡","18.0","","15.0","","83","","24","","5","","19.3","","101.43","","","","","","NA"
"2017-08-06 09:00","2017","08","06","09:00","‡","18.8","","15.1","","79","","23","","11","","19.3","","101.45","","","","","","NA"
"2017-08-06 10:00","2017","08","06","10:00","‡","19.7","","15.5","","77","","23","","10","","19.3","","101.44","","","","","","Cloudy"
"2017-08-06 11:00","2017","08","06","11:00","‡","20.1","","15.8","","76","","24","","11","","19.3","","101.43","","25","","","","NA"
"2017-08-06 12:00","2017","08","06","12:00","‡","22.0","","16.8","","72","","26","","12","","19.3","","101.40","","27","","","","NA"
"2017-08-06 13:00","2017","08","06","13:00","‡","22.9","","15.9","","64","","24","","12","","19.3","","101.37","","27","","","","Cloudy"
"2017-08-06 14:00","2017","08","06","14:00","‡","23.1","","15.9","","64","","24","","11","","19.3","","101.35","","28","","","","NA"
"2017-08-06 15:00","2017","08","06","15:00","‡","22.8","","15.6","","64","","23","","11","","19.3","","101.31","","27","","","","NA"
"2017-08-06 16:00","2017","08","06","16:00","‡","22.9","","16.6","","67","","26","","10","","16.1","","101.25","","28","","","","Cloudy"
"2017-08-06 17:00","2017","08","06","17:00","‡","21.6","","17.2","","75","","23","","7","","16.1","","101.24","","27","","","","NA"
"2017-08-06 18:00","2017","08","06","18:00","‡","21.1","","16.7","","76","","22","","7","","12.9","","101.22","","26","","","","NA"
"2017-08-06 19:00","2017","08","06","19:00","‡","20.4","","17.7","","84","","23","","4","","12.9","","101.21","","26","","","","Mostly Cloudy"
"2017-08-06 20:00","2017","08","06","20:00","‡","18.9","","16.9","","88","","29","","4","","11.3","","101.24","","","","","","NA"
"2017-08-06 21:00","2017","08","06","21:00","‡","18.2","","16.6","","90","","36","","2","","11.3","","101.29","","","","","","NA"
"2017-08-06 22:00","2017","08","06","22:00","‡","19.1","","16.2","","83","","11","","6","","9.7","","101.33","","","","","","Fog"
"2017-08-06 23:00","2017","08","06","23:00","‡","17.2","","14.9","","86","","10","","10","","9.7","","101.37","","","","","","Fog"
"2017-08-07 00:00","2017","08","07","00:00","‡","16.8","","14.7","","87","","10","","10","","9.7","","101.40","","","","","","Fog"
"2017-08-07 01:00","2017","08","07","01:00","‡","16.3","","14.1","","87","","11","","9","","9.7","","101.41","","","","","","Fog"
"2017-08-07 02:00","2017","08","07","02:00","‡","15.6","","14.2","","91","","9","","9","","8.1","","101.44","","","","","","Fog"
"2017-08-07 03:00","2017","08","07","03:00","‡","15.3","","14.0","","92","","8","","7","","8.1","","101.47","","","","","","Fog"
"2017-08-07 04:00","2017","08","07","04:00","‡","14.8","","13.5","","92","","10","","11","","9.7","","101.48","","","","","","Fog"
"2017-08-07 05:00","2017","08","07","05:00","‡","15.4","","14.1","","92","","36","","3","","12.9","","101.50","","","","","","NA"
"2017-08-07 06:00","2017","08","07","06:00","‡","15.8","","14.6","","92","","16","","4","","16.1","","101.54","","","","","","NA"
"2017-08-07 07:00","2017","08","07","07:00","‡","17.3","","15.4","","88","","14","","5","","19.3","","101.57","","","","","","Cloudy"
"2017-08-07 08:00","2017","08","07","08:00","‡","18.4","","15.6","","84","","21","","4","","19.3","","101.57","","","","","","NA"
"2017-08-07 09:00","2017","08","07","09:00","‡","19.6","","15.9","","79","","24","","10","","19.3","","101.57","","","","","","NA"
"2017-08-07 10:00","2017","08","07","10:00","‡","20.2","","16.7","","80","","25","","9","","19.3","","101.56","","25","","","","Cloudy"
"2017-08-07 11:00","2017","08","07","11:00","‡","21.9","","17.9","","78","","28","","13","","19.3","","101.55","","28","","","","NA"
"2017-08-07 12:00","2017","08","07","12:00","‡","21.9","","17.8","","77","","29","","18","","19.3","","101.52","","28","","","","NA"
"2017-08-07 13:00","2017","08","07","13:00","‡","22.4","","17.4","","73","","30","","17","","19.3","","101.48","","28","","","","Cloudy"
"2017-08-07 14:00","2017","08","07","14:00","‡","22.4","","17.2","","72","","29","","18","","16.1","","101.44","","28","","","","NA"
"2017-08-07 15:00","2017","08","07","15:00","‡","22.4","","17.5","","73","","30","","15","","16.1","","101.40","","28","","","","NA"
"2017-08-07 16:00","2017","08","07","16:00","‡","22.3","","17.4","","74","","28","","13","","16.1","","101.38","","28","","","","Cloudy"
"2017-08-07 17:00","2017","08","07","17:00","‡","21.7","","16.5","","72","","27","","11","","16.1","","101.36","","27","","","","NA"
"2017-08-07 18:00","2017","08","07","18:00","‡","21.1","","16.6","","75","","28","","7","","12.9","","101.33","","26","","","","NA"
"2017-08-07 19:00","2017","08","07","19:00","‡","19.7","","16.5","","82","","29","","3","","11.3","","101.32","","","","","","Mostly Cloudy"
"2017-08-07 20:00","2017","08","07","20:00","‡","19.4","","17.2","","87","","18","","7","","11.3","","101.36","","","","","","NA"
"2017-08-07 21:00","2017","08","07","21:00","‡","18.8","","16.9","","89","","19","","8","","9.7","","101.39","","","","","","Fog"
"2017-08-07 22:00","2017","08","07","22:00","‡","17.8","","15.8","","88","","24","","7","","8.1","","101.41","","","","","","Fog"
"2017-08-07 23:00","2017","08","07","23:00","‡","18.6","","17.2","","92","","23","","7","","6.4","","101.43","","","","","","Fog"
"2017-08-08 00:00","2017","08","08","00:00","‡","18.4","","17.2","","93","","27","","13","","6.4","","101.46","","","","","","Fog"
"2017-08-08 01:00","2017","08","08","01:00","‡","17.3","","16.5","","95","","29","","8","","6.4","","101.46","","","","","","Fog"
"2017-08-08 02:00","2017","08","08","02:00","‡","17.2","","16.2","","93","","34","","9","","4.8","","101.48","","","","","","Fog"
"2017-08-08 03:00","2017","08","08","03:00","‡","17.4","","16.4","","94","","31","","16","","4.8","","101.51","","","","","","Fog"
"2017-08-08 04:00","2017","08","08","04:00","‡","16.7","","16.0","","96","","31","","12","","4.8","","101.51","","","","","","Fog"
"2017-08-08 05:00","2017","08","08","05:00","‡","16.8","","15.9","","95","","31","","12","","11.3","","101.53","","","","","","NA"
"2017-08-08 06:00","2017","08","08","06:00","‡","17.2","","16.2","","94","","31","","10","","12.9","","101.56","","","","","","NA"
"2017-08-08 07:00","2017","08","08","07:00","‡","18.2","","16.9","","92","","30","","13","","12.9","","101.57","","","","","","Cloudy"
"2017-08-08 08:00","2017","08","08","08:00","‡","19.1","","17.1","","88","","30","","11","","11.3","","101.57","","","","","","NA"
"2017-08-08 09:00","2017","08","08","09:00","‡","19.7","","17.2","","85","","29","","12","","12.9","","101.54","","","","","","NA"
"2017-08-08 10:00","2017","08","08","10:00","‡","20.5","","17.1","","81","","28","","14","","12.9","","101.51","","26","","","","Cloudy"
"2017-08-08 11:00","2017","08","08","11:00","‡","21.4","","17.4","","78","","28","","14","","16.1","","101.48","","27","","","","NA"
"2017-08-08 12:00","2017","08","08","12:00","‡","22.3","","18.2","","77","","30","","13","","16.1","","101.44","","28","","","","NA"
"2017-08-08 13:00","2017","08","08","13:00","‡","22.5","","17.5","","73","","28","","13","","16.1","","101.40","","28","","","","Cloudy"
"2017-08-08 14:00","2017","08","08","14:00","‡","22.8","","18.1","","75","","27","","11","","16.1","","101.35","","29","","","","NA"
"2017-08-08 15:00","2017","08","08","15:00","‡","23.2","","18.1","","72","","26","","10","","16.1","","101.29","","29","","","","NA"
"2017-08-08 16:00","2017","08","08","16:00","‡","21.9","","17.0","","74","","27","","9","","16.1","","101.24","","27","","","","Cloudy"
"2017-08-08 17:00","2017","08","08","17:00","‡","20.9","","17.1","","79","","23","","9","","19.3","","101.21","","26","","","","NA"
"2017-08-08 18:00","2017","08","08","18:00","‡","20.7","","17.1","","79","","26","","5","","12.9","","101.18","","26","","","","NA"
"2017-08-08 19:00","2017","08","08","19:00","‡","20.2","","17.2","","82","","20","","8","","11.3","","101.18","","26","","","","Cloudy"
"2017-08-08 20:00","2017","08","08","20:00","‡","20.4","","17.5","","83","","22","","5","","11.3","","101.20","","26","","","","NA"
"2017-08-08 21:00","2017","08","08","21:00","‡","18.5","","17.6","","94","","","","0","","11.3","","101.21","","","","","","NA"
"2017-08-08 22:00","2017","08","08","22:00","‡","17.1","","16.4","","96","","28","","3","","9.7","","101.24","","","","","","Fog"
"2017-08-08 23:00","2017","08","08","23:00","‡","17.7","","16.7","","94","","36","","2","","9.7","","101.27","","","","","","Fog"
"2017-08-09 00:00","2017","08","09","00:00","‡","17.7","","16.6","","93","","36","","2","","9.7","","101.31","","","","","","Fog"
"2017-08-09 01:00","2017","08","09","01:00","‡","16.5","","15.8","","96","","36","","2","","9.7","","101.31","","","","","","Fog"
"2017-08-09 02:00","2017","08","09","02:00","‡","16.5","","15.7","","95","","0","","1","","9.7","","101.32","","","","","","Fog"
"2017-08-09 03:00","2017","08","09","03:00","‡","16.4","","13.7","","84","","36","","1","","9.7","","101.33","","","","","","Fog"
"2017-08-09 04:00","2017","08","09","04:00","‡","16.9","","15.9","","93","","36","","2","","9.7","","101.33","","","","","","Fog"
"2017-08-09 05:00","2017","08","09","05:00","‡","15.5","","14.9","","96","","36","","2","","11.3","","101.35","","","","","","NA"
"2017-08-09 06:00","2017","08","09","06:00","‡","16.4","","15.9","","97","","36","","3","","12.9","","101.36","","","","","","NA"
"2017-08-09 07:00","2017","08","09","07:00","‡","18.8","","17.6","","93","","22","","7","","11.3","","101.39","","","","","","Cloudy"
"2017-08-09 08:00","2017","08","09","08:00","‡","19.7","","17.0","","84","","18","","5","","11.3","","101.40","","","","","","NA"
"2017-08-09 09:00","2017","08","09","09:00","‡","20.8","","17.2","","80","","22","","8","","11.3","","101.41","","26","","","","NA"
"2017-08-09 10:00","2017","08","09","10:00","‡","21.5","","16.8","","74","","22","","11","","16.1","","101.41","","27","","","","Cloudy"
"2017-08-09 11:00","2017","08","09","11:00","‡","21.4","","17.4","","78","","25","","10","","12.9","","101.39","","27","","","","NA"
"2017-08-09 12:00","2017","08","09","12:00","‡","22.7","","17.2","","71","","22","","10","","16.1","","101.37","","28","","","","NA"
"2017-08-09 13:00","2017","08","09","13:00","‡","23.8","","17.4","","67","","24","","9","","16.1","","101.34","","29","","","","Cloudy"
"2017-08-09 14:00","2017","08","09","14:00","‡","23.8","","17.2","","66","","24","","10","","16.1","","101.30","","29","","","","NA"
"2017-08-09 15:00","2017","08","09","15:00","‡","24.0","","17.2","","65","","23","","11","","11.3","","101.28","","29","","","","NA"
"2017-08-09 16:00","2017","08","09","16:00","‡","23.8","","18.0","","70","","23","","8","","11.3","","101.24","","30","","","","Cloudy"
"2017-08-09 17:00","2017","08","09","17:00","‡","23.3","","17.0","","67","","25","","6","","12.9","","101.21","","29","","","","NA"
"2017-08-09 18:00","2017","08","09","18:00","‡","23.0","","16.9","","68","","27","","5","","12.9","","101.19","","28","","","","NA"
"2017-08-09 19:00","2017","08","09","19:00","‡","21.7","","16.4","","71","","36","","2","","12.9","","101.19","","27","","","","Cloudy"
"2017-08-09 20:00","2017","08","09","20:00","‡","19.9","","16.1","","78","","0","","1","","12.9","","101.21","","","","","","NA"
"2017-08-09 21:00","2017","08","09","21:00","‡","20.1","","16.1","","77","","10","","10","","12.9","","101.25","","25","","","","NA"
"2017-08-09 22:00","2017","08","09","22:00","‡","20.1","","15.6","","75","","10","","7","","12.9","","101.26","","","","","","Cloudy"
"2017-08-09 23:00","2017","08","09","23:00","‡","20.2","","17.2","","83","","13","","3","","12.9","","101.30","","26","","","","NA"
"2017-08-10 00:00","2017","08","10","00:00","‡","18.0","","16.1","","89","","16","","5","","12.9","","101.32","","","","","","NA"
"2017-08-10 01:00","2017","08","10","01:00","‡","18.2","","15.8","","86","","36","","3","","12.9","","101.33","","","","","","Cloudy"
"2017-08-10 02:00","2017","08","10","02:00","‡","17.9","","15.5","","86","","11","","6","","12.9","","101.36","","","","","","NA"
"2017-08-10 03:00","2017","08","10","03:00","‡","17.3","","15.6","","90","","11","","3","","12.9","","101.37","","","","","","NA"
"2017-08-10 04:00","2017","08","10","04:00","‡","17.1","","14.7","","85","","11","","5","","12.9","","101.38","","","","","","Cloudy"
"2017-08-10 05:00","2017","08","10","05:00","‡","16.7","","13.8","","83","","11","","7","","12.9","","101.41","","","","","","NA"
"2017-08-10 06:00","2017","08","10","06:00","‡","16.5","","14.7","","89","","16","","6","","16.1","","101.45","","","","","","NA"
"2017-08-10 07:00","2017","08","10","07:00","‡","18.2","","15.6","","85","","17","","3","","16.1","","101.45","","","","","","Cloudy"
"2017-08-10 08:00","2017","08","10","08:00","‡","19.7","","15.5","","76","","19","","7","","16.1","","101.45","","","","","","NA"
"2017-08-10 09:00","2017","08","10","09:00","‡","20.9","","16.0","","73","","22","","8","","16.1","","101.46","","26","","","","NA"
"2017-08-10 10:00","2017","08","10","10:00","‡","21.2","","17.6","","80","","23","","13","","16.1","","101.45","","27","","","","Cloudy"
"2017-08-10 11:00","2017","08","10","11:00","‡","21.4","","18.3","","82","","23","","11","","16.1","","101.42","","28","","","","NA"
"2017-08-10 12:00","2017","08","10","12:00","‡","23.6","","17.3","","67","","23","","10","","12.9","","101.40","","29","","","","NA"
"2017-08-10 13:00","2017","08","10","13:00","‡","25.2","","18.6","","66","","29","","10","","12.9","","101.34","","32","","","","Cloudy"
"2017-08-10 14:00","2017","08","10","14:00","‡","24.7","","17.5","","64","","24","","12","","12.9","","101.32","","30","","","","NA"
"2017-08-10 15:00","2017","08","10","15:00","‡","25.1","","16.4","","58","","24","","11","","12.9","","101.25","","30","","","","NA"
"2017-08-10 16:00","2017","08","10","16:00","‡","25.7","","17.9","","62","","26","","6","","12.9","","101.19","","32","","","","Cloudy"
"2017-08-10 17:00","2017","08","10","17:00","‡","23.1","","17.3","","69","","24","","11","","16.1","","101.16","","29","","","","NA"
"2017-08-10 18:00","2017","08","10","18:00","‡","23.1","","18.1","","73","","27","","4","","12.9","","101.12","","29","","","","NA"
"2017-08-10 19:00","2017","08","10","19:00","‡","21.3","","17.8","","80","","29","","4","","12.9","","101.09","","27","","","","Mostly Cloudy"
"2017-08-10 20:00","2017","08","10","20:00","‡","20.3","","17.8","","85","","23","","4","","12.9","","101.10","","26","","","","NA"
"2017-08-10 21:00","2017","08","10","21:00","‡","21.3","","17.6","","79","","21","","5","","12.9","","101.11","","27","","","","NA"
"2017-08-10 22:00","2017","08","10","22:00","‡","18.5","","16.8","","90","","27","","3","","12.9","","101.15","","","","","","Mostly Cloudy"
"2017-08-10 23:00","2017","08","10","23:00","‡","18.7","","17.3","","91","","24","","3","","12.9","","101.17","","","","","","NA"
"2017-08-11 00:00","2017","08","11","00:00","‡","18.7","","17.7","","94","","15","","4","","12.9","","101.21","","","","","","NA"
"2017-08-11 01:00","2017","08","11","01:00","‡","18.1","","16.7","","91","","12","","7","","12.9","","101.23","","","","","","Mostly Cloudy"
"2017-08-11 02:00","2017","08","11","02:00","‡","17.4","","15.2","","86","","9","","11","","12.9","","101.24","","","","","","NA"
"2017-08-11 03:00","2017","08","11","03:00","‡","16.7","","14.7","","88","","9","","13","","12.9","","101.27","","","","","","NA"
"2017-08-11 04:00","2017","08","11","04:00","‡","16.4","","14.4","","88","","9","","11","","12.9","","101.29","","","","","","Mostly Cloudy"
"2017-08-11 05:00","2017","08","11","05:00","‡","15.7","","13.8","","88","","10","","14","","16.1","","101.27","","","","","","NA"
"2017-08-11 06:00","2017","08","11","06:00","‡","16.2","","14.0","","87","","13","","11","","19.3","","101.33","","","","","","NA"
"2017-08-11 07:00","2017","08","11","07:00","‡","16.9","","13.9","","82","","9","","12","","19.3","","101.34","","","","","","Cloudy"
"2017-08-11 08:00","2017","08","11","08:00","‡","18.6","","13.9","","74","","10","","12","","19.3","","101.34","","","","","","NA"
"2017-08-11 09:00","2017","08","11","09:00","‡","20.0","","13.8","","67","","14","","15","","19.3","","101.35","","","","","","NA"
"2017-08-11 10:00","2017","08","11","10:00","‡","21.0","","13.7","","63","","14","","10","","19.3","","101.35","","","","","","Cloudy"
"2017-08-11 11:00","2017","08","11","11:00","‡","22.9","","16.1","","65","","24","","6","","19.3","","101.29","","28","","","","NA"
"2017-08-11 12:00","2017","08","11","12:00","‡","22.1","","16.3","","69","","22","","13","","19.3","","101.23","","27","","","","NA"
"2017-08-11 13:00","2017","08","11","13:00","‡","22.9","","17.5","","71","","23","","17","","19.3","","101.20","","29","","","","Cloudy"
"2017-08-11 14:00","2017","08","11","14:00","‡","24.1","","18.3","","70","","23","","9","","19.3","","101.14","","30","","","","NA"
"2017-08-11 15:00","2017","08","11","15:00","‡","23.7","","18.1","","70","","25","","14","","19.3","","101.10","","30","","","","NA"
"2017-08-11 16:00","2017","08","11","16:00","‡","24.0","","17.9","","68","","24","","11","","19.3","","101.07","","30","","","","Cloudy"
"2017-08-11 17:00","2017","08","11","17:00","‡","22.7","","16.4","","67","","25","","12","","19.3","","101.04","","28","","","","NA"
"2017-08-11 18:00","2017","08","11","18:00","‡","21.7","","17.2","","75","","28","","10","","16.1","","101.01","","27","","","","NA"
"2017-08-11 19:00","2017","08","11","19:00","‡","20.9","","16.3","","75","","13","","8","","19.3","","100.98","","26","","","","Mostly Cloudy"
"2017-08-11 20:00","2017","08","11","20:00","‡","19.5","","13.7","","69","","11","","15","","19.3","","101.00","","","","","","NA"
"2017-08-11 21:00","2017","08","11","21:00","‡","17.6","","12.9","","73","","12","","18","","19.3","","101.05","","","","","","NA"
"2017-08-11 22:00","2017","08","11","22:00","‡","16.1","","12.7","","80","","10","","22","","19.3","","101.05","","","","","","Mostly Cloudy"
"2017-08-11 23:00","2017","08","11","23:00","‡","15.6","","12.3","","81","","11","","14","","19.3","","101.09","","","","","","NA"
"2017-08-12 00:00","2017","08","12","00:00","‡","15.5","","13.3","","86","","13","","13","","19.3","","101.11","","","","","","NA"
"2017-08-12 01:00","2017","08","12","01:00","‡","15.2","","12.6","","84","","10","","17","","19.3","","101.14","","","","","","Mostly Cloudy"
"2017-08-12 02:00","2017","08","12","02:00","‡","15.1","","12.9","","86","","14","","15","","19.3","","101.14","","","","","","NA"
"2017-08-12 03:00","2017","08","12","03:00","‡","14.4","","12.8","","90","","11","","16","","19.3","","101.20","","","","","","NA"
"2017-08-12 04:00","2017","08","12","04:00","‡","14.2","","12.2","","88","","13","","17","","19.3","","101.21","","","","","","Cloudy"
"2017-08-12 05:00","2017","08","12","05:00","‡","14.2","","11.9","","86","","11","","18","","19.3","","101.20","","","","","","NA"
"2017-08-12 06:00","2017","08","12","06:00","‡","14.7","","12.0","","84","","10","","21","","24.1","","101.22","","","","","","NA"
"2017-08-12 07:00","2017","08","12","07:00","‡","15.5","","12.3","","81","","12","","19","","24.1","","101.24","","","","","","Mostly Cloudy"
"2017-08-12 08:00","2017","08","12","08:00","‡","16.5","","12.5","","77","","10","","23","","24.1","","101.24","","","","","","NA"
"2017-08-12 09:00","2017","08","12","09:00","‡","18.2","","12.3","","68","","10","","27","","32.2","","101.23","","","","","","NA"
"2017-08-12 10:00","2017","08","12","10:00","‡","18.4","","11.5","","64","","13","","34","","32.2","","101.23","","","","","","Mainly Clear"
"2017-08-12 11:00","2017","08","12","11:00","‡","20.0","","12.0","","59","","12","","29","","40.2","","101.25","","","","","","NA"
"2017-08-12 12:00","2017","08","12","12:00","‡","20.7","","13.1","","61","","13","","23","","40.2","","101.24","","","","","","NA"
"2017-08-12 13:00","2017","08","12","13:00","‡","20.6","","13.1","","62","","13","","23","","40.2","","101.23","","","","","","Mostly Cloudy"
"2017-08-12 14:00","2017","08","12","14:00","‡","20.2","","11.8","","58","","13","","27","","40.2","","101.18","","","","","","NA"
"2017-08-12 15:00","2017","08","12","15:00","‡","21.6","","12.9","","57","","12","","23","","48.3","","101.12","","","","","","NA"
"2017-08-12 16:00","2017","08","12","16:00","‡","20.9","","12.7","","59","","13","","19","","48.3","","101.08","","","","","","Mostly Cloudy"
"2017-08-12 17:00","2017","08","12","17:00","‡","20.4","","12.5","","60","","12","","26","","48.3","","101.08","","","","","","NA"
"2017-08-12 18:00","2017","08","12","18:00","‡","19.9","","12.8","","63","","10","","19","","32.2","","101.11","","","","","","NA"
"2017-08-12 19:00","2017","08","12","19:00","‡","19.0","","12.9","","67","","10","","19","","32.2","","101.11","","","","","","Cloudy"
"2017-08-12 20:00","2017","08","12","20:00","‡","18.6","","13.2","","71","","10","","16","","32.2","","101.14","","","","","","NA"
"2017-08-12 21:00","2017","08","12","21:00","‡","18.3","","14.2","","77","","10","","14","","32.2","","101.15","","","","","","Rain"
"2017-08-12 22:00","2017","08","12","22:00","‡","18.1","","12.7","","70","","21","","18","","32.2","","101.20","","","","","","Cloudy"
"2017-08-12 23:00","2017","08","12","23:00","‡","16.3","","13.8","","85","","12","","8","","32.2","","101.22","","","","","","Rain"
"2017-08-13 00:00","2017","08","13","00:00","‡","15.6","","14.2","","91","","5","","7","","12.9","","101.24","","","","","","Rain"
"2017-08-13 01:00","2017","08","13","01:00","‡","15.3","","14.7","","96","","9","","8","","12.9","","101.20","","","","","","Rain"
"2017-08-13 02:00","2017","08","13","02:00","‡","15.1","","14.6","","97","","10","","12","","8.1","","101.18","","","","","","Rain,Fog"
"2017-08-13 03:00","2017","08","13","03:00","‡","15.2","","14.8","","98","","9","","12","","8.1","","101.16","","","","","","Rain,Fog"
"2017-08-13 04:00","2017","08","13","04:00","‡","15.2","","14.8","","97","","12","","14","","12.9","","101.16","","","","","","Rain"
"2017-08-13 05:00","2017","08","13","05:00","‡","15.5","","14.8","","95","","12","","10","","19.3","","101.16","","","","","","NA"
"2017-08-13 06:00","2017","08","13","06:00","‡","15.6","","14.6","","94","","14","","13","","24.1","","101.18","","","","","","NA"
"2017-08-13 07:00","2017","08","13","07:00","‡","16.4","","15.0","","91","","13","","14","","20.9","","101.19","","","","","","Mostly Cloudy"
"2017-08-13 08:00","2017","08","13","08:00","‡","16.9","","14.7","","86","","15","","19","","20.9","","101.22","","","","","","NA"
"2017-08-13 09:00","2017","08","13","09:00","‡","17.7","","15.0","","84","","15","","17","","22.5","","101.26","","","","","","NA"
"2017-08-13 10:00","2017","08","13","10:00","‡","18.0","","14.7","","81","","21","","10","","22.5","","101.32","","","","","","Mostly Cloudy"
"2017-08-13 11:00","2017","08","13","11:00","‡","18.9","","15.4","","80","","24","","15","","24.1","","101.39","","","","","","NA"
"2017-08-13 12:00","2017","08","13","12:00","‡","19.5","","14.6","","73","","27","","17","","24.1","","101.43","","","","","","NA"
"2017-08-13 13:00","2017","08","13","13:00","‡","20.0","","13.9","","68","","26","","16","","32.2","","101.45","","","","","","Mostly Cloudy"
"2017-08-13 14:00","2017","08","13","14:00","‡","19.7","","14.1","","70","","25","","14","","48.3","","101.45","","","","","","NA"
"2017-08-13 15:00","2017","08","13","15:00","‡","19.9","","13.4","","66","","22","","10","","48.3","","101.44","","","","","","NA"
"2017-08-13 16:00","2017","08","13","16:00","‡","20.6","","12.6","","60","","22","","11","","48.3","","101.44","","","","","","Mainly Clear"
"2017-08-13 17:00","2017","08","13","17:00","‡","19.4","","11.1","","58","","22","","14","","48.3","","101.43","","","","","","NA"
"2017-08-13 18:00","2017","08","13","18:00","‡","19.8","","12.1","","61","","19","","13","","48.3","","101.44","","","","","","NA"
"2017-08-13 19:00","2017","08","13","19:00","‡","18.8","","12.7","","67","","26","","13","","48.3","","101.47","","","","","","Mostly Cloudy"
"2017-08-13 20:00","2017","08","13","20:00","‡","18.4","","12.8","","70","","25","","13","","32.2","","101.49","","","","","","NA"
"2017-08-13 21:00","2017","08","13","21:00","‡","17.8","","13.7","","77","","29","","5","","32.2","","101.52","","","","","","NA"
"2017-08-13 22:00","2017","08","13","22:00","‡","18.3","","11.4","","64","","35","","3","","32.2","","101.56","","","","","","Cloudy"
"2017-08-13 23:00","2017","08","13","23:00","‡","17.7","","11.5","","66","","29","","23","","32.2","","101.55","","","","","","NA"
"2017-08-14 00:00","2017","08","14","00:00","‡","15.9","","11.6","","75","","10","","15","","32.2","","101.55","","","","","","NA"
"2017-08-14 01:00","2017","08","14","01:00","‡","14.3","","11.1","","81","","11","","10","","32.2","","101.54","","","","","","Mostly Cloudy"
"2017-08-14 02:00","2017","08","14","02:00","‡","13.8","","11.4","","85","","10","","21","","32.2","","101.54","","","","","","NA"
"2017-08-14 03:00","2017","08","14","03:00","‡","13.9","","11.4","","85","","8","","14","","32.2","","101.54","","","","","","NA"
"2017-08-14 04:00","2017","08","14","04:00","‡","13.7","","11.5","","86","","8","","17","","32.2","","101.52","","","","","","Mainly Clear"
"2017-08-14 05:00","2017","08","14","05:00","‡","13.8","","10.8","","82","","9","","16","","24.1","","101.54","","","","","","NA"
"2017-08-14 06:00","2017","08","14","06:00","‡","13.8","","10.9","","83","","9","","13","","24.1","","101.54","","","","","","NA"
"2017-08-14 07:00","2017","08","14","07:00","‡","15.2","","11.5","","79","","9","","14","","24.1","","101.55","","","","","","Cloudy"
"2017-08-14 08:00","2017","08","14","08:00","‡","15.9","","11.3","","74","","9","","6","","24.1","","101.58","","","","","","NA"
"2017-08-14 09:00","2017","08","14","09:00","‡","17.4","","11.8","","69","","14","","9","","24.1","","101.60","","","","","","NA"
"2017-08-14 10:00","2017","08","14","10:00","‡","18.6","","12.0","","65","","12","","13","","24.1","","101.59","","","","","","Cloudy"
"2017-08-14 11:00","2017","08","14","11:00","‡","19.8","","12.0","","60","","13","","5","","24.1","","101.57","","","","","","NA"
"2017-08-14 12:00","2017","08","14","12:00","‡","19.5","","12.7","","64","","22","","15","","24.1","","101.53","","","","","","NA"
"2017-08-14 13:00","2017","08","14","13:00","‡","19.2","","13.4","","69","","25","","15","","24.1","","101.50","","","","","","Cloudy"
"2017-08-14 14:00","2017","08","14","14:00","‡","19.3","","12.7","","65","","24","","13","","24.1","","101.45","","","","","","NA"
"2017-08-14 15:00","2017","08","14","15:00","‡","19.9","","12.8","","63","","26","","16","","48.3","","101.41","","","","","","NA"
"2017-08-14 16:00","2017","08","14","16:00","‡","19.1","","12.1","","64","","26","","10","","48.3","","101.37","","","","","","Mostly Cloudy"
"2017-08-14 17:00","2017","08","14","17:00","‡","19.2","","11.1","","59","","21","","11","","48.3","","101.31","","","","","","NA"
"2017-08-14 18:00","2017","08","14","18:00","‡","19.2","","8.8","","51","","25","","8","","48.3","","101.31","","","","","","NA"
"2017-08-14 19:00","2017","08","14","19:00","‡","16.6","","9.9","","64","","28","","9","","48.3","","101.29","","","","","","Mostly Cloudy"
"2017-08-14 20:00","2017","08","14","20:00","‡","16.6","","10.8","","68","","28","","6","","40.2","","101.27","","","","","","NA"
"2017-08-14 21:00","2017","08","14","21:00","‡","16.7","","11.4","","71","","29","","4","","32.2","","101.27","","","","","","NA"
"2017-08-14 22:00","2017","08","14","22:00","‡","17.0","","11.9","","72","","0","","1","","32.2","","101.25","","","","","","Mostly Cloudy"
"2017-08-14 23:00","2017","08","14","23:00","‡","16.4","","11.7","","74","","36","","2","","32.2","","101.26","","","","","","NA"
"2017-08-15 00:00","2017","08","15","00:00","‡","17.3","","13.0","","76","","0","","1","","32.2","","101.27","","","","","","NA"
"2017-08-15 01:00","2017","08","15","01:00","‡","15.2","","11.7","","80","","11","","9","","32.2","","101.29","","","","","","Mostly Cloudy"
"2017-08-15 02:00","2017","08","15","02:00","‡","14.2","","12.1","","87","","9","","12","","32.2","","101.29","","","","","","NA"
"2017-08-15 03:00","2017","08","15","03:00","‡","15.0","","11.9","","82","","8","","11","","32.2","","101.29","","","","","","NA"
"2017-08-15 04:00","2017","08","15","04:00","‡","13.9","","11.6","","86","","10","","10","","32.2","","101.31","","","","","","Mainly Clear"
"2017-08-15 05:00","2017","08","15","05:00","‡","13.2","","11.0","","86","","10","","7","","40.2","","101.33","","","","","","NA"
"2017-08-15 06:00","2017","08","15","06:00","‡","13.7","","11.5","","87","","11","","9","","48.3","","101.41","","","","","","NA"
"2017-08-15 07:00","2017","08","15","07:00","‡","15.7","","12.3","","80","","9","","10","","48.3","","101.42","","","","","","Mainly Clear"
"2017-08-15 08:00","2017","08","15","08:00","‡","17.2","","11.8","","70","","12","","5","","48.3","","101.43","","","","","","NA"
"2017-08-15 09:00","2017","08","15","09:00","‡","18.2","","13.1","","72","","23","","10","","48.3","","101.47","","","","","","NA"
"2017-08-15 10:00","2017","08","15","10:00","‡","17.7","","12.4","","71","","23","","13","","48.3","","101.45","","","","","","Mostly Cloudy"
"2017-08-15 11:00","2017","08","15","11:00","‡","19.3","","13.9","","71","","26","","12","","48.3","","101.49","","","","","","NA"
"2017-08-15 12:00","2017","08","15","12:00","‡","19.6","","13.9","","69","","24","","14","","48.3","","101.48","","","","","","NA"
"2017-08-15 13:00","2017","08","15","13:00","‡","19.6","","13.1","","66","","24","","16","","48.3","","101.46","","","","","","Mainly Clear"
"2017-08-15 14:00","2017","08","15","14:00","‡","19.5","","13.9","","70","","23","","11","","48.3","","101.45","","","","","","NA"
"2017-08-15 15:00","2017","08","15","15:00","‡","20.0","","14.2","","69","","23","","11","","48.3","","101.44","","","","","","NA"
"2017-08-15 16:00","2017","08","15","16:00","‡","20.8","","13.6","","63","","23","","12","","48.3","","101.43","","","","","","Mostly Cloudy"
"2017-08-15 17:00","2017","08","15","17:00","‡","21.0","","12.9","","59","","20","","12","","48.3","","101.38","","","","","","NA"
"2017-08-15 18:00","2017","08","15","18:00","‡","20.8","","13.5","","63","","21","","10","","48.3","","101.38","","","","","","NA"
"2017-08-15 19:00","2017","08","15","19:00","‡","19.1","","14.2","","73","","27","","8","","48.3","","101.40","","","","","","Mainly Clear"
"2017-08-15 20:00","2017","08","15","20:00","‡","16.6","","13.8","","83","","33","","7","","48.3","","101.45","","","","","","NA"
"2017-08-15 21:00","2017","08","15","21:00","‡","18.4","","13.4","","72","","11","","8","","32.2","","101.48","","","","","","NA"
"2017-08-15 22:00","2017","08","15","22:00","‡","16.8","","13.8","","82","","10","","12","","32.2","","101.52","","","","","","Clear"
"2017-08-15 23:00","2017","08","15","23:00","‡","16.3","","13.2","","82","","10","","14","","32.2","","101.54","","","","","","NA"
"2017-08-16 00:00","2017","08","16","00:00","‡","15.4","","12.2","","81","","10","","16","","32.2","","101.55","","","","","","NA"
"2017-08-16 01:00","2017","08","16","01:00","‡","14.8","","12.1","","84","","10","","9","","32.2","","101.57","","","","","","Mainly Clear"
"2017-08-16 02:00","2017","08","16","02:00","‡","14.9","","12.2","","84","","12","","10","","24.1","","101.61","","","","","","NA"
"2017-08-16 03:00","2017","08","16","03:00","‡","13.9","","11.5","","85","","12","","8","","24.1","","101.67","","","","","","NA"
"2017-08-16 04:00","2017","08","16","04:00","‡","14.6","","12.1","","85","","10","","17","","24.1","","101.67","","","","","","Mainly Clear"
"2017-08-16 05:00","2017","08","16","05:00","‡","13.9","","11.5","","86","","11","","12","","48.3","","101.70","","","","","","NA"
"2017-08-16 06:00","2017","08","16","06:00","‡","14.5","","11.8","","84","","10","","19","","48.3","","101.72","","","","","","NA"
"2017-08-16 07:00","2017","08","16","07:00","‡","15.2","","12.1","","82","","10","","19","","48.3","","101.76","","","","","","Mostly Cloudy"
"2017-08-16 08:00","2017","08","16","08:00","‡","16.2","","12.6","","79","","12","","21","","48.3","","101.80","","","","","","NA"
"2017-08-16 09:00","2017","08","16","09:00","‡","17.1","","12.9","","76","","12","","20","","48.3","","101.80","","","","","","NA"
"2017-08-16 10:00","2017","08","16","10:00","‡","18.2","","13.3","","73","","13","","23","","48.3","","101.81","","","","","","Cloudy"
"2017-08-16 11:00","2017","08","16","11:00","‡","19.4","","13.4","","68","","12","","21","","48.3","","101.82","","","","","","NA"
"2017-08-16 12:00","2017","08","16","12:00","‡","20.6","","13.2","","62","","14","","18","","48.3","","101.82","","","","","","NA"
"2017-08-16 13:00","2017","08","16","13:00","‡","22.4","","14.8","","62","","12","","16","","48.3","","101.79","","26","","","","Mainly Clear"
"2017-08-16 14:00","2017","08","16","14:00","‡","22.5","","14.0","","58","","12","","18","","48.3","","101.78","","26","","","","NA"
"2017-08-16 15:00","2017","08","16","15:00","‡","22.5","","11.8","","50","","13","","14","","48.3","","101.75","","25","","","","NA"
"2017-08-16 16:00","2017","08","16","16:00","‡","23.2","","12.5","","50","","13","","16","","48.3","","101.70","","26","","","","Mostly Cloudy"
"2017-08-16 17:00","2017","08","16","17:00","‡","22.0","","11.9","","52","","15","","13","","48.3","","101.67","","","","","","NA"
"2017-08-16 18:00","2017","08","16","18:00","‡","21.1","","13.2","","60","","14","","8","","48.3","","101.66","","","","","","NA"
"2017-08-16 19:00","2017","08","16","19:00","‡","19.6","","14.0","","70","","12","","10","","48.3","","101.67","","","","","","Mainly Clear"
"2017-08-16 20:00","2017","08","16","20:00","‡","18.0","","14.1","","78","","10","","13","","32.2","","101.72","","","","","","NA"
"2017-08-16 21:00","2017","08","16","21:00","‡","16.5","","13.9","","84","","10","","13","","32.2","","101.74","","","","","","NA"
"2017-08-16 22:00","2017","08","16","22:00","‡","16.6","","13.8","","84","","12","","8","","32.2","","101.76","","","","","","Clear"
"2017-08-16 23:00","2017","08","16","23:00","‡","16.6","","14.0","","84","","11","","13","","32.2","","101.79","","","","","","NA"
"2017-08-17 00:00","2017","08","17","00:00","‡","16.2","","13.8","","86","","13","","14","","32.2","","101.83","","","","","","NA"
"2017-08-17 01:00","2017","08","17","01:00","‡","16.1","","13.6","","85","","11","","15","","32.2","","101.83","","","","","","Clear"
"2017-08-17 02:00","2017","08","17","02:00","‡","14.8","","13.4","","91","","10","","7","","32.2","","101.86","","","","","","NA"
"2017-08-17 03:00","2017","08","17","03:00","‡","14.5","","13.1","","91","","10","","9","","32.2","","101.90","","","","","","NA"
"2017-08-17 04:00","2017","08","17","04:00","‡","14.7","","13.4","","92","","9","","10","","32.2","","101.94","","","","","","Mainly Clear"
"2017-08-17 05:00","2017","08","17","05:00","‡","14.3","","13.0","","92","","10","","8","","32.2","","101.96","","","","","","NA"
"2017-08-17 06:00","2017","08","17","06:00","‡","14.2","","13.3","","94","","36","","2","","48.3","","102.02","","","","","","NA"
"2017-08-17 07:00","2017","08","17","07:00","‡","16.8","","14.2","","84","","9","","7","","48.3","","102.08","","","","","","Mostly Cloudy"
"2017-08-17 08:00","2017","08","17","08:00","‡","17.9","","14.1","","78","","9","","7","","48.3","","102.08","","","","","","NA"
"2017-08-17 09:00","2017","08","17","09:00","‡","19.0","","13.9","","72","","14","","10","","48.3","","102.10","","","","","","NA"
"2017-08-17 10:00","2017","08","17","10:00","‡","19.8","","14.3","","70","","14","","9","","48.3","","102.12","","","","","","Mainly Clear"
"2017-08-17 11:00","2017","08","17","11:00","‡","20.7","","14.8","","68","","10","","7","","48.3","","102.15","","25","","","","NA"
"2017-08-17 12:00","2017","08","17","12:00","‡","21.3","","16.9","","76","","22","","14","","48.3","","102.11","","27","","","","NA"
"2017-08-17 13:00","2017","08","17","13:00","‡","22.6","","14.8","","61","","15","","7","","48.3","","102.08","","26","","","","Mainly Clear"
"2017-08-17 14:00","2017","08","17","14:00","‡","22.8","","15.0","","61","","20","","18","","48.3","","102.06","","27","","","","NA"
"2017-08-17 15:00","2017","08","17","15:00","‡","22.7","","15.1","","62","","20","","18","","48.3","","102.03","","27","","","","NA"
"2017-08-17 16:00","2017","08","17","16:00","‡","23.6","","14.0","","54","","16","","14","","48.3","","101.98","","27","","","","Clear"
"2017-08-17 17:00","2017","08","17","17:00","‡","22.9","","13.7","","56","","16","","12","","48.3","","101.93","","26","","","","NA"
"2017-08-17 18:00","2017","08","17","18:00","‡","21.8","","13.4","","58","","16","","15","","48.3","","101.92","","25","","","","NA"
"2017-08-17 19:00","2017","08","17","19:00","‡","20.2","","13.4","","64","","10","","16","","48.3","","101.91","","","","","","Clear"
"2017-08-17 20:00","2017","08","17","20:00","‡","18.6","","13.0","","69","","10","","19","","48.3","","101.94","","","","","","NA"
"2017-08-17 21:00","2017","08","17","21:00","‡","17.7","","13.1","","74","","11","","17","","48.3","","101.94","","","","","","NA"
"2017-08-17 22:00","2017","08","17","22:00","‡","17.2","","13.0","","76","","13","","14","","48.3","","101.94","","","","","","Clear"
"2017-08-17 23:00","2017","08","17","23:00","‡","16.6","","12.8","","78","","10","","18","","48.3","","101.92","","","","","","NA"
"2017-08-18 00:00","2017","08","18","00:00","‡","16.2","","12.0","","76","","10","","19","","48.3","","101.92","","","","","","NA"
"2017-08-18 01:00","2017","08","18","01:00","‡","15.7","","11.8","","77","","10","","20","","48.3","","101.89","","","","","","Clear"
"2017-08-18 02:00","2017","08","18","02:00","‡","15.2","","11.6","","79","","10","","17","","48.3","","101.91","","","","","","NA"
"2017-08-18 03:00","2017","08","18","03:00","‡","14.7","","11.5","","81","","11","","17","","48.3","","101.88","","","","","","NA"
"2017-08-18 04:00","2017","08","18","04:00","‡","14.3","","11.2","","81","","12","","19","","48.3","","101.91","","","","","","Mainly Clear"
"2017-08-18 05:00","2017","08","18","05:00","‡","13.6","","11.2","","85","","10","","21","","32.2","","101.92","","","","","","NA"
"2017-08-18 06:00","2017","08","18","06:00","‡","14.5","","11.7","","83","","9","","19","","32.2","","101.96","","","","","","NA"
"2017-08-18 07:00","2017","08","18","07:00","‡","15.1","","11.9","","81","","9","","23","","40.2","","101.98","","","","","","Mostly Cloudy"
"2017-08-18 08:00","2017","08","18","08:00","‡","15.7","","12.1","","79","","10","","24","","32.2","","101.98","","","","","","NA"
"2017-08-18 09:00","2017","08","18","09:00","‡","16.8","","12.3","","75","","12","","25","","24.1","","102.00","","","","","","NA"
"2017-08-18 10:00","2017","08","18","10:00","‡","17.9","","13.0","","73","","11","","22","","24.1","","102.00","","","","","","Mostly Cloudy"
"2017-08-18 11:00","2017","08","18","11:00","‡","18.9","","13.0","","68","","12","","22","","32.2","","102.01","","","","","","NA"
"2017-08-18 12:00","2017","08","18","12:00","‡","19.6","","13.1","","66","","11","","21","","32.2","","102.00","","","","","","NA"
"2017-08-18 13:00","2017","08","18","13:00","‡","20.2","","13.2","","64","","10","","20","","32.2","","101.99","","","","","","Mostly Cloudy"
"2017-08-18 14:00","2017","08","18","14:00","‡","22.1","","13.0","","56","","13","","16","","40.2","","101.96","","25","","","","NA"
"2017-08-18 15:00","2017","08","18","15:00","‡","22.3","","13.4","","56","","12","","14","","40.2","","101.92","","25","","","","NA"
"2017-08-18 16:00","2017","08","18","16:00","‡","22.9","","13.5","","55","","14","","10","","40.2","","101.88","","26","","","","Mainly Clear"
"2017-08-18 17:00","2017","08","18","17:00","‡","22.5","","14.0","","58","","11","","13","","48.3","","101.85","","26","","","","NA"
"2017-08-18 18:00","2017","08","18","18:00","‡","21.4","","14.5","","65","","12","","15","","48.3","","101.83","","25","","","","NA"
"2017-08-18 19:00","2017","08","18","19:00","‡","19.9","","14.3","","69","","14","","13","","32.2","","101.85","","","","","","Mostly Cloudy"
"2017-08-18 20:00","2017","08","18","20:00","‡","16.9","","13.5","","80","","30","","8","","32.2","","101.91","","","","","","NA"
"2017-08-18 21:00","2017","08","18","21:00","‡","17.5","","15.3","","87","","29","","20","","32.2","","101.92","","","","","","NA"
"2017-08-18 22:00","2017","08","18","22:00","‡","17.8","","14.7","","82","","28","","27","","32.2","","101.91","","","","","","Mainly Clear"
"2017-08-18 23:00","2017","08","18","23:00","‡","17.6","","14.3","","81","","28","","29","","32.2","","101.93","","","","","","NA"
"2017-08-19 00:00","2017","08","19","00:00","‡","17.2","","13.4","","78","","29","","27","","32.2","","101.93","","","","","","NA"
"2017-08-19 01:00","2017","08","19","01:00","‡","17.0","","12.8","","76","","29","","32","","32.2","","101.92","","","","","","Clear"
"2017-08-19 02:00","2017","08","19","02:00","‡","16.9","","11.2","","69","","29","","30","","32.2","","101.93","","","","","","NA"
"2017-08-19 03:00","2017","08","19","03:00","‡","16.5","","11.7","","73","","29","","37","","32.2","","101.95","","","","","","NA"
"2017-08-19 04:00","2017","08","19","04:00","‡","16.6","","11.4","","71","","29","","32","","32.2","","101.99","","","","","","Mostly Cloudy"
"2017-08-19 05:00","2017","08","19","05:00","‡","16.0","","10.9","","71","","30","","26","","32.2","","102.04","","","","","","NA"
"2017-08-19 06:00","2017","08","19","06:00","‡","15.9","","11.3","","74","","29","","32","","24.1","","102.07","","","","","","NA"
"2017-08-19 07:00","2017","08","19","07:00","‡","16.8","","11.7","","72","","30","","29","","24.1","","102.13","","","","","","Mostly Cloudy"
"2017-08-19 08:00","2017","08","19","08:00","‡","17.9","","12.4","","70","","29","","23","","24.1","","102.17","","","","","","NA"
"2017-08-19 09:00","2017","08","19","09:00","‡","18.3","","11.9","","66","","29","","28","","32.2","","102.19","","","","","","NA"
"2017-08-19 10:00","2017","08","19","10:00","‡","18.8","","12.3","","66","","29","","25","","32.2","","102.22","","","","","","Mainly Clear"
"2017-08-19 11:00","2017","08","19","11:00","‡","19.3","","13.0","","66","","30","","16","","48.3","","102.23","","","","","","NA"
"2017-08-19 12:00","2017","08","19","12:00","‡","19.9","","12.8","","63","","28","","11","","48.3","","102.24","","","","","","NA"
"2017-08-19 13:00","2017","08","19","13:00","‡","19.3","","13.0","","67","","26","","12","","48.3","","102.21","","","","","","Mostly Cloudy"
"2017-08-19 14:00","2017","08","19","14:00","‡","19.6","","11.6","","59","","26","","13","","48.3","","102.18","","","","","","NA"
"2017-08-19 15:00","2017","08","19","15:00","‡","20.4","","12.9","","62","","24","","10","","48.3","","102.15","","","","","","NA"
"2017-08-19 16:00","2017","08","19","16:00","‡","19.9","","11.3","","57","","26","","12","","48.3","","102.09","","","","","","Mostly Cloudy"
"2017-08-19 17:00","2017","08","19","17:00","‡","19.4","","12.8","","65","","22","","8","","56.3","","102.05","","","","","","NA"
"2017-08-19 18:00","2017","08","19","18:00","‡","18.7","","12.2","","66","","23","","6","","48.3","","102.02","","","","","","NA"
"2017-08-19 19:00","2017","08","19","19:00","‡","17.1","","12.5","","74","","36","","2","","48.3","","102.02","","","","","","Mostly Cloudy"
"2017-08-19 20:00","2017","08","19","20:00","‡","16.7","","11.6","","72","","36","","1","","48.3","","102.04","","","","","","NA"
"2017-08-19 21:00","2017","08","19","21:00","‡","15.8","","12.0","","78","","2","","4","","48.3","","102.04","","","","","","NA"
"2017-08-19 22:00","2017","08","19","22:00","‡","16.4","","11.5","","73","","36","","1","","48.3","","102.04","","","","","","Clear"
"2017-08-19 23:00","2017","08","19","23:00","‡","15.9","","12.1","","78","","12","","10","","48.3","","102.05","","","","","","NA"
"2017-08-20 00:00","2017","08","20","00:00","‡","15.4","","11.2","","76","","11","","15","","32.2","","102.04","","","","","","NA"
"2017-08-20 01:00","2017","08","20","01:00","‡","14.6","","11.5","","81","","8","","13","","32.2","","102.03","","","","","","Clear"
"2017-08-20 02:00","2017","08","20","02:00","‡","13.9","","11.0","","82","","11","","9","","32.2","","102.05","","","","","","NA"
"2017-08-20 03:00","2017","08","20","03:00","‡","14.5","","11.1","","80","","12","","18","","32.2","","102.02","","","","","","NA"
"2017-08-20 04:00","2017","08","20","04:00","‡","13.6","","10.7","","82","","10","","13","","32.2","","102.02","","","","","","Mostly Cloudy"
"2017-08-20 05:00","2017","08","20","05:00","‡","13.8","","11.2","","84","","12","","13","","32.2","","102.04","","","","","","NA"
"2017-08-20 06:00","2017","08","20","06:00","‡","13.7","","10.9","","83","","11","","13","","32.2","","102.04","","","","","","NA"
"2017-08-20 07:00","2017","08","20","07:00","‡","14.8","","11.8","","82","","11","","10","","32.2","","102.04","","","","","","Mostly Cloudy"
"2017-08-20 08:00","2017","08","20","08:00","‡","15.7","","11.9","","78","","12","","9","","48.3","","102.07","","","","","","NA"
"2017-08-20 09:00","2017","08","20","09:00","‡","17.6","","12.2","","70","","14","","11","","48.3","","102.08","","","","","","NA"
"2017-08-20 10:00","2017","08","20","10:00","‡","19.1","","11.2","","60","","14","","19","","48.3","","102.05","","","","","","Mostly Cloudy"
"2017-08-20 11:00","2017","08","20","11:00","‡","20.3","","11.2","","55","","12","","10","","48.3","","102.04","","","","","","NA"
"2017-08-20 12:00","2017","08","20","12:00","‡","21.0","","10.9","","52","","17","","13","","48.3","","101.98","","","","","","NA"
"2017-08-20 13:00","2017","08","20","13:00","‡","20.9","","14.7","","68","","22","","15","","48.3","","101.97","","25","","","","Mostly Cloudy"
"2017-08-20 14:00","2017","08","20","14:00","‡","20.4","","13.3","","63","","22","","15","","48.3","","101.95","","","","","","NA"
"2017-08-20 15:00","2017","08","20","15:00","‡","20.2","","14.4","","69","","23","","17","","48.3","","101.92","","","","","","NA"
"2017-08-20 16:00","2017","08","20","16:00","‡","21.0","","12.0","","56","","22","","13","","48.3","","101.83","","","","","","Mainly Clear"
"2017-08-20 17:00","2017","08","20","17:00","‡","20.0","","14.0","","68","","22","","11","","48.3","","101.85","","","","","","NA"
"2017-08-20 18:00","2017","08","20","18:00","‡","19.7","","12.9","","65","","23","","10","","48.3","","101.84","","","","","","NA"
"2017-08-20 19:00","2017","08","20","19:00","‡","19.0","","14.3","","74","","20","","4","","48.3","","101.84","","","","","","Mostly Cloudy"
"2017-08-20 20:00","2017","08","20","20:00","‡","18.7","","12.4","","66","","17","","5","","48.3","","101.86","","","","","","NA"
"2017-08-20 21:00","2017","08","20","21:00","‡","18.5","","12.5","","68","","0","","1","","48.3","","101.90","","","","","","NA"
"2017-08-20 22:00","2017","08","20","22:00","‡","16.4","","12.9","","79","","11","","11","","48.3","","101.92","","","","","","Mainly Clear"
"2017-08-20 23:00","2017","08","20","23:00","‡","15.8","","12.7","","81","","10","","12","","48.3","","101.94","","","","","","NA"
"2017-08-21 00:00","2017","08","21","00:00","‡","15.6","","13.0","","85","","9","","15","","48.3","","101.96","","","","","","NA"
"2017-08-21 01:00","2017","08","21","01:00","‡","14.8","","12.5","","85","","10","","13","","48.3","","101.97","","","","","","Mainly Clear"
"2017-08-21 02:00","2017","08","21","02:00","‡","15.3","","12.7","","85","","11","","5","","48.3","","101.96","","","","","","NA"
"2017-08-21 03:00","2017","08","21","03:00","‡","14.6","","13.1","","91","","14","","5","","48.3","","101.97","","","","","","NA"
"2017-08-21 04:00","2017","08","21","04:00","‡","13.3","","12.1","","92","","0","","1","","48.3","","101.97","","","","","","Clear"
"2017-08-21 05:00","2017","08","21","05:00","‡","14.5","","12.4","","87","","18","","6","","48.3","","101.99","","","","","","NA"
"2017-08-21 06:00","2017","08","21","06:00","‡","14.6","","12.4","","86","","13","","6","","48.3","","102.02","","","","","","NA"
"2017-08-21 07:00","2017","08","21","07:00","‡","16.6","","13.6","","82","","14","","5","","48.3","","102.05","","","","","","Mainly Clear"
"2017-08-21 08:00","2017","08","21","08:00","‡","18.9","","13.3","","70","","17","","7","","48.3","","102.05","","","","","","NA"
"2017-08-21 09:00","2017","08","21","09:00","‡","18.4","","12.8","","69","","25","","9","","48.3","","102.01","","","","","","NA"
"2017-08-21 10:00","2017","08","21","10:00","‡","18.9","","14.6","","76","","27","","7","","48.3","","102.00","","","","","","Mainly Clear"
"2017-08-21 11:00","2017","08","21","11:00","‡","20.6","","13.7","","64","","24","","12","","48.3","","101.99","","","","","","NA"
"2017-08-21 12:00","2017","08","21","12:00","‡","21.4","","14.6","","65","","25","","13","","48.3","","101.98","","25","","","","NA"
"2017-08-21 13:00","2017","08","21","13:00","‡","21.3","","11.9","","55","","24","","13","","48.3","","101.93","","","","","","Mainly Clear"
"2017-08-21 14:00","2017","08","21","14:00","‡","21.3","","14.1","","63","","24","","13","","48.3","","101.87","","25","","","","NA"
"2017-08-21 15:00","2017","08","21","15:00","‡","21.2","","13.9","","62","","23","","10","","48.3","","101.81","","25","","","","NA"
"2017-08-21 16:00","2017","08","21","16:00","‡","21.3","","15.1","","67","","23","","13","","48.3","","101.73","","25","","","","Mainly Clear"
"2017-08-21 17:00","2017","08","21","17:00","‡","20.6","","15.1","","70","","24","","10","","48.3","","101.67","","25","","","","NA"
"2017-08-21 18:00","2017","08","21","18:00","‡","20.4","","15.9","","75","","28","","7","","48.3","","101.61","","25","","","","NA"
"2017-08-21 19:00","2017","08","21","19:00","‡","19.0","","16.0","","83","","23","","7","","48.3","","101.57","","","","","","Mainly Clear"
"2017-08-21 20:00","2017","08","21","20:00","‡","18.9","","16.7","","87","","21","","4","","40.2","","101.56","","","","","","NA"
"2017-08-21 21:00","2017","08","21","21:00","‡","18.7","","16.3","","85","","36","","2","","32.2","","101.54","","","","","","NA"
"2017-08-21 22:00","2017","08","21","22:00","‡","17.5","","16.4","","93","","36","","1","","32.2","","101.54","","","","","","Clear"
"2017-08-21 23:00","2017","08","21","23:00","‡","17.5","","15.9","","90","","18","","4","","32.2","","101.52","","","","","","NA"
"2017-08-22 00:00","2017","08","22","00:00","‡","17.1","","15.7","","92","","36","","3","","32.2","","101.52","","","","","","NA"
"2017-08-22 01:00","2017","08","22","01:00","‡","16.5","","15.5","","93","","9","","4","","24.1","","101.51","","","","","","Clear"
"2017-08-22 02:00","2017","08","22","02:00","‡","15.8","","14.3","","91","","36","","1","","24.1","","101.50","","","","","","NA"
"2017-08-22 03:00","2017","08","22","03:00","‡","16.4","","14.5","","88","","36","","3","","24.1","","101.50","","","","","","NA"
"2017-08-22 04:00","2017","08","22","04:00","‡","14.8","","13.6","","92","","4","","5","","32.2","","101.49","","","","","","Clear"
"2017-08-22 05:00","2017","08","22","05:00","‡","15.1","","13.7","","91","","36","","3","","40.2","","101.51","","","","","","NA"
"2017-08-22 06:00","2017","08","22","06:00","‡","15.2","","14.8","","97","","15","","3","","48.3","","101.53","","","","","","NA"
"2017-08-22 07:00","2017","08","22","07:00","‡","18.3","","15.8","","85","","13","","9","","48.3","","101.55","","","","","","Clear"
"2017-08-22 08:00","2017","08","22","08:00","‡","20.3","","15.3","","73","","10","","9","","48.3","","101.55","","","","","","NA"
"2017-08-22 09:00","2017","08","22","09:00","‡","22.0","","16.9","","72","","19","","5","","48.3","","101.55","","27","","","","NA"
"2017-08-22 10:00","2017","08","22","10:00","‡","23.2","","16.7","","66","","24","","10","","48.3","","101.52","","28","","","","Clear"
"2017-08-22 11:00","2017","08","22","11:00","‡","22.7","","18.1","","75","","25","","13","","48.3","","101.50","","29","","","","NA"
"2017-08-22 12:00","2017","08","22","12:00","‡","24.7","","17.6","","64","","22","","16","","48.3","","101.48","","30","","","","NA"
"2017-08-22 13:00","2017","08","22","13:00","‡","25.9","","18.3","","62","","22","","14","","48.3","","101.47","","32","","","","Clear"
"2017-08-22 14:00","2017","08","22","14:00","‡","26.9","","18.4","","59","","21","","16","","48.3","","101.44","","33","","","","NA"
"2017-08-22 15:00","2017","08","22","15:00","‡","27.5","","17.0","","52","","21","","17","","48.3","","101.41","","33","","","","NA"
"2017-08-22 16:00","2017","08","22","16:00","‡","26.9","","17.2","","55","","21","","15","","48.3","","101.36","","32","","","","Mainly Clear"
"2017-08-22 17:00","2017","08","22","17:00","‡","28.0","","14.6","","43","","16","","16","","48.3","","101.32","","32","","","","NA"
"2017-08-22 18:00","2017","08","22","18:00","‡","26.9","","15.0","","48","","14","","11","","48.3","","101.29","","31","","","","NA"
"2017-08-22 19:00","2017","08","22","19:00","‡","23.6","","14.2","","55","","11","","15","","48.3","","101.30","","27","","","","Mainly Clear"
"2017-08-22 20:00","2017","08","22","20:00","‡","21.2","","14.3","","64","","9","","16","","40.2","","101.34","","25","","","","NA"
"2017-08-22 21:00","2017","08","22","21:00","‡","19.3","","14.4","","73","","9","","18","","32.2","","101.35","","","","","","NA"
"2017-08-22 22:00","2017","08","22","22:00","‡","17.5","","13.8","","78","","9","","17","","32.2","","101.36","","","","","","Mainly Clear"
"2017-08-22 23:00","2017","08","22","23:00","‡","17.2","","13.4","","78","","10","","18","","32.2","","101.41","","","","","","NA"
"2017-08-23 00:00","2017","08","23","00:00","‡","16.9","","13.1","","78","","11","","22","","32.2","","101.46","","","","","","NA"
"2017-08-23 01:00","2017","08","23","01:00","‡","16.4","","12.8","","79","","12","","25","","32.2","","101.49","","","","","","Mainly Clear"
"2017-08-23 02:00","2017","08","23","02:00","‡","16.5","","12.6","","77","","12","","26","","32.2","","101.49","","","","","","NA"
"2017-08-23 03:00","2017","08","23","03:00","‡","15.9","","12.6","","81","","11","","25","","32.2","","101.52","","","","","","NA"
"2017-08-23 04:00","2017","08","23","04:00","‡","15.7","","12.6","","82","","12","","19","","32.2","","101.52","","","","","","Mainly Clear"
"2017-08-23 05:00","2017","08","23","05:00","‡","15.1","","12.3","","83","","11","","17","","48.3","","101.55","","","","","","NA"
"2017-08-23 06:00","2017","08","23","06:00","‡","15.4","","12.6","","83","","12","","17","","48.3","","101.59","","","","","","NA"
"2017-08-23 07:00","2017","08","23","07:00","‡","16.9","","12.7","","76","","12","","22","","48.3","","101.59","","","","","","Mostly Cloudy"
"2017-08-23 08:00","2017","08","23","08:00","‡","17.8","","12.7","","72","","11","","23","","48.3","","101.60","","","","","","NA"
"2017-08-23 09:00","2017","08","23","09:00","‡","18.9","","13.0","","68","","12","","21","","48.3","","101.61","","","","","","NA"
"2017-08-23 10:00","2017","08","23","10:00","‡","20.1","","12.6","","62","","12","","26","","48.3","","101.60","","","","","","Mostly Cloudy"
"2017-08-23 11:00","2017","08","23","11:00","‡","21.1","","12.9","","59","","13","","20","","48.3","","101.58","","","","","","NA"
"2017-08-23 12:00","2017","08","23","12:00","‡","20.9","","12.9","","60","","13","","17","","48.3","","101.54","","","","","","NA"
"2017-08-23 13:00","2017","08","23","13:00","‡","22.8","","13.7","","56","","14","","13","","48.3","","101.49","","26","","","","Mainly Clear"
"2017-08-23 14:00","2017","08","23","14:00","‡","23.9","","13.4","","51","","13","","18","","48.3","","101.44","","27","","","","NA"
"2017-08-23 15:00","2017","08","23","15:00","‡","23.8","","12.9","","50","","17","","11","","48.3","","101.39","","27","","","","NA"
"2017-08-23 16:00","2017","08","23","16:00","‡","22.1","","14.5","","62","","22","","15","","48.3","","101.34","","26","","","","Mostly Cloudy"
"2017-08-23 17:00","2017","08","23","17:00","‡","22.0","","14.1","","60","","21","","19","","48.3","","101.30","","25","","","","NA"
"2017-08-23 18:00","2017","08","23","18:00","‡","19.9","","13.1","","64","","23","","7","","48.3","","101.27","","","","","","NA"
"2017-08-23 19:00","2017","08","23","19:00","‡","18.8","","14.1","","74","","22","","7","","48.3","","101.25","","","","","","Mostly Cloudy"
"2017-08-23 20:00","2017","08","23","20:00","‡","19.1","","13.2","","68","","18","","8","","48.3","","101.27","","","","","","NA"
"2017-08-23 21:00","2017","08","23","21:00","‡","18.3","","14.3","","77","","8","","10","","32.2","","101.29","","","","","","NA"
"2017-08-23 22:00","2017","08","23","22:00","‡","16.8","","13.8","","82","","10","","20","","32.2","","101.26","","","","","","Cloudy"
"2017-08-23 23:00","2017","08","23","23:00","‡","16.4","","12.5","","78","","9","","16","","32.2","","101.32","","","","","","NA"
"2017-08-24 00:00","2017","08","24","00:00","‡","15.9","","12.0","","77","","9","","7","","32.2","","101.35","","","","","","NA"
"2017-08-24 01:00","2017","08","24","01:00","‡","15.2","","12.2","","82","","11","","10","","32.2","","101.34","","","","","","Mostly Cloudy"
"2017-08-24 02:00","2017","08","24","02:00","‡","17.1","","12.3","","73","","28","","34","","32.2","","101.37","","","","","","NA"
"2017-08-24 03:00","2017","08","24","03:00","‡","16.5","","10.6","","67","","27","","32","","32.2","","101.40","","","","","","NA"
"2017-08-24 04:00","2017","08","24","04:00","‡","15.7","","10.2","","69","","27","","30","","32.2","","101.43","","","","","","Mainly Clear"
"2017-08-24 05:00","2017","08","24","05:00","‡","15.9","","9.4","","65","","27","","32","","32.2","","101.46","","","","","","NA"
"2017-08-24 06:00","2017","08","24","06:00","‡","15.6","","9.6","","67","","25","","23","","48.3","","101.55","","","","","","NA"
"2017-08-24 07:00","2017","08","24","07:00","‡","16.0","","9.5","","65","","25","","25","","48.3","","101.59","","","","","","Mainly Clear"
"2017-08-24 08:00","2017","08","24","08:00","‡","17.3","","9.6","","60","","25","","24","","48.3","","101.68","","","","","","NA"
"2017-08-24 09:00","2017","08","24","09:00","‡","18.3","","10.0","","58","","23","","20","","48.3","","101.72","","","","","","NA"
"2017-08-24 10:00","2017","08","24","10:00","‡","18.4","","9.5","","56","","22","","13","","48.3","","101.75","","","","","","Mainly Clear"
"2017-08-24 11:00","2017","08","24","11:00","‡","18.9","","10.2","","57","","21","","14","","48.3","","101.76","","","","","","NA"
"2017-08-24 12:00","2017","08","24","12:00","‡","19.4","","9.8","","53","","21","","10","","48.3","","101.75","","","","","","NA"
"2017-08-24 13:00","2017","08","24","13:00","‡","20.9","","8.8","","45","","25","","8","","48.3","","101.75","","","","","","Mainly Clear"
"2017-08-24 14:00","2017","08","24","14:00","‡","20.6","","7.5","","42","","20","","12","","48.3","","101.74","","","","","","NA"
"2017-08-24 15:00","2017","08","24","15:00","‡","21.0","","8.5","","44","","20","","13","","48.3","","101.72","","","","","","NA"
"2017-08-24 16:00","2017","08","24","16:00","‡","20.3","","8.2","","45","","21","","14","","48.3","","101.70","","","","","","Mainly Clear"
"2017-08-24 17:00","2017","08","24","17:00","‡","20.1","","8.8","","48","","21","","8","","48.3","","101.66","","","","","","NA"
"2017-08-24 18:00","2017","08","24","18:00","‡","19.6","","8.6","","48","","19","","9","","48.3","","101.63","","","","","","NA"
"2017-08-24 19:00","2017","08","24","19:00","‡","18.9","","8.6","","51","","18","","5","","48.3","","101.64","","","","","","Mainly Clear"
"2017-08-24 20:00","2017","08","24","20:00","‡","17.7","","8.6","","55","","11","","7","","48.3","","101.67","","","","","","NA"
"2017-08-24 21:00","2017","08","24","21:00","‡","16.1","","9.5","","65","","10","","6","","48.3","","101.69","","","","","","NA"
"2017-08-24 22:00","2017","08","24","22:00","‡","14.9","","10.8","","77","","10","","8","","48.3","","101.70","","","","","","Mainly Clear"
"2017-08-24 23:00","2017","08","24","23:00","‡","13.9","","10.6","","80","","11","","16","","32.2","","101.70","","","","","","NA"
"2017-08-25 00:00","2017","08","25","00:00","‡","13.8","","10.6","","81","","8","","9","","32.2","","101.71","","","","","","NA"
"2017-08-25 01:00","2017","08","25","01:00","‡","13.6","","10.6","","82","","10","","14","","32.2","","101.73","","","","","","Mainly Clear"
"2017-08-25 02:00","2017","08","25","02:00","‡","12.9","","10.5","","85","","9","","11","","32.2","","101.73","","","","","","NA"
"2017-08-25 03:00","2017","08","25","03:00","‡","13.2","","10.6","","84","","9","","10","","32.2","","101.75","","","","","","NA"
"2017-08-25 04:00","2017","08","25","04:00","‡","13.2","","10.4","","83","","9","","13","","32.2","","101.74","","","","","","Mostly Cloudy"
"2017-08-25 05:00","2017","08","25","05:00","‡","13.2","","10.8","","85","","9","","10","","32.2","","101.78","","","","","","NA"
"2017-08-25 06:00","2017","08","25","06:00","‡","14.0","","11.0","","82","","7","","9","","48.3","","101.81","","","","","","NA"
"2017-08-25 07:00","2017","08","25","07:00","‡","14.8","","10.7","","76","","9","","8","","48.3","","101.82","","","","","","Cloudy"
"2017-08-25 08:00","2017","08","25","08:00","‡","15.7","","10.3","","70","","12","","7","","48.3","","101.83","","","","","","NA"
"2017-08-25 09:00","2017","08","25","09:00","‡","16.3","","11.1","","71","","14","","8","","48.3","","101.86","","","","","","NA"
"2017-08-25 10:00","2017","08","25","10:00","‡","17.9","","10.0","","60","","11","","5","","48.3","","101.84","","","","","","Mostly Cloudy"
"2017-08-25 11:00","2017","08","25","11:00","‡","19.3","","11.6","","60","","24","","17","","48.3","","101.86","","","","","","NA"
"2017-08-25 12:00","2017","08","25","12:00","‡","18.8","","13.8","","72","","23","","13","","48.3","","101.84","","","","","","NA"
"2017-08-25 13:00","2017","08","25","13:00","‡","19.3","","13.9","","71","","24","","13","","48.3","","101.84","","","","","","Mainly Clear"
"2017-08-25 14:00","2017","08","25","14:00","‡","20.7","","12.9","","61","","23","","13","","48.3","","101.80","","","","","","NA"
"2017-08-25 15:00","2017","08","25","15:00","‡","20.9","","10.4","","50","","24","","13","","48.3","","101.77","","","","","","NA"
"2017-08-25 16:00","2017","08","25","16:00","‡","20.6","","8.7","","46","","26","","13","","48.3","","101.77","","","","","","Mostly Cloudy"
"2017-08-25 17:00","2017","08","25","17:00","‡","20.1","","10.9","","55","","25","","10","","48.3","","101.79","","","","","","NA"
"2017-08-25 18:00","2017","08","25","18:00","‡","19.1","","10.9","","59","","27","","8","","48.3","","101.77","","","","","","NA"
"2017-08-25 19:00","2017","08","25","19:00","‡","18.0","","13.2","","73","","23","","8","","48.3","","101.75","","","","","","Mainly Clear"
"2017-08-25 20:00","2017","08","25","20:00","‡","16.3","","12.8","","80","","35","","4","","48.3","","101.79","","","","","","NA"
"2017-08-25 21:00","2017","08","25","21:00","‡","16.4","","11.1","","71","","36","","2","","48.3","","101.81","","","","","","NA"
"2017-08-25 22:00","2017","08","25","22:00","‡","16.7","","10.0","","64","","36","","1","","48.3","","101.86","","","","","","Clear"
"2017-08-25 23:00","2017","08","25","23:00","‡","15.8","","10.2","","69","","9","","5","","32.2","","101.88","","","","","","NA"
"2017-08-26 00:00","2017","08","26","00:00","‡","14.5","","11.4","","81","","10","","12","","32.2","","101.92","","","","","","NA"
"2017-08-26 01:00","2017","08","26","01:00","‡","13.7","","11.5","","86","","10","","12","","48.3","","101.93","","","","","","Mainly Clear"
"2017-08-26 02:00","2017","08","26","02:00","‡","13.9","","11.5","","85","","9","","10","","32.2","","101.97","","","","","","NA"
"2017-08-26 03:00","2017","08","26","03:00","‡","13.7","","11.1","","84","","36","","3","","32.2","","101.99","","","","","","NA"
"2017-08-26 04:00","2017","08","26","04:00","‡","13.2","","10.3","","82","","36","","2","","32.2","","102.03","","","","","","Clear"
"2017-08-26 05:00","2017","08","26","05:00","‡","13.2","","10.2","","82","","9","","7","","48.3","","102.07","","","","","","NA"
"2017-08-26 06:00","2017","08","26","06:00","‡","13.3","","10.5","","83","","10","","9","","48.3","","102.11","","","","","","NA"
"2017-08-26 07:00","2017","08","26","07:00","‡","16.2","","11.2","","72","","11","","7","","48.3","","102.15","","","","","","Clear"
"2017-08-26 08:00","2017","08","26","08:00","‡","18.0","","10.2","","60","","11","","6","","48.3","","102.18","","","","","","NA"
"2017-08-26 09:00","2017","08","26","09:00","‡","19.0","","12.0","","64","","22","","8","","48.3","","102.20","","","","","","NA"
"2017-08-26 10:00","2017","08","26","10:00","‡","18.8","","12.7","","68","","22","","11","","48.3","","102.23","","","","","","Clear"
"2017-08-26 11:00","2017","08","26","11:00","‡","19.7","","12.3","","62","","24","","10","","56.3","","102.21","","","","","","NA"
"2017-08-26 12:00","2017","08","26","12:00","‡","20.3","","13.1","","63","","23","","12","","56.3","","102.17","","","","","","NA"
"2017-08-26 13:00","2017","08","26","13:00","‡","21.3","","11.2","","52","","23","","12","","56.3","","102.15","","","","","","Clear"
"2017-08-26 14:00","2017","08","26","14:00","‡","22.1","","11.1","","49","","25","","10","","64.4","","102.09","","","","","","NA"
"2017-08-26 15:00","2017","08","26","15:00","‡","22.9","","11.5","","48","","28","","13","","64.4","","102.06","","25","","","","NA"
"2017-08-26 16:00","2017","08","26","16:00","‡","23.1","","10.2","","44","","28","","12","","64.4","","102.01","","","","","","Clear"
"2017-08-26 17:00","2017","08","26","17:00","‡","22.7","","11.0","","47","","28","","9","","64.4","","101.96","","","","","","NA"
"2017-08-26 18:00","2017","08","26","18:00","‡","21.3","","12.3","","56","","28","","8","","32.2","","101.93","","","","","","NA"
"2017-08-26 19:00","2017","08","26","19:00","‡","19.0","","13.7","","71","","33","","4","","48.3","","101.92","","","","","","Clear"
"2017-08-26 20:00","2017","08","26","20:00","‡","17.2","","14.6","","85","","30","","7","","48.3","","101.94","","","","","","NA"
"2017-08-26 21:00","2017","08","26","21:00","‡","17.8","","14.3","","80","","27","","9","","32.2","","101.95","","","","","","NA"
"2017-08-26 22:00","2017","08","26","22:00","‡","18.1","","16.0","","87","","27","","4","","48.3","","101.95","","","","","","Clear"
"2017-08-26 23:00","2017","08","26","23:00","‡","16.8","","15.3","","91","","35","","7","","48.3","","101.94","","","","","","NA"
"2017-08-27 00:00","2017","08","27","00:00","‡","16.0","","14.1","","88","","35","","4","","48.3","","101.93","","","","","","NA"
"2017-08-27 01:00","2017","08","27","01:00","‡","15.7","","13.5","","87","","3","","4","","48.3","","101.92","","","","","","Clear"
"2017-08-27 02:00","2017","08","27","02:00","‡","15.9","","12.8","","82","","34","","4","","48.3","","101.92","","","","","","NA"
"2017-08-27 03:00","2017","08","27","03:00","‡","14.6","","12.5","","87","","34","","5","","48.3","","101.92","","","","","","NA"
"2017-08-27 04:00","2017","08","27","04:00","‡","15.9","","12.7","","81","","33","","3","","48.3","","101.93","","","","","","Clear"
"2017-08-27 05:00","2017","08","27","05:00","‡","15.7","","12.5","","81","","11","","4","","48.3","","101.92","","","","","","NA"
"2017-08-27 06:00","2017","08","27","06:00","‡","16.3","","13.8","","85","","36","","2","","48.3","","101.96","","","","","","NA"
"2017-08-27 07:00","2017","08","27","07:00","‡","18.2","","14.9","","81","","32","","7","","48.3","","101.99","","","","","","Mainly Clear"
"2017-08-27 08:00","2017","08","27","08:00","‡","20.4","","15.1","","71","","31","","16","","48.3","","101.96","","","","","","NA"
"2017-08-27 09:00","2017","08","27","09:00","‡","20.8","","16.2","","75","","29","","20","","48.3","","101.95","","26","","","","NA"
"2017-08-27 10:00","2017","08","27","10:00","‡","21.5","","16.5","","73","","29","","25","","56.3","","101.93","","26","","","","Mainly Clear"
"2017-08-27 11:00","2017","08","27","11:00","‡","21.6","","17.1","","75","","29","","23","","56.3","","101.88","","27","","","","NA"
"2017-08-27 12:00","2017","08","27","12:00","‡","22.1","","16.8","","72","","29","","21","","64.4","","101.82","","27","","","","NA"
"2017-08-27 13:00","2017","08","27","13:00","‡","23.5","","17.0","","66","","30","","21","","64.4","","101.75","","29","","","","Clear"
"2017-08-27 14:00","2017","08","27","14:00","‡","23.5","","16.6","","65","","30","","21","","64.4","","101.68","","29","","","","NA"
"2017-08-27 15:00","2017","08","27","15:00","‡","23.7","","16.8","","65","","30","","19","","64.4","","101.59","","29","","","","NA"
"2017-08-27 16:00","2017","08","27","16:00","‡","23.7","","16.5","","64","","31","","19","","64.4","","101.52","","29","","","","Clear"
"2017-08-27 17:00","2017","08","27","17:00","‡","23.4","","16.6","","65","","30","","18","","64.4","","101.46","","28","","","","NA"
"2017-08-27 18:00","2017","08","27","18:00","‡","22.6","","16.7","","69","","30","","14","","48.3","","101.42","","28","","","","NA"
"2017-08-27 19:00","2017","08","27","19:00","‡","21.5","","16.2","","72","","32","","16","","48.3","","101.40","","26","","","","Clear"
"2017-08-27 20:00","2017","08","27","20:00","‡","21.3","","16.2","","72","","32","","17","","48.3","","101.42","","26","","","","NA"
"2017-08-27 21:00","2017","08","27","21:00","‡","21.1","","15.8","","71","","30","","15","","48.3","","101.41","","26","","","","NA"
"2017-08-27 22:00","2017","08","27","22:00","‡","18.8","","17.1","","90","","32","","14","","48.3","","101.39","","","","","","Clear"
"2017-08-27 23:00","2017","08","27","23:00","‡","18.4","","16.7","","89","","32","","12","","48.3","","101.42","","","","","","NA"
"2017-08-28 00:00","2017","08","28","00:00","‡","18.5","","16.6","","88","","29","","14","","48.3","","101.44","","","","","","NA"
"2017-08-28 01:00","2017","08","28","01:00","‡","18.3","","16.7","","90","","27","","6","","48.3","","101.45","","","","","","Clear"
"2017-08-28 02:00","2017","08","28","02:00","‡","16.2","","15.2","","94","","32","","10","","48.3","","101.45","","","","","","NA"
"2017-08-28 03:00","2017","08","28","03:00","‡","17.6","","16.3","","92","","31","","15","","48.3","","101.47","","","","","","NA"
"2017-08-28 04:00","2017","08","28","04:00","‡","17.8","","16.4","","92","","31","","16","","48.3","","101.44","","","","","","Clear"
"2017-08-28 05:00","2017","08","28","05:00","‡","17.3","","16.3","","94","","31","","17","","48.3","","101.43","","","","","","NA"
"2017-08-28 06:00","2017","08","28","06:00","‡","17.8","","16.4","","91","","30","","14","","48.3","","101.44","","","","","","NA"
"2017-08-28 07:00","2017","08","28","07:00","‡","18.9","","16.6","","87","","30","","22","","48.3","","101.45","","","","","","Clear"
"2017-08-28 08:00","2017","08","28","08:00","‡","20.1","","16.9","","82","","30","","20","","48.3","","101.46","","25","","","","NA"
"2017-08-28 09:00","2017","08","28","09:00","‡","20.9","","16.7","","77","","31","","25","","48.3","","101.43","","26","","","","NA"
"2017-08-28 10:00","2017","08","28","10:00","‡","21.4","","17.0","","76","","30","","22","","48.3","","101.41","","27","","","","Clear"
"2017-08-28 11:00","2017","08","28","11:00","‡","22.2","","16.5","","70","","29","","22","","48.3","","101.34","","27","","","","NA"
"2017-08-28 12:00","2017","08","28","12:00","‡","23.6","","16.1","","63","","30","","20","","48.3","","101.27","","28","","","","NA"
"2017-08-28 13:00","2017","08","28","13:00","‡","23.1","","16.6","","66","","29","","24","","48.3","","101.20","","28","","","","Clear"
"2017-08-28 14:00","2017","08","28","14:00","‡","24.2","","16.9","","63","","29","","19","","48.3","","101.13","","29","","","","NA"
"2017-08-28 15:00","2017","08","28","15:00","‡","24.1","","16.6","","62","","30","","18","","48.3","","101.05","","29","","","","NA"
"2017-08-28 16:00","2017","08","28","16:00","‡","24.1","","16.1","","61","","29","","17","","48.3","","100.98","","29","","","","Clear"
"2017-08-28 17:00","2017","08","28","17:00","‡","23.8","","15.8","","60","","31","","12","","48.3","","100.93","","28","","","","NA"
"2017-08-28 18:00","2017","08","28","18:00","‡","22.5","","15.7","","65","","32","","8","","48.3","","100.88","","27","","","","NA"
"2017-08-28 19:00","2017","08","28","19:00","‡","21.3","","14.4","","65","","19","","3","","48.3","","100.88","","25","","","","Clear"
"2017-08-28 20:00","2017","08","28","20:00","‡","20.1","","16.0","","77","","20","","8","","40.2","","100.89","","25","","","","NA"
"2017-08-28 21:00","2017","08","28","21:00","‡","20.0","","14.7","","71","","18","","4","","32.2","","100.90","","","","","","NA"
"2017-08-28 22:00","2017","08","28","22:00","‡","18.6","","15.4","","81","","17","","3","","32.2","","100.89","","","","","","Clear"
"2017-08-28 23:00","2017","08","28","23:00","‡","18.7","","15.3","","80","","15","","3","","32.2","","100.89","","","","","","NA"
"2017-08-29 00:00","2017","08","29","00:00","‡","17.9","","15.3","","85","","36","","2","","32.2","","100.93","","","","","","NA"
"2017-08-29 01:00","2017","08","29","01:00","‡","17.4","","14.1","","81","","8","","8","","32.2","","100.92","","","","","","Clear"
"2017-08-29 02:00","2017","08","29","02:00","‡","17.6","","14.5","","82","","8","","8","","32.2","","100.93","","","","","","NA"
"2017-08-29 03:00","2017","08","29","03:00","‡","17.9","","15.4","","85","","10","","9","","32.2","","100.93","","","","","","NA"
"2017-08-29 04:00","2017","08","29","04:00","‡","16.1","","15.5","","96","","0","","1","","32.2","","100.94","","","","","","Clear"
"2017-08-29 05:00","2017","08","29","05:00","‡","16.8","","14.2","","84","","9","","9","","32.2","","100.93","","","","","","NA"
"2017-08-29 06:00","2017","08","29","06:00","‡","16.7","","14.5","","87","","9","","5","","48.3","","100.98","","","","","","NA"
"2017-08-29 07:00","2017","08","29","07:00","‡","19.7","","15.3","","76","","9","","8","","48.3","","101.00","","","","","","Clear"
"2017-08-29 08:00","2017","08","29","08:00","‡","22.1","","14.2","","61","","11","","14","","48.3","","101.02","","26","","","","NA"
"2017-08-29 09:00","2017","08","29","09:00","‡","25.4","","13.6","","47","","11","","11","","32.2","","101.02","","29","","","","NA"
"2017-08-29 10:00","2017","08","29","10:00","‡","26.0","","16.6","","56","","18","","10","","24.1","","101.01","","31","","","","Mainly Clear"
"2017-08-29 11:00","2017","08","29","11:00","‡","25.6","","14.8","","51","","22","","16","","24.1","","101.00","","29","","","","NA"
"2017-08-29 12:00","2017","08","29","12:00","‡","28.4","","14.1","","41","","15","","19","","24.1","","100.97","","32","","","","NA"
"2017-08-29 13:00","2017","08","29","13:00","‡","28.8","","14.3","","40","","13","","23","","24.1","","100.95","","32","","","","Clear"
"2017-08-29 14:00","2017","08","29","14:00","‡","29.2","","14.9","","41","","13","","20","","24.1","","100.93","","33","","","","NA"
"2017-08-29 15:00","2017","08","29","15:00","‡","28.8","","14.6","","41","","14","","14","","24.1","","100.89","","33","","","","NA"
"2017-08-29 16:00","2017","08","29","16:00","‡","28.3","","14.4","","42","","15","","12","","24.1","","100.86","","32","","","","Clear"
"2017-08-29 17:00","2017","08","29","17:00","‡","27.2","","14.1","","44","","11","","13","","32.2","","100.86","","31","","","","NA"
"2017-08-29 18:00","2017","08","29","18:00","‡","25.0","","13.9","","50","","11","","18","","32.2","","100.84","","28","","","","NA"
"2017-08-29 19:00","2017","08","29","19:00","‡","22.5","","14.3","","59","","10","","19","","32.2","","100.87","","26","","","","Mainly Clear"
"2017-08-29 20:00","2017","08","29","20:00","‡","21.2","","14.3","","64","","11","","21","","24.1","","100.92","","25","","","","NA"
"2017-08-29 21:00","2017","08","29","21:00","‡","20.0","","14.1","","68","","13","","18","","24.1","","100.95","","","","","","NA"
"2017-08-29 22:00","2017","08","29","22:00","‡","20.0","","13.8","","67","","11","","17","","24.1","","100.99","","","","","","Clear"
"2017-08-29 23:00","2017","08","29","23:00","‡","18.2","","13.9","","76","","13","","18","","24.1","","101.02","","","","","","NA"
"2017-08-30 00:00","2017","08","30","00:00","‡","18.1","","13.7","","75","","12","","23","","24.1","","101.06","","","","","","NA"
"2017-08-30 01:00","2017","08","30","01:00","‡","17.4","","13.7","","79","","12","","22","","24.1","","101.08","","","","","","Clear"
"2017-08-30 02:00","2017","08","30","02:00","‡","16.5","","13.3","","81","","10","","23","","24.1","","101.16","","","","","","NA"
"2017-08-30 03:00","2017","08","30","03:00","‡","16.4","","13.4","","82","","9","","26","","24.1","","101.20","","","","","","NA"
"2017-08-30 04:00","2017","08","30","04:00","‡","16.4","","13.3","","82","","9","","22","","24.1","","101.25","","","","","","Mainly Clear"
"2017-08-30 05:00","2017","08","30","05:00","‡","15.6","","13.4","","86","","9","","26","","32.2","","101.31","","","","","","NA"
"2017-08-30 06:00","2017","08","30","06:00","‡","15.8","","13.5","","86","","9","","27","","32.2","","101.37","","","","","","NA"
"2017-08-30 07:00","2017","08","30","07:00","‡","16.9","","13.7","","81","","9","","30","","24.1","","101.41","","","","","","Cloudy"
"2017-08-30 08:00","2017","08","30","08:00","‡","17.4","","13.4","","77","","10","","24","","32.2","","101.47","","","","","","NA"
"2017-08-30 09:00","2017","08","30","09:00","‡","18.1","","13.8","","76","","12","","22","","24.1","","101.50","","","","","","NA"
"2017-08-30 10:00","2017","08","30","10:00","‡","19.7","","13.5","","67","","13","","23","","32.2","","101.51","","","","","","Cloudy"
"2017-08-30 11:00","2017","08","30","11:00","‡","20.5","","13.5","","64","","15","","21","","24.1","","101.52","","","","","","NA"
"2017-08-30 12:00","2017","08","30","12:00","‡","21.4","","13.5","","60","","12","","18","","48.3","","101.52","","","","","","NA"
"2017-08-30 13:00","2017","08","30","13:00","‡","22.2","","13.7","","58","","15","","16","","48.3","","101.53","","25","","","","Mostly Cloudy"
"2017-08-30 14:00","2017","08","30","14:00","‡","21.0","","13.6","","62","","14","","13","","48.3","","101.50","","","","","","NA"
"2017-08-30 15:00","2017","08","30","15:00","‡","19.8","","13.9","","68","","20","","14","","48.3","","101.54","","","","","","NA"
"2017-08-30 16:00","2017","08","30","16:00","‡","19.9","","14.2","","69","","20","","11","","48.3","","101.52","","","","","","Cloudy"
"2017-08-30 17:00","2017","08","30","17:00","‡","20.7","","15.1","","70","","19","","9","","48.3","","101.52","","25","","","","NA"
"2017-08-30 18:00","2017","08","30","18:00","‡","20.0","","15.1","","73","","19","","7","","32.2","","101.51","","","","","","NA"
"2017-08-30 19:00","2017","08","30","19:00","‡","19.2","","14.1","","72","","15","","7","","32.2","","101.52","","","","","","Mainly Clear"
"2017-08-30 20:00","2017","08","30","20:00","‡","19.1","","14.3","","74","","13","","7","","32.2","","101.58","","","","","","NA"
"2017-08-30 21:00","2017","08","30","21:00","‡","17.5","","14.3","","81","","9","","13","","32.2","","101.60","","","","","","NA"
"2017-08-30 22:00","2017","08","30","22:00","‡","17.7","","14.7","","82","","9","","16","","32.2","","101.61","","","","","","Mainly Clear"
"2017-08-30 23:00","2017","08","30","23:00","‡","16.8","","14.1","","84","","10","","10","","32.2","","101.62","","","","","","NA"
"2017-08-31 00:00","2017","08","31","00:00","‡","15.9","","13.9","","88","","10","","9","","32.2","","101.66","","","","","","NA"
"2017-08-31 01:00","2017","08","31","01:00","‡","16.2","","14.5","","90","","9","","13","","32.2","","101.69","","","","","","Cloudy"
"2017-08-31 02:00","2017","08","31","02:00","‡","16.5","","14.6","","89","","6","","8","","32.2","","101.74","","","","","","NA"
"2017-08-31 03:00","2017","08","31","03:00","‡","14.1","","12.8","","92","","36","","1","","32.2","","101.76","","","","","","NA"
"2017-08-31 04:00","2017","08","31","04:00","‡","15.6","","14.7","","94","","36","","3","","32.2","","101.79","","","","","","Mainly Clear"
"2017-08-31 05:00","2017","08","31","05:00","‡","14.1","","13.6","","97","","26","","7","","32.2","","101.85","","","","","","NA"
"2017-08-31 06:00","2017","08","31","06:00","‡","16.2","","15.7","","97","","29","","12","","48.3","","101.87","","","","","","NA"
"2017-08-31 07:00","2017","08","31","07:00","‡","17.5","","16.0","","91","","28","","10","","48.3","","101.94","","","","","","Mostly Cloudy"
"2017-08-31 08:00","2017","08","31","08:00","‡","17.8","","15.7","","87","","28","","16","","32.2","","101.98","","","","","","NA"
"2017-08-31 09:00","2017","08","31","09:00","‡","18.4","","15.5","","83","","29","","17","","24.1","","102.04","","","","","","NA"
"2017-08-31 10:00","2017","08","31","10:00","‡","19.0","","15.0","","77","","21","","9","","24.1","","102.04","","","","","","Mainly Clear"
"2017-08-31 11:00","2017","08","31","11:00","‡","19.7","","14.4","","71","","26","","12","","32.2","","102.06","","","","","","NA"
"2017-08-31 12:00","2017","08","31","12:00","‡","21.1","","15.2","","69","","29","","9","","48.3","","102.08","","25","","","","NA"
"2017-08-31 13:00","2017","08","31","13:00","‡","21.6","","14.6","","64","","28","","8","","48.3","","102.05","","25","","","","Mainly Clear"
"2017-08-31 14:00","2017","08","31","14:00","‡","20.3","","15.0","","71","","24","","13","","48.3","","102.07","","","","","","NA"
"2017-08-31 15:00","2017","08","31","15:00","‡","21.0","","13.7","","63","","24","","11","","48.3","","101.99","","","","","","NA"
"2017-08-31 16:00","2017","08","31","16:00","‡","20.9","","14.1","","65","","23","","12","","48.3","","101.97","","","","","","Clear"
"2017-08-31 17:00","2017","08","31","17:00","‡","20.7","","14.3","","67","","22","","8","","48.3","","101.96","","","","","","NA"
"2017-08-31 18:00","2017","08","31","18:00","‡","20.5","","14.9","","70","","21","","9","","48.3","","101.92","","","","","","NA"
"2017-08-31 19:00","2017","08","31","19:00","‡","19.4","","13.8","","70","","17","","9","","48.3","","101.93","","","","","","Clear"
"2017-08-31 20:00","2017","08","31","20:00","‡","19.8","","12.0","","61","","15","","4","","48.3","","101.99","","","","","","NA"
"2017-08-31 21:00","2017","08","31","21:00","‡","18.3","","12.2","","67","","11","","9","","48.3","","101.98","","","","","","NA"
"2017-08-31 22:00","2017","08","31","22:00","‡","17.0","","13.3","","79","","9","","9","","48.3","","101.98","","","","","","Clear"
"2017-08-31 23:00","2017","08","31","23:00","‡","16.1","","13.1","","82","","9","","9","","48.3","","101.97","","","","","","NA"
