"Station Name","VANCOUVER INTL A"
"Province","BRITISH COLUMBIA"
"Latitude","49.19"
"Longitude","-123.18"
"Elevation","4.30"
"Climate Identifier","1108395"
"WMO Identifier","71892"
"TC Identifier","YVR"
"All times are specified in Local Standard Time (LST). Add 1 hour to adjust for Daylight Saving Time where and when it is observed."

"Legend"
"E","Estimated"
"M","Missing"
"NA","Not Available"
"‡","Partner data that is not subject to review by the National Climate Archives"

"Date/Time","Year","Month","Day","Time","Data Quality","Temp (°C)","Temp Flag","Dew Point Temp (°C)","Dew Point Temp Flag","Rel Hum (%)","Rel Hum Flag","Wind Dir (10s deg)","Wind Dir Flag","Wind Spd (km/h)","Wind Spd Flag","Visibility (km)","Visibility Flag","Stn Press (kPa)","Stn Press Flag","Hmdx","Hmdx Flag","Wind Chill","Wind Chill Flag","Weather"
"2016-05-01 00:00","2016","05","01","00:00","‡","9.8","","7.6","","86","","34","","7","","32.2","","102.53","","","","","","NA"
"2016-05-01 01:00","2016","05","01","01:00","‡","10.1","","7.0","","81","","35","","5","","24.1","","102.49","","","","","","Clear"
"2016-05-01 02:00","2016","05","01","02:00","‡","9.5","","6.2","","80","","36","","1","","24.1","","102.46","","","","","","NA"
"2016-05-01 03:00","2016","05","01","03:00","‡","9.2","","6.7","","84","","11","","8","","24.1","","102.43","","","","","","NA"
"2016-05-01 04:00","2016","05","01","04:00","‡","8.5","","6.0","","84","","2","","7","","32.2","","102.41","","","","","","Clear"
"2016-05-01 05:00","2016","05","01","05:00","‡","8.8","","5.9","","82","","36","","3","","48.3","","102.39","","","","","","NA"
"2016-05-01 06:00","2016","05","01","06:00","‡","10.4","","7.5","","82","","18","","3","","48.3","","102.37","","","","","","NA"
"2016-05-01 07:00","2016","05","01","07:00","‡","13.4","","11.1","","86","","36","","2","","48.3","","102.34","","","","","","Mainly Clear"
"2016-05-01 08:00","2016","05","01","08:00","‡","13.6","","11.0","","84","","20","","3","","48.3","","102.28","","","","","","NA"
"2016-05-01 09:00","2016","05","01","09:00","‡","15.2","","10.9","","75","","29","","15","","48.3","","102.22","","","","","","NA"
"2016-05-01 10:00","2016","05","01","10:00","‡","15.8","","10.8","","72","","29","","13","","48.3","","102.14","","","","","","Mainly Clear"
"2016-05-01 11:00","2016","05","01","11:00","‡","16.7","","11.1","","69","","29","","16","","48.3","","102.07","","","","","","NA"
"2016-05-01 12:00","2016","05","01","12:00","‡","17.6","","9.6","","59","","29","","15","","48.3","","101.96","","","","","","NA"
"2016-05-01 13:00","2016","05","01","13:00","‡","17.7","","9.2","","57","","28","","16","","48.3","","101.86","","","","","","Mainly Clear"
"2016-05-01 14:00","2016","05","01","14:00","‡","18.8","","9.7","","55","","28","","13","","48.3","","101.79","","","","","","NA"
"2016-05-01 15:00","2016","05","01","15:00","‡","19.4","","10.2","","55","","28","","13","","48.3","","101.69","","","","","","NA"
"2016-05-01 16:00","2016","05","01","16:00","‡","19.1","","12.5","","65","","29","","13","","48.3","","101.58","","","","","","Clear"
"2016-05-01 17:00","2016","05","01","17:00","‡","18.9","","12.0","","64","","30","","11","","48.3","","101.50","","","","","","NA"
"2016-05-01 18:00","2016","05","01","18:00","‡","18.5","","10.9","","61","","30","","11","","48.3","","101.40","","","","","","NA"
"2016-05-01 19:00","2016","05","01","19:00","‡","16.6","","11.4","","71","","29","","10","","48.3","","101.34","","","","","","Clear"
"2016-05-01 20:00","2016","05","01","20:00","‡","14.3","","10.6","","78","","24","","10","","48.3","","101.35","","","","","","NA"
"2016-05-01 21:00","2016","05","01","21:00","‡","13.3","","11.4","","88","","24","","5","","48.3","","101.34","","","","","","NA"
"2016-05-01 22:00","2016","05","01","22:00","‡","14.0","","12.7","","92","","12","","4","","32.2","","101.36","","","","","","Clear"
"2016-05-01 23:00","2016","05","01","23:00","‡","13.8","","10.8","","82","","16","","8","","32.2","","101.36","","","","","","NA"
"2016-05-02 00:00","2016","05","02","00:00","‡","10.8","","9.9","","94","","23","","5","","32.2","","101.40","","","","","","NA"
"2016-05-02 01:00","2016","05","02","01:00","‡","11.3","","8.9","","85","","2","","5","","32.2","","101.41","","","","","","Clear"
"2016-05-02 02:00","2016","05","02","02:00","‡","11.8","","8.5","","80","","6","","5","","32.2","","101.41","","","","","","NA"
"2016-05-02 03:00","2016","05","02","03:00","‡","10.7","","7.2","","79","","5","","6","","32.2","","101.42","","","","","","NA"
"2016-05-02 04:00","2016","05","02","04:00","‡","11.1","","5.2","","67","","9","","7","","48.3","","101.43","","","","","","Clear"
"2016-05-02 05:00","2016","05","02","05:00","‡","11.0","","6.0","","71","","14","","3","","48.3","","101.42","","","","","","NA"
"2016-05-02 06:00","2016","05","02","06:00","‡","11.8","","7.9","","77","","30","","6","","48.3","","101.48","","","","","","NA"
"2016-05-02 07:00","2016","05","02","07:00","‡","14.5","","8.7","","68","","22","","7","","48.3","","101.51","","","","","","Clear"
"2016-05-02 08:00","2016","05","02","08:00","‡","17.4","","8.4","","55","","1","","7","","48.3","","101.50","","","","","","NA"
"2016-05-02 09:00","2016","05","02","09:00","‡","18.8","","10.7","","59","","28","","9","","48.3","","101.47","","","","","","NA"
"2016-05-02 10:00","2016","05","02","10:00","‡","19.6","","9.9","","53","","28","","11","","48.3","","101.48","","","","","","Clear"
"2016-05-02 11:00","2016","05","02","11:00","‡","19.8","","11.2","","57","","29","","12","","48.3","","101.48","","","","","","NA"
"2016-05-02 12:00","2016","05","02","12:00","‡","20.3","","12.6","","61","","28","","10","","48.3","","101.42","","","","","","NA"
"2016-05-02 13:00","2016","05","02","13:00","‡","22.7","","12.5","","52","","27","","11","","48.3","","101.34","","25","","","","Mainly Clear"
"2016-05-02 14:00","2016","05","02","14:00","‡","21.1","","13.2","","60","","28","","17","","48.3","","101.29","","","","","","NA"
"2016-05-02 15:00","2016","05","02","15:00","‡","20.1","","12.9","","63","","30","","16","","48.3","","101.22","","","","","","NA"
"2016-05-02 16:00","2016","05","02","16:00","‡","24.4","","14.7","","54","","30","","9","","48.3","","101.16","","28","","","","Mostly Cloudy"
"2016-05-02 17:00","2016","05","02","17:00","‡","23.0","","13.3","","54","","30","","8","","48.3","","101.12","","26","","","","NA"
"2016-05-02 18:00","2016","05","02","18:00","‡","21.4","","13.2","","59","","30","","12","","48.3","","101.08","","","","","","NA"
"2016-05-02 19:00","2016","05","02","19:00","‡","18.8","","12.2","","65","","31","","10","","48.3","","101.11","","","","","","Mainly Clear"
"2016-05-02 20:00","2016","05","02","20:00","‡","19.0","","11.4","","61","","31","","5","","48.3","","101.15","","","","","","NA"
"2016-05-02 21:00","2016","05","02","21:00","‡","16.2","","11.6","","74","","31","","11","","48.3","","101.23","","","","","","NA"
"2016-05-02 22:00","2016","05","02","22:00","‡","20.1","","8.6","","47","","4","","10","","48.3","","101.27","","","","","","Mostly Cloudy"
"2016-05-02 23:00","2016","05","02","23:00","‡","19.8","","10.1","","53","","8","","17","","32.2","","101.29","","","","","","NA"
"2016-05-03 00:00","2016","05","03","00:00","‡","19.0","","11.2","","60","","35","","11","","32.2","","101.26","","","","","","NA"
"2016-05-03 01:00","2016","05","03","01:00","‡","15.4","","11.0","","75","","16","","8","","32.2","","101.31","","","","","","Mainly Clear"
"2016-05-03 02:00","2016","05","03","02:00","‡","16.0","","11.0","","72","","14","","3","","32.2","","101.40","","","","","","NA"
"2016-05-03 03:00","2016","05","03","03:00","‡","15.0","","11.8","","81","","4","","9","","32.2","","101.40","","","","","","NA"
"2016-05-03 04:00","2016","05","03","04:00","‡","16.2","","11.2","","72","","36","","7","","32.2","","101.39","","","","","","Mostly Cloudy"
"2016-05-03 05:00","2016","05","03","05:00","‡","15.2","","11.8","","80","","18","","17","","32.2","","101.46","","","","","","NA"
"2016-05-03 06:00","2016","05","03","06:00","‡","15.9","","11.3","","74","","11","","7","","48.3","","101.47","","","","","","Rain"
"2016-05-03 07:00","2016","05","03","07:00","‡","16.2","","12.2","","77","","26","","13","","48.3","","101.56","","","","","","Cloudy"
"2016-05-03 08:00","2016","05","03","08:00","‡","16.2","","13.2","","82","","34","","25","","48.3","","101.52","","","","","","Rain"
"2016-05-03 09:00","2016","05","03","09:00","‡","17.6","","13.6","","77","","27","","21","","48.3","","101.58","","","","","","NA"
"2016-05-03 10:00","2016","05","03","10:00","‡","18.8","","13.3","","70","","29","","26","","48.3","","101.58","","","","","","Cloudy"
"2016-05-03 11:00","2016","05","03","11:00","‡","18.5","","14.7","","78","","27","","23","","48.3","","101.59","","","","","","NA"
"2016-05-03 12:00","2016","05","03","12:00","‡","17.0","","14.0","","82","","26","","27","","48.3","","101.60","","","","","","NA"
"2016-05-03 13:00","2016","05","03","13:00","‡","17.9","","13.5","","75","","28","","23","","48.3","","101.62","","","","","","Cloudy"
"2016-05-03 14:00","2016","05","03","14:00","‡","18.1","","14.1","","77","","28","","25","","48.3","","101.63","","","","","","NA"
"2016-05-03 15:00","2016","05","03","15:00","‡","17.6","","13.8","","78","","28","","24","","48.3","","101.61","","","","","","NA"
"2016-05-03 16:00","2016","05","03","16:00","‡","16.2","","13.4","","83","","28","","30","","48.3","","101.61","","","","","","Cloudy"
"2016-05-03 17:00","2016","05","03","17:00","‡","15.7","","13.4","","86","","28","","26","","48.3","","101.65","","","","","","NA"
"2016-05-03 18:00","2016","05","03","18:00","‡","16.2","","12.8","","80","","29","","20","","48.3","","101.63","","","","","","NA"
"2016-05-03 19:00","2016","05","03","19:00","‡","15.5","","11.9","","79","","30","","7","","48.3","","101.66","","","","","","Cloudy"
"2016-05-03 20:00","2016","05","03","20:00","‡","14.3","","13.0","","92","","25","","10","","32.2","","101.72","","","","","","Rain Showers"
"2016-05-03 21:00","2016","05","03","21:00","‡","14.3","","13.0","","92","","23","","9","","32.2","","101.74","","","","","","NA"
"2016-05-03 22:00","2016","05","03","22:00","‡","14.3","","13.2","","93","","30","","9","","32.2","","101.77","","","","","","Rain Showers"
"2016-05-03 23:00","2016","05","03","23:00","‡","14.0","","13.1","","94","","29","","17","","24.1","","101.81","","","","","","Rain Showers"
"2016-05-04 00:00","2016","05","04","00:00","‡","12.6","","10.2","","85","","29","","33","","24.1","","101.83","","","","","","NA"
"2016-05-04 01:00","2016","05","04","01:00","‡","12.2","","10.8","","91","","28","","39","","24.1","","101.81","","","","","","Cloudy"
"2016-05-04 02:00","2016","05","04","02:00","‡","11.7","","10.1","","90","","28","","37","","24.1","","101.79","","","","","","NA"
"2016-05-04 03:00","2016","05","04","03:00","‡","11.1","","9.0","","87","","29","","35","","24.1","","101.77","","","","","","NA"
"2016-05-04 04:00","2016","05","04","04:00","‡","10.7","","8.1","","84","","29","","44","","24.1","","101.74","","","","","","Cloudy"
"2016-05-04 05:00","2016","05","04","05:00","‡","10.5","","7.6","","82","","29","","47","","24.1","","101.73","","","","","","NA"
"2016-05-04 06:00","2016","05","04","06:00","‡","10.0","","7.4","","84","","29","","43","","24.1","","101.77","","","","","","Rain Showers"
"2016-05-04 07:00","2016","05","04","07:00","‡","10.1","","7.4","","83","","29","","40","","24.1","","101.75","","","","","","Rain Showers"
"2016-05-04 08:00","2016","05","04","08:00","‡","10.0","","8.1","","88","","29","","35","","24.1","","101.78","","","","","","Rain Showers"
"2016-05-04 09:00","2016","05","04","09:00","‡","10.3","","7.6","","83","","29","","39","","24.1","","101.75","","","","","","Rain Showers"
"2016-05-04 10:00","2016","05","04","10:00","‡","11.2","","7.5","","78","","28","","39","","24.1","","101.78","","","","","","Cloudy"
"2016-05-04 11:00","2016","05","04","11:00","‡","12.2","","7.5","","73","","29","","35","","24.1","","101.77","","","","","","NA"
"2016-05-04 12:00","2016","05","04","12:00","‡","13.9","","8.6","","70","","30","","29","","32.2","","101.75","","","","","","NA"
"2016-05-04 13:00","2016","05","04","13:00","‡","14.0","","7.8","","66","","29","","27","","32.2","","101.73","","","","","","Cloudy"
"2016-05-04 14:00","2016","05","04","14:00","‡","15.2","","8.0","","62","","29","","22","","48.3","","101.69","","","","","","NA"
"2016-05-04 15:00","2016","05","04","15:00","‡","15.0","","7.6","","61","","29","","19","","48.3","","101.65","","","","","","NA"
"2016-05-04 16:00","2016","05","04","16:00","‡","15.1","","7.0","","58","","29","","18","","48.3","","101.60","","","","","","Mostly Cloudy"
"2016-05-04 17:00","2016","05","04","17:00","‡","14.1","","8.1","","67","","27","","14","","48.3","","101.55","","","","","","NA"
"2016-05-04 18:00","2016","05","04","18:00","‡","13.1","","8.2","","72","","28","","15","","48.3","","101.49","","","","","","NA"
"2016-05-04 19:00","2016","05","04","19:00","‡","11.4","","7.0","","74","","30","","10","","48.3","","101.51","","","","","","Mostly Cloudy"
"2016-05-04 20:00","2016","05","04","20:00","‡","10.1","","6.7","","79","","31","","13","","48.3","","101.52","","","","","","NA"
"2016-05-04 21:00","2016","05","04","21:00","‡","10.1","","6.5","","78","","34","","6","","48.3","","101.55","","","","","","NA"
"2016-05-04 22:00","2016","05","04","22:00","‡","8.9","","7.4","","90","","28","","7","","48.3","","101.53","","","","","","Mainly Clear"
"2016-05-04 23:00","2016","05","04","23:00","‡","10.0","","8.5","","90","","26","","15","","48.3","","101.57","","","","","","NA"
"2016-05-05 00:00","2016","05","05","00:00","‡","11.1","","8.4","","83","","30","","25","","32.2","","101.57","","","","","","NA"
"2016-05-05 01:00","2016","05","05","01:00","‡","10.9","","8.0","","82","","29","","31","","32.2","","101.57","","","","","","Clear"
"2016-05-05 02:00","2016","05","05","02:00","‡","10.6","","7.7","","82","","29","","28","","32.2","","101.60","","","","","","NA"
"2016-05-05 03:00","2016","05","05","03:00","‡","10.3","","7.7","","84","","30","","25","","32.2","","101.60","","","","","","NA"
"2016-05-05 04:00","2016","05","05","04:00","‡","10.3","","7.7","","84","","30","","26","","32.2","","101.65","","","","","","Mainly Clear"
"2016-05-05 05:00","2016","05","05","05:00","‡","10.4","","8.0","","85","","29","","26","","32.2","","101.67","","","","","","NA"
"2016-05-05 06:00","2016","05","05","06:00","‡","10.8","","8.2","","84","","29","","28","","48.3","","101.70","","","","","","NA"
"2016-05-05 07:00","2016","05","05","07:00","‡","11.7","","8.2","","79","","30","","30","","48.3","","101.72","","","","","","Mostly Cloudy"
"2016-05-05 08:00","2016","05","05","08:00","‡","11.7","","8.2","","79","","29","","33","","48.3","","101.73","","","","","","NA"
"2016-05-05 09:00","2016","05","05","09:00","‡","12.2","","8.1","","76","","30","","34","","48.3","","101.75","","","","","","NA"
"2016-05-05 10:00","2016","05","05","10:00","‡","13.9","","9.0","","72","","29","","34","","48.3","","101.75","","","","","","Mainly Clear"
"2016-05-05 11:00","2016","05","05","11:00","‡","13.9","","9.2","","73","","29","","34","","48.3","","101.75","","","","","","NA"
"2016-05-05 12:00","2016","05","05","12:00","‡","15.0","","9.6","","70","","29","","32","","48.3","","101.72","","","","","","NA"
"2016-05-05 13:00","2016","05","05","13:00","‡","16.2","","10.4","","68","","29","","26","","48.3","","101.71","","","","","","Mainly Clear"
"2016-05-05 14:00","2016","05","05","14:00","‡","16.6","","9.6","","63","","30","","26","","48.3","","101.65","","","","","","NA"
"2016-05-05 15:00","2016","05","05","15:00","‡","16.8","","10.3","","65","","30","","22","","48.3","","101.60","","","","","","NA"
"2016-05-05 16:00","2016","05","05","16:00","‡","16.8","","10.5","","66","","30","","20","","48.3","","101.55","","","","","","Mainly Clear"
"2016-05-05 17:00","2016","05","05","17:00","‡","16.4","","10.1","","66","","30","","23","","48.3","","101.55","","","","","","NA"
"2016-05-05 18:00","2016","05","05","18:00","‡","15.6","","10.6","","72","","31","","14","","48.3","","101.56","","","","","","NA"
"2016-05-05 19:00","2016","05","05","19:00","‡","14.4","","10.1","","75","","31","","18","","48.3","","101.57","","","","","","Clear"
"2016-05-05 20:00","2016","05","05","20:00","‡","14.3","","9.6","","73","","31","","25","","48.3","","101.62","","","","","","NA"
"2016-05-05 21:00","2016","05","05","21:00","‡","13.0","","10.2","","83","","32","","13","","48.3","","101.68","","","","","","NA"
"2016-05-05 22:00","2016","05","05","22:00","‡","11.2","","10.1","","93","","32","","4","","48.3","","101.67","","","","","","Clear"
"2016-05-05 23:00","2016","05","05","23:00","‡","11.4","","10.0","","91","","34","","9","","32.2","","101.72","","","","","","NA"
"2016-05-06 00:00","2016","05","06","00:00","‡","11.2","","8.8","","85","","30","","9","","32.2","","101.78","","","","","","NA"
"2016-05-06 01:00","2016","05","06","01:00","‡","12.1","","10.4","","89","","29","","20","","32.2","","101.84","","","","","","Clear"
"2016-05-06 02:00","2016","05","06","02:00","‡","12.3","","10.2","","87","","31","","22","","32.2","","101.87","","","","","","NA"
"2016-05-06 03:00","2016","05","06","03:00","‡","12.0","","9.9","","87","","30","","27","","32.2","","101.90","","","","","","NA"
"2016-05-06 04:00","2016","05","06","04:00","‡","11.9","","9.5","","85","","30","","28","","32.2","","101.91","","","","","","Clear"
"2016-05-06 05:00","2016","05","06","05:00","‡","11.8","","9.2","","84","","30","","29","","48.3","","101.94","","","","","","NA"
"2016-05-06 06:00","2016","05","06","06:00","‡","12.5","","9.9","","84","","29","","29","","48.3","","101.94","","","","","","NA"
"2016-05-06 07:00","2016","05","06","07:00","‡","13.5","","10.2","","80","","30","","28","","48.3","","101.94","","","","","","Clear"
"2016-05-06 08:00","2016","05","06","08:00","‡","14.3","","10.0","","75","","29","","30","","48.3","","101.94","","","","","","NA"
"2016-05-06 09:00","2016","05","06","09:00","‡","14.7","","10.2","","74","","29","","34","","48.3","","101.97","","","","","","NA"
"2016-05-06 10:00","2016","05","06","10:00","‡","15.7","","10.3","","70","","30","","34","","48.3","","101.92","","","","","","Mainly Clear"
"2016-05-06 11:00","2016","05","06","11:00","‡","15.9","","10.3","","69","","30","","35","","48.3","","101.89","","","","","","NA"
"2016-05-06 12:00","2016","05","06","12:00","‡","16.9","","10.6","","66","","29","","36","","48.3","","101.81","","","","","","NA"
"2016-05-06 13:00","2016","05","06","13:00","‡","18.0","","10.2","","60","","30","","33","","48.3","","101.74","","","","","","Mainly Clear"
"2016-05-06 14:00","2016","05","06","14:00","‡","18.5","","11.2","","62","","29","","26","","48.3","","101.70","","","","","","NA"
"2016-05-06 15:00","2016","05","06","15:00","‡","18.3","","10.5","","60","","30","","23","","48.3","","101.62","","","","","","NA"
"2016-05-06 16:00","2016","05","06","16:00","‡","18.8","","10.5","","58","","31","","18","","48.3","","101.55","","","","","","Mainly Clear"
"2016-05-06 17:00","2016","05","06","17:00","‡","18.0","","10.2","","60","","30","","20","","48.3","","101.50","","","","","","NA"
"2016-05-06 18:00","2016","05","06","18:00","‡","17.2","","9.9","","62","","31","","18","","48.3","","101.45","","","","","","NA"
"2016-05-06 19:00","2016","05","06","19:00","‡","15.9","","9.9","","67","","31","","20","","48.3","","101.42","","","","","","Mainly Clear"
"2016-05-06 20:00","2016","05","06","20:00","‡","15.3","","9.1","","66","","31","","19","","48.3","","101.38","","","","","","NA"
"2016-05-06 21:00","2016","05","06","21:00","‡","14.5","","10.2","","75","","32","","16","","48.3","","101.40","","","","","","NA"
"2016-05-06 22:00","2016","05","06","22:00","‡","15.1","","8.6","","65","","31","","12","","48.3","","101.42","","","","","","Clear"
"2016-05-06 23:00","2016","05","06","23:00","‡","13.1","","9.8","","80","","33","","10","","48.3","","101.43","","","","","","NA"
"2016-05-07 00:00","2016","05","07","00:00","‡","13.4","","9.7","","78","","32","","10","","48.3","","101.42","","","","","","NA"
"2016-05-07 01:00","2016","05","07","01:00","‡","13.3","","10.1","","81","","32","","18","","48.3","","101.44","","","","","","Clear"
"2016-05-07 02:00","2016","05","07","02:00","‡","12.5","","10.2","","86","","30","","16","","48.3","","101.43","","","","","","NA"
"2016-05-07 03:00","2016","05","07","03:00","‡","11.7","","9.8","","88","","31","","16","","48.3","","101.42","","","","","","NA"
"2016-05-07 04:00","2016","05","07","04:00","‡","11.9","","10.2","","89","","30","","19","","48.3","","101.40","","","","","","Clear"
"2016-05-07 05:00","2016","05","07","05:00","‡","11.9","","10.3","","90","","31","","21","","48.3","","101.39","","","","","","NA"
"2016-05-07 06:00","2016","05","07","06:00","‡","12.9","","10.5","","85","","30","","19","","48.3","","101.39","","","","","","NA"
"2016-05-07 07:00","2016","05","07","07:00","‡","13.9","","10.7","","81","","30","","18","","48.3","","101.38","","","","","","Clear"
"2016-05-07 08:00","2016","05","07","08:00","‡","15.2","","10.7","","74","","31","","14","","48.3","","101.32","","","","","","NA"
"2016-05-07 09:00","2016","05","07","09:00","‡","16.3","","10.7","","69","","30","","21","","48.3","","101.28","","","","","","NA"
"2016-05-07 10:00","2016","05","07","10:00","‡","16.6","","10.7","","68","","29","","26","","48.3","","101.27","","","","","","Clear"
"2016-05-07 11:00","2016","05","07","11:00","‡","17.4","","11.7","","69","","29","","20","","48.3","","101.21","","","","","","NA"
"2016-05-07 12:00","2016","05","07","12:00","‡","18.6","","11.0","","61","","29","","14","","48.3","","101.13","","","","","","NA"
"2016-05-07 13:00","2016","05","07","13:00","‡","18.5","","10.4","","59","","28","","17","","48.3","","101.09","","","","","","Mainly Clear"
"2016-05-07 14:00","2016","05","07","14:00","‡","19.8","","10.3","","54","","29","","20","","48.3","","101.05","","","","","","NA"
"2016-05-07 15:00","2016","05","07","15:00","‡","19.3","","10.9","","58","","27","","16","","48.3","","100.97","","","","","","NA"
"2016-05-07 16:00","2016","05","07","16:00","‡","17.7","","10.2","","61","","25","","13","","48.3","","100.96","","","","","","Mostly Cloudy"
"2016-05-07 17:00","2016","05","07","17:00","‡","18.5","","9.9","","57","","31","","9","","48.3","","100.93","","","","","","NA"
"2016-05-07 18:00","2016","05","07","18:00","‡","17.3","","10.3","","63","","18","","3","","48.3","","100.83","","","","","","NA"
"2016-05-07 19:00","2016","05","07","19:00","‡","17.3","","11.2","","67","","22","","14","","48.3","","100.87","","","","","","Mostly Cloudy"
"2016-05-07 20:00","2016","05","07","20:00","‡","14.2","","11.4","","83","","31","","17","","48.3","","100.88","","","","","","NA"
"2016-05-07 21:00","2016","05","07","21:00","‡","14.2","","10.8","","80","","28","","39","","32.2","","100.86","","","","","","NA"
"2016-05-07 22:00","2016","05","07","22:00","‡","13.6","","9.3","","75","","28","","52","","32.2","","100.87","","","","","","Mainly Clear"
"2016-05-07 23:00","2016","05","07","23:00","‡","12.6","","7.1","","69","","28","","52","","32.2","","100.92","","","","","","NA"
"2016-05-08 00:00","2016","05","08","00:00","‡","11.9","","7.3","","73","","28","","49","","32.2","","101.00","","","","","","NA"
"2016-05-08 01:00","2016","05","08","01:00","‡","11.4","","7.0","","74","","27","","52","","32.2","","101.01","","","","","","Mainly Clear"
"2016-05-08 02:00","2016","05","08","02:00","‡","11.1","","6.7","","74","","28","","48","","32.2","","101.09","","","","","","NA"
"2016-05-08 03:00","2016","05","08","03:00","‡","11.0","","6.4","","73","","28","","56","","24.1","","101.16","","","","","","NA"
"2016-05-08 04:00","2016","05","08","04:00","‡","10.3","","5.7","","73","","27","","46","","32.2","","101.20","","","","","","Mainly Clear"
"2016-05-08 05:00","2016","05","08","05:00","‡","10.2","","5.2","","71","","27","","35","","32.2","","101.24","","","","","","NA"
"2016-05-08 06:00","2016","05","08","06:00","‡","10.3","","5.3","","71","","27","","33","","24.1","","101.27","","","","","","NA"
"2016-05-08 07:00","2016","05","08","07:00","‡","11.4","","5.1","","65","","27","","39","","24.1","","101.35","","","","","","Mostly Cloudy"
"2016-05-08 08:00","2016","05","08","08:00","‡","12.3","","5.1","","61","","27","","37","","24.1","","101.40","","","","","","NA"
"2016-05-08 09:00","2016","05","08","09:00","‡","13.1","","5.1","","58","","27","","28","","32.2","","101.42","","","","","","NA"
"2016-05-08 10:00","2016","05","08","10:00","‡","13.6","","5.8","","59","","26","","30","","48.3","","101.41","","","","","","Mainly Clear"
"2016-05-08 11:00","2016","05","08","11:00","‡","14.0","","5.9","","58","","27","","25","","48.3","","101.42","","","","","","NA"
"2016-05-08 12:00","2016","05","08","12:00","‡","14.9","","5.2","","52","","28","","14","","48.3","","101.41","","","","","","NA"
"2016-05-08 13:00","2016","05","08","13:00","‡","14.1","","5.0","","54","","25","","12","","48.3","","101.39","","","","","","Mainly Clear"
"2016-05-08 14:00","2016","05","08","14:00","‡","15.2","","4.4","","48","","23","","12","","48.3","","101.34","","","","","","NA"
"2016-05-08 15:00","2016","05","08","15:00","‡","15.4","","4.8","","49","","18","","16","","48.3","","101.28","","","","","","NA"
"2016-05-08 16:00","2016","05","08","16:00","‡","15.4","","7.0","","57","","19","","21","","48.3","","101.23","","","","","","Mainly Clear"
"2016-05-08 17:00","2016","05","08","17:00","‡","14.6","","7.5","","62","","19","","19","","48.3","","101.18","","","","","","NA"
"2016-05-08 18:00","2016","05","08","18:00","‡","13.6","","8.5","","71","","19","","16","","32.2","","101.19","","","","","","NA"
"2016-05-08 19:00","2016","05","08","19:00","‡","12.7","","8.0","","73","","19","","16","","32.2","","101.20","","","","","","Mainly Clear"
"2016-05-08 20:00","2016","05","08","20:00","‡","11.3","","8.4","","82","","16","","9","","32.2","","101.26","","","","","","NA"
"2016-05-08 21:00","2016","05","08","21:00","‡","12.5","","7.8","","73","","10","","18","","32.2","","101.34","","","","","","Rain Showers"
"2016-05-08 22:00","2016","05","08","22:00","‡","11.7","","6.2","","69","","9","","16","","32.2","","101.43","","","","","","Mostly Cloudy"
"2016-05-08 23:00","2016","05","08","23:00","‡","9.9","","5.7","","75","","10","","13","","32.2","","101.45","","","","","","NA"
"2016-05-09 00:00","2016","05","09","00:00","‡","9.6","","5.4","","75","","15","","6","","32.2","","101.49","","","","","","NA"
"2016-05-09 01:00","2016","05","09","01:00","‡","9.6","","6.5","","81","","25","","13","","32.2","","101.58","","","","","","Mainly Clear"
"2016-05-09 02:00","2016","05","09","02:00","‡","7.6","","5.8","","88","","29","","8","","32.2","","101.58","","","","","","NA"
"2016-05-09 03:00","2016","05","09","03:00","‡","7.2","","6.0","","92","","29","","10","","32.2","","101.60","","","","","","NA"
"2016-05-09 04:00","2016","05","09","04:00","‡","8.7","","7.2","","90","","31","","17","","32.2","","101.63","","","","","","Mainly Clear"
"2016-05-09 05:00","2016","05","09","05:00","‡","7.9","","6.4","","90","","8","","13","","32.2","","101.69","","","","","","NA"
"2016-05-09 06:00","2016","05","09","06:00","‡","9.7","","7.3","","85","","5","","7","","32.2","","101.78","","","","","","NA"
"2016-05-09 07:00","2016","05","09","07:00","‡","10.9","","7.2","","78","","2","","8","","32.2","","101.84","","","","","","Clear"
"2016-05-09 08:00","2016","05","09","08:00","‡","11.4","","7.7","","78","","23","","7","","32.2","","101.89","","","","","","NA"
"2016-05-09 09:00","2016","05","09","09:00","‡","12.6","","8.1","","74","","26","","13","","32.2","","101.91","","","","","","NA"
"2016-05-09 10:00","2016","05","09","10:00","‡","13.4","","8.3","","71","","27","","17","","32.2","","101.92","","","","","","Mainly Clear"
"2016-05-09 11:00","2016","05","09","11:00","‡","14.4","","9.1","","70","","27","","20","","48.3","","101.92","","","","","","NA"
"2016-05-09 12:00","2016","05","09","12:00","‡","15.3","","8.8","","65","","29","","16","","48.3","","101.91","","","","","","NA"
"2016-05-09 13:00","2016","05","09","13:00","‡","15.3","","9.1","","66","","27","","15","","48.3","","101.89","","","","","","Mainly Clear"
"2016-05-09 14:00","2016","05","09","14:00","‡","16.3","","8.8","","61","","28","","17","","48.3","","101.86","","","","","","NA"
"2016-05-09 15:00","2016","05","09","15:00","‡","17.5","","10.0","","61","","27","","17","","48.3","","101.85","","","","","","NA"
"2016-05-09 16:00","2016","05","09","16:00","‡","18.1","","8.5","","53","","29","","18","","48.3","","101.83","","","","","","Mainly Clear"
"2016-05-09 17:00","2016","05","09","17:00","‡","17.7","","8.4","","54","","28","","16","","48.3","","101.83","","","","","","NA"
"2016-05-09 18:00","2016","05","09","18:00","‡","16.5","","7.5","","55","","27","","11","","48.3","","101.85","","","","","","NA"
"2016-05-09 19:00","2016","05","09","19:00","‡","14.6","","9.2","","70","","20","","10","","48.3","","101.86","","","","","","Mainly Clear"
"2016-05-09 20:00","2016","05","09","20:00","‡","13.3","","9.4","","77","","22","","9","","48.3","","101.90","","","","","","NA"
"2016-05-09 21:00","2016","05","09","21:00","‡","14.1","","6.0","","58","","25","","13","","48.3","","101.96","","","","","","NA"
"2016-05-09 22:00","2016","05","09","22:00","‡","11.4","","6.2","","70","","9","","9","","48.3","","102.06","","","","","","Mainly Clear"
"2016-05-09 23:00","2016","05","09","23:00","‡","11.6","","7.2","","74","","9","","13","","32.2","","102.11","","","","","","NA"
"2016-05-10 00:00","2016","05","10","00:00","‡","10.5","","6.3","","75","","8","","13","","32.2","","102.17","","","","","","NA"
"2016-05-10 01:00","2016","05","10","01:00","‡","10.2","","5.4","","72","","9","","12","","32.2","","102.25","","","","","","Clear"
"2016-05-10 02:00","2016","05","10","02:00","‡","11.1","","5.0","","66","","9","","7","","32.2","","102.30","","","","","","NA"
"2016-05-10 03:00","2016","05","10","03:00","‡","10.5","","4.9","","68","","10","","3","","32.2","","102.34","","","","","","NA"
"2016-05-10 04:00","2016","05","10","04:00","‡","8.9","","4.2","","72","","1","","5","","48.3","","102.38","","","","","","Clear"
"2016-05-10 05:00","2016","05","10","05:00","‡","7.8","","5.5","","85","","2","","5","","48.3","","102.42","","","","","","NA"
"2016-05-10 06:00","2016","05","10","06:00","‡","10.9","","6.7","","75","","13","","5","","48.3","","102.45","","","","","","NA"
"2016-05-10 07:00","2016","05","10","07:00","‡","13.0","","7.5","","69","","19","","5","","48.3","","102.49","","","","","","Clear"
"2016-05-10 08:00","2016","05","10","08:00","‡","13.8","","8.9","","72","","23","","11","","48.3","","102.51","","","","","","NA"
"2016-05-10 09:00","2016","05","10","09:00","‡","14.5","","8.3","","66","","24","","10","","48.3","","102.49","","","","","","NA"
"2016-05-10 10:00","2016","05","10","10:00","‡","14.4","","8.8","","69","","23","","11","","48.3","","102.48","","","","","","Clear"
"2016-05-10 11:00","2016","05","10","11:00","‡","14.9","","8.9","","67","","22","","13","","48.3","","102.45","","","","","","NA"
"2016-05-10 12:00","2016","05","10","12:00","‡","16.4","","8.9","","61","","25","","14","","48.3","","102.39","","","","","","NA"
"2016-05-10 13:00","2016","05","10","13:00","‡","17.2","","9.5","","60","","25","","14","","48.3","","102.33","","","","","","Mainly Clear"
"2016-05-10 14:00","2016","05","10","14:00","‡","18.1","","11.0","","63","","24","","12","","48.3","","102.27","","","","","","NA"
"2016-05-10 15:00","2016","05","10","15:00","‡","18.9","","9.8","","55","","25","","11","","48.3","","102.20","","","","","","NA"
"2016-05-10 16:00","2016","05","10","16:00","‡","19.6","","9.0","","50","","25","","9","","48.3","","102.13","","","","","","Mainly Clear"
"2016-05-10 17:00","2016","05","10","17:00","‡","19.2","","6.5","","43","","23","","6","","48.3","","102.06","","","","","","NA"
"2016-05-10 18:00","2016","05","10","18:00","‡","17.6","","8.8","","56","","21","","4","","48.3","","102.01","","","","","","NA"
"2016-05-10 19:00","2016","05","10","19:00","‡","15.6","","11.4","","76","","25","","6","","48.3","","102.02","","","","","","Cloudy"
"2016-05-10 20:00","2016","05","10","20:00","‡","15.4","","9.2","","66","","35","","7","","48.3","","102.01","","","","","","NA"
"2016-05-10 21:00","2016","05","10","21:00","‡","16.4","","5.8","","49","","10","","11","","32.2","","102.01","","","","","","NA"
"2016-05-10 22:00","2016","05","10","22:00","‡","14.7","","7.6","","62","","10","","16","","32.2","","101.99","","","","","","Cloudy"
"2016-05-10 23:00","2016","05","10","23:00","‡","14.3","","6.5","","59","","9","","9","","32.2","","101.98","","","","","","NA"
"2016-05-11 00:00","2016","05","11","00:00","‡","14.2","","5.9","","57","","10","","7","","32.2","","101.97","","","","","","NA"
"2016-05-11 01:00","2016","05","11","01:00","‡","14.5","","6.4","","58","","36","","1","","32.2","","101.95","","","","","","Mostly Cloudy"
"2016-05-11 02:00","2016","05","11","02:00","‡","13.0","","8.7","","75","","26","","4","","32.2","","101.96","","","","","","NA"
"2016-05-11 03:00","2016","05","11","03:00","‡","12.6","","9.5","","81","","0","","1","","32.2","","101.93","","","","","","NA"
"2016-05-11 04:00","2016","05","11","04:00","‡","12.5","","9.0","","79","","13","","4","","32.2","","101.93","","","","","","Mostly Cloudy"
"2016-05-11 05:00","2016","05","11","05:00","‡","11.9","","8.0","","77","","11","","7","","32.2","","101.89","","","","","","NA"
"2016-05-11 06:00","2016","05","11","06:00","‡","12.5","","7.2","","70","","10","","12","","48.3","","101.89","","","","","","NA"
"2016-05-11 07:00","2016","05","11","07:00","‡","13.8","","6.7","","62","","10","","17","","48.3","","101.87","","","","","","Mostly Cloudy"
"2016-05-11 08:00","2016","05","11","08:00","‡","15.3","","7.7","","60","","10","","18","","48.3","","101.87","","","","","","NA"
"2016-05-11 09:00","2016","05","11","09:00","‡","16.8","","9.1","","60","","9","","17","","32.2","","101.81","","","","","","NA"
"2016-05-11 10:00","2016","05","11","10:00","‡","16.3","","10.7","","69","","23","","4","","48.3","","101.81","","","","","","Mostly Cloudy"
"2016-05-11 11:00","2016","05","11","11:00","‡","16.2","","10.8","","70","","29","","15","","32.2","","101.79","","","","","","NA"
"2016-05-11 12:00","2016","05","11","12:00","‡","16.4","","10.3","","67","","21","","9","","48.3","","101.73","","","","","","NA"
"2016-05-11 13:00","2016","05","11","13:00","‡","16.5","","9.5","","63","","29","","6","","48.3","","101.69","","","","","","Rain"
"2016-05-11 14:00","2016","05","11","14:00","‡","17.8","","8.7","","55","","8","","16","","48.3","","101.62","","","","","","Rain"
"2016-05-11 15:00","2016","05","11","15:00","‡","19.0","","7.9","","48","","9","","14","","48.3","","101.58","","","","","","NA"
"2016-05-11 16:00","2016","05","11","16:00","‡","19.6","","6.5","","42","","9","","11","","48.3","","101.52","","","","","","Mostly Cloudy"
"2016-05-11 17:00","2016","05","11","17:00","‡","20.9","","6.6","","39","","10","","13","","48.3","","101.46","","","","","","NA"
"2016-05-11 18:00","2016","05","11","18:00","‡","19.9","","6.4","","41","","11","","17","","48.3","","101.40","","","","","","NA"
"2016-05-11 19:00","2016","05","11","19:00","‡","14.8","","11.4","","80","","31","","12","","48.3","","101.39","","","","","","Mainly Clear"
"2016-05-11 20:00","2016","05","11","20:00","‡","11.7","","10.6","","93","","31","","12","","48.3","","101.39","","","","","","NA"
"2016-05-11 21:00","2016","05","11","21:00","‡","10.1","","8.7","","91","","31","","10","","48.3","","101.41","","","","","","NA"
"2016-05-11 22:00","2016","05","11","22:00","‡","12.0","","8.9","","81","","33","","7","","48.3","","101.40","","","","","","Clear"
"2016-05-11 23:00","2016","05","11","23:00","‡","11.6","","8.5","","81","","2","","7","","48.3","","101.39","","","","","","NA"
"2016-05-12 00:00","2016","05","12","00:00","‡","11.1","","8.7","","85","","15","","5","","48.3","","101.37","","","","","","NA"
"2016-05-12 01:00","2016","05","12","01:00","‡","10.5","","6.1","","74","","14","","4","","48.3","","101.36","","","","","","Clear"
"2016-05-12 02:00","2016","05","12","02:00","‡","9.0","","7.1","","88","","1","","8","","48.3","","101.40","","","","","","NA"
"2016-05-12 03:00","2016","05","12","03:00","‡","11.0","","5.2","","67","","6","","4","","48.3","","101.42","","","","","","NA"
"2016-05-12 04:00","2016","05","12","04:00","‡","10.1","","5.3","","72","","8","","7","","48.3","","101.44","","","","","","Clear"
"2016-05-12 05:00","2016","05","12","05:00","‡","8.7","","5.5","","80","","9","","8","","48.3","","101.46","","","","","","NA"
"2016-05-12 06:00","2016","05","12","06:00","‡","13.0","","6.9","","66","","6","","8","","48.3","","101.49","","","","","","NA"
"2016-05-12 07:00","2016","05","12","07:00","‡","14.2","","8.2","","67","","7","","9","","48.3","","101.54","","","","","","Clear"
"2016-05-12 08:00","2016","05","12","08:00","‡","15.7","","9.4","","66","","13","","9","","48.3","","101.58","","","","","","NA"
"2016-05-12 09:00","2016","05","12","09:00","‡","15.0","","11.1","","77","","22","","13","","48.3","","101.57","","","","","","NA"
"2016-05-12 10:00","2016","05","12","10:00","‡","15.5","","10.5","","72","","23","","14","","48.3","","101.61","","","","","","Mainly Clear"
"2016-05-12 11:00","2016","05","12","11:00","‡","15.9","","10.7","","71","","24","","14","","48.3","","101.62","","","","","","NA"
"2016-05-12 12:00","2016","05","12","12:00","‡","17.6","","10.1","","61","","25","","13","","48.3","","101.62","","","","","","NA"
"2016-05-12 13:00","2016","05","12","13:00","‡","18.7","","8.8","","52","","25","","13","","48.3","","101.62","","","","","","Mainly Clear"
"2016-05-12 14:00","2016","05","12","14:00","‡","18.2","","9.6","","57","","25","","13","","48.3","","101.62","","","","","","NA"
"2016-05-12 15:00","2016","05","12","15:00","‡","18.8","","8.0","","49","","25","","13","","48.3","","101.61","","","","","","NA"
"2016-05-12 16:00","2016","05","12","16:00","‡","19.2","","8.7","","50","","26","","7","","48.3","","101.61","","","","","","Mainly Clear"
"2016-05-12 17:00","2016","05","12","17:00","‡","19.8","","8.9","","49","","24","","7","","48.3","","101.60","","","","","","NA"
"2016-05-12 18:00","2016","05","12","18:00","‡","19.9","","8.7","","48","","33","","5","","48.3","","101.56","","","","","","NA"
"2016-05-12 19:00","2016","05","12","19:00","‡","18.2","","9.6","","57","","32","","8","","48.3","","101.55","","","","","","Clear"
"2016-05-12 20:00","2016","05","12","20:00","‡","15.4","","10.4","","72","","30","","5","","48.3","","101.57","","","","","","NA"
"2016-05-12 21:00","2016","05","12","21:00","‡","15.2","","9.0","","66","","1","","4","","48.3","","101.61","","","","","","NA"
"2016-05-12 22:00","2016","05","12","22:00","‡","14.1","","9.4","","73","","15","","4","","48.3","","101.63","","","","","","Clear"
"2016-05-12 23:00","2016","05","12","23:00","‡","13.8","","9.9","","77","","19","","5","","48.3","","101.65","","","","","","NA"
"2016-05-13 00:00","2016","05","13","00:00","‡","13.5","","10.3","","81","","12","","4","","48.3","","101.66","","","","","","NA"
"2016-05-13 01:00","2016","05","13","01:00","‡","12.8","","10.4","","85","","7","","3","","32.2","","101.65","","","","","","Clear"
"2016-05-13 02:00","2016","05","13","02:00","‡","10.7","","9.0","","89","","36","","3","","32.2","","101.64","","","","","","NA"
"2016-05-13 03:00","2016","05","13","03:00","‡","11.5","","9.1","","85","","","","0","","32.2","","101.66","","","","","","NA"
"2016-05-13 04:00","2016","05","13","04:00","‡","8.4","","6.9","","90","","36","","1","","32.2","","101.64","","","","","","Mainly Clear"
"2016-05-13 05:00","2016","05","13","05:00","‡","11.2","","7.4","","77","","34","","7","","32.2","","101.64","","","","","","NA"
"2016-05-13 06:00","2016","05","13","06:00","‡","12.4","","9.6","","83","","36","","1","","48.3","","101.65","","","","","","NA"
"2016-05-13 07:00","2016","05","13","07:00","‡","14.4","","12.1","","86","","23","","8","","48.3","","101.65","","","","","","Mostly Cloudy"
"2016-05-13 08:00","2016","05","13","08:00","‡","17.0","","12.0","","72","","30","","17","","48.3","","101.65","","","","","","NA"
"2016-05-13 09:00","2016","05","13","09:00","‡","17.4","","13.0","","75","","28","","18","","48.3","","101.66","","","","","","NA"
"2016-05-13 10:00","2016","05","13","10:00","‡","18.1","","13.0","","72","","29","","18","","48.3","","101.64","","","","","","Mainly Clear"
"2016-05-13 11:00","2016","05","13","11:00","‡","18.9","","12.5","","66","","30","","21","","48.3","","101.59","","","","","","NA"
"2016-05-13 12:00","2016","05","13","12:00","‡","19.5","","11.4","","59","","29","","23","","48.3","","101.56","","","","","","NA"
"2016-05-13 13:00","2016","05","13","13:00","‡","20.2","","11.8","","58","","30","","22","","48.3","","101.49","","","","","","Mostly Cloudy"
"2016-05-13 14:00","2016","05","13","14:00","‡","20.5","","11.0","","54","","30","","25","","48.3","","101.43","","","","","","NA"
"2016-05-13 15:00","2016","05","13","15:00","‡","21.9","","11.5","","51","","30","","24","","48.3","","101.37","","","","","","NA"
"2016-05-13 16:00","2016","05","13","16:00","‡","21.1","","11.6","","54","","31","","23","","48.3","","101.31","","","","","","Mostly Cloudy"
"2016-05-13 17:00","2016","05","13","17:00","‡","21.0","","11.5","","54","","31","","23","","48.3","","101.25","","","","","","NA"
"2016-05-13 18:00","2016","05","13","18:00","‡","20.0","","11.1","","56","","30","","17","","48.3","","101.20","","","","","","NA"
"2016-05-13 19:00","2016","05","13","19:00","‡","18.0","","11.9","","67","","30","","18","","48.3","","101.17","","","","","","Cloudy"
"2016-05-13 20:00","2016","05","13","20:00","‡","16.3","","13.4","","83","","30","","19","","48.3","","101.18","","","","","","NA"
"2016-05-13 21:00","2016","05","13","21:00","‡","16.5","","13.1","","80","","31","","18","","48.3","","101.19","","","","","","NA"
"2016-05-13 22:00","2016","05","13","22:00","‡","16.1","","13.4","","84","","31","","17","","48.3","","101.17","","","","","","Mostly Cloudy"
"2016-05-13 23:00","2016","05","13","23:00","‡","14.9","","12.8","","87","","31","","9","","48.3","","101.17","","","","","","NA"
"2016-05-14 00:00","2016","05","14","00:00","‡","15.0","","12.9","","87","","25","","14","","48.3","","101.17","","","","","","NA"
"2016-05-14 01:00","2016","05","14","01:00","‡","13.7","","10.5","","81","","32","","8","","48.3","","101.15","","","","","","Mainly Clear"
"2016-05-14 02:00","2016","05","14","02:00","‡","12.8","","11.1","","89","","29","","13","","48.3","","101.16","","","","","","NA"
"2016-05-14 03:00","2016","05","14","03:00","‡","13.7","","11.9","","89","","30","","9","","48.3","","101.18","","","","","","NA"
"2016-05-14 04:00","2016","05","14","04:00","‡","14.2","","10.5","","78","","2","","5","","48.3","","101.18","","","","","","Mostly Cloudy"
"2016-05-14 05:00","2016","05","14","05:00","‡","13.8","","9.9","","77","","8","","5","","48.3","","101.19","","","","","","NA"
"2016-05-14 06:00","2016","05","14","06:00","‡","16.2","","11.8","","75","","36","","2","","48.3","","101.20","","","","","","NA"
"2016-05-14 07:00","2016","05","14","07:00","‡","19.4","","11.5","","60","","25","","5","","48.3","","101.17","","","","","","Mostly Cloudy"
"2016-05-14 08:00","2016","05","14","08:00","‡","18.5","","11.4","","63","","28","","14","","48.3","","101.19","","","","","","NA"
"2016-05-14 09:00","2016","05","14","09:00","‡","17.6","","13.8","","78","","26","","10","","48.3","","101.20","","","","","","NA"
"2016-05-14 10:00","2016","05","14","10:00","‡","20.4","","13.0","","62","","28","","13","","48.3","","101.23","","","","","","Mostly Cloudy"
"2016-05-14 11:00","2016","05","14","11:00","‡","20.1","","10.6","","54","","31","","17","","48.3","","101.21","","","","","","NA"
"2016-05-14 12:00","2016","05","14","12:00","‡","21.5","","10.5","","49","","29","","14","","48.3","","101.18","","","","","","NA"
"2016-05-14 13:00","2016","05","14","13:00","‡","19.2","","12.6","","65","","21","","14","","48.3","","101.16","","","","","","Mostly Cloudy"
"2016-05-14 14:00","2016","05","14","14:00","‡","20.7","","14.5","","67","","21","","15","","48.3","","101.18","","","","","","NA"
"2016-05-14 15:00","2016","05","14","15:00","‡","20.1","","10.9","","55","","16","","22","","32.2","","101.20","","","","","","NA"
"2016-05-14 16:00","2016","05","14","16:00","‡","18.5","","10.9","","61","","11","","21","","32.2","","101.23","","","","","","Cloudy"
"2016-05-14 17:00","2016","05","14","17:00","‡","17.9","","11.1","","64","","11","","22","","32.2","","101.23","","","","","","NA"
"2016-05-14 18:00","2016","05","14","18:00","‡","16.2","","10.8","","70","","10","","31","","48.3","","101.19","","","","","","NA"
"2016-05-14 19:00","2016","05","14","19:00","‡","16.1","","10.9","","71","","12","","29","","48.3","","101.22","","","","","","Cloudy"
"2016-05-14 20:00","2016","05","14","20:00","‡","15.1","","10.8","","75","","10","","25","","32.2","","101.27","","","","","","NA"
"2016-05-14 21:00","2016","05","14","21:00","‡","14.3","","10.6","","78","","10","","28","","32.2","","101.31","","","","","","NA"
"2016-05-14 22:00","2016","05","14","22:00","‡","13.5","","10.3","","81","","11","","32","","32.2","","101.35","","","","","","Mostly Cloudy"
"2016-05-14 23:00","2016","05","14","23:00","‡","13.5","","10.5","","82","","10","","24","","32.2","","101.37","","","","","","NA"
"2016-05-15 00:00","2016","05","15","00:00","‡","13.4","","10.4","","82","","10","","26","","24.1","","101.38","","","","","","NA"
"2016-05-15 01:00","2016","05","15","01:00","‡","13.3","","10.7","","84","","10","","23","","24.1","","101.36","","","","","","Cloudy"
"2016-05-15 02:00","2016","05","15","02:00","‡","13.1","","10.8","","86","","11","","21","","19.3","","101.34","","","","","","NA"
"2016-05-15 03:00","2016","05","15","03:00","‡","12.9","","11.0","","88","","11","","15","","19.3","","101.33","","","","","","NA"
"2016-05-15 04:00","2016","05","15","04:00","‡","13.1","","11.0","","87","","10","","20","","19.3","","101.35","","","","","","Cloudy"
"2016-05-15 05:00","2016","05","15","05:00","‡","13.1","","10.7","","85","","12","","21","","19.3","","101.36","","","","","","NA"
"2016-05-15 06:00","2016","05","15","06:00","‡","13.2","","10.4","","83","","11","","22","","16.1","","101.35","","","","","","NA"
"2016-05-15 07:00","2016","05","15","07:00","‡","13.4","","10.2","","81","","11","","21","","19.3","","101.39","","","","","","Mostly Cloudy"
"2016-05-15 08:00","2016","05","15","08:00","‡","14.1","","10.0","","76","","10","","22","","19.3","","101.41","","","","","","NA"
"2016-05-15 09:00","2016","05","15","09:00","‡","14.5","","10.0","","74","","9","","11","","24.1","","101.43","","","","","","NA"
"2016-05-15 10:00","2016","05","15","10:00","‡","14.9","","10.0","","72","","13","","11","","24.1","","101.44","","","","","","Cloudy"
"2016-05-15 11:00","2016","05","15","11:00","‡","15.5","","10.3","","71","","10","","11","","24.1","","101.46","","","","","","NA"
"2016-05-15 12:00","2016","05","15","12:00","‡","15.4","","10.4","","72","","10","","12","","19.3","","101.47","","","","","","NA"
"2016-05-15 13:00","2016","05","15","13:00","‡","15.8","","10.0","","68","","11","","13","","19.3","","101.51","","","","","","Cloudy"
"2016-05-15 14:00","2016","05","15","14:00","‡","16.1","","10.0","","67","","15","","13","","19.3","","101.52","","","","","","NA"
"2016-05-15 15:00","2016","05","15","15:00","‡","16.8","","10.3","","65","","10","","15","","19.3","","101.49","","","","","","NA"
"2016-05-15 16:00","2016","05","15","16:00","‡","16.7","","10.4","","66","","11","","12","","19.3","","101.50","","","","","","Mostly Cloudy"
"2016-05-15 17:00","2016","05","15","17:00","‡","15.8","","10.4","","70","","12","","15","","19.3","","101.52","","","","","","NA"
"2016-05-15 18:00","2016","05","15","18:00","‡","15.5","","10.5","","72","","14","","13","","19.3","","101.56","","","","","","NA"
"2016-05-15 19:00","2016","05","15","19:00","‡","14.4","","10.3","","76","","13","","17","","24.1","","101.58","","","","","","Cloudy"
"2016-05-15 20:00","2016","05","15","20:00","‡","13.9","","10.2","","78","","13","","16","","24.1","","101.61","","","","","","NA"
"2016-05-15 21:00","2016","05","15","21:00","‡","13.4","","10.2","","81","","13","","18","","19.3","","101.66","","","","","","NA"
"2016-05-15 22:00","2016","05","15","22:00","‡","13.0","","9.5","","79","","12","","21","","19.3","","101.70","","","","","","Cloudy"
"2016-05-15 23:00","2016","05","15","23:00","‡","12.8","","9.5","","80","","11","","20","","19.3","","101.71","","","","","","NA"
"2016-05-16 00:00","2016","05","16","00:00","‡","12.8","","9.1","","78","","10","","22","","19.3","","101.74","","","","","","NA"
"2016-05-16 01:00","2016","05","16","01:00","‡","12.8","","9.1","","78","","11","","18","","19.3","","101.79","","","","","","Cloudy"
"2016-05-16 02:00","2016","05","16","02:00","‡","12.7","","8.8","","77","","10","","18","","19.3","","101.79","","","","","","NA"
"2016-05-16 03:00","2016","05","16","03:00","‡","12.6","","8.9","","78","","10","","17","","19.3","","101.82","","","","","","NA"
"2016-05-16 04:00","2016","05","16","04:00","‡","12.5","","8.8","","78","","9","","20","","19.3","","101.86","","","","","","Cloudy"
"2016-05-16 05:00","2016","05","16","05:00","‡","12.4","","8.7","","78","","10","","17","","24.1","","101.91","","","","","","NA"
"2016-05-16 06:00","2016","05","16","06:00","‡","12.5","","8.6","","77","","10","","17","","19.3","","101.98","","","","","","NA"
"2016-05-16 07:00","2016","05","16","07:00","‡","12.2","","8.9","","80","","10","","16","","16.1","","102.04","","","","","","Drizzle"
"2016-05-16 08:00","2016","05","16","08:00","‡","12.5","","9.0","","79","","10","","17","","16.1","","102.11","","","","","","NA"
"2016-05-16 09:00","2016","05","16","09:00","‡","12.6","","8.9","","78","","9","","16","","16.1","","102.14","","","","","","NA"
"2016-05-16 10:00","2016","05","16","10:00","‡","12.7","","8.6","","76","","10","","12","","19.3","","102.22","","","","","","Cloudy"
"2016-05-16 11:00","2016","05","16","11:00","‡","13.3","","10.0","","80","","12","","11","","24.1","","102.25","","","","","","NA"
"2016-05-16 12:00","2016","05","16","12:00","‡","13.8","","9.5","","75","","11","","15","","24.1","","102.27","","","","","","NA"
"2016-05-16 13:00","2016","05","16","13:00","‡","14.0","","9.7","","75","","13","","8","","24.1","","102.30","","","","","","Cloudy"
"2016-05-16 14:00","2016","05","16","14:00","‡","14.6","","10.3","","75","","10","","7","","19.3","","102.32","","","","","","NA"
"2016-05-16 15:00","2016","05","16","15:00","‡","14.2","","11.4","","83","","24","","12","","19.3","","102.33","","","","","","NA"
"2016-05-16 16:00","2016","05","16","16:00","‡","14.5","","11.3","","81","","21","","9","","19.3","","102.32","","","","","","Cloudy"
"2016-05-16 17:00","2016","05","16","17:00","‡","14.4","","11.4","","82","","24","","7","","19.3","","102.31","","","","","","NA"
"2016-05-16 18:00","2016","05","16","18:00","‡","15.5","","11.5","","77","","17","","5","","19.3","","102.29","","","","","","NA"
"2016-05-16 19:00","2016","05","16","19:00","‡","14.0","","10.6","","80","","20","","12","","19.3","","102.31","","","","","","Cloudy"
"2016-05-16 20:00","2016","05","16","20:00","‡","13.3","","10.3","","82","","12","","4","","24.1","","102.34","","","","","","NA"
"2016-05-16 21:00","2016","05","16","21:00","‡","13.2","","9.9","","80","","10","","8","","24.1","","102.39","","","","","","NA"
"2016-05-16 22:00","2016","05","16","22:00","‡","12.4","","9.6","","83","","9","","9","","32.2","","102.40","","","","","","Mostly Cloudy"
"2016-05-16 23:00","2016","05","16","23:00","‡","13.2","","9.9","","80","","10","","13","","32.2","","102.41","","","","","","NA"
"2016-05-17 00:00","2016","05","17","00:00","‡","12.7","","8.8","","77","","9","","13","","32.2","","102.42","","","","","","NA"
"2016-05-17 01:00","2016","05","17","01:00","‡","12.3","","9.0","","80","","10","","14","","32.2","","102.44","","","","","","Mostly Cloudy"
"2016-05-17 02:00","2016","05","17","02:00","‡","11.1","","8.4","","83","","10","","7","","32.2","","102.45","","","","","","NA"
"2016-05-17 03:00","2016","05","17","03:00","‡","10.7","","8.1","","84","","9","","9","","32.2","","102.45","","","","","","NA"
"2016-05-17 04:00","2016","05","17","04:00","‡","11.0","","8.4","","84","","10","","10","","32.2","","102.44","","","","","","Mostly Cloudy"
"2016-05-17 05:00","2016","05","17","05:00","‡","11.1","","8.5","","84","","13","","4","","32.2","","102.48","","","","","","NA"
"2016-05-17 06:00","2016","05","17","06:00","‡","12.4","","9.1","","80","","13","","7","","48.3","","102.50","","","","","","NA"
"2016-05-17 07:00","2016","05","17","07:00","‡","13.3","","9.0","","75","","11","","11","","48.3","","102.52","","","","","","Mostly Cloudy"
"2016-05-17 08:00","2016","05","17","08:00","‡","15.3","","9.7","","69","","13","","10","","48.3","","102.50","","","","","","NA"
"2016-05-17 09:00","2016","05","17","09:00","‡","16.4","","9.9","","65","","14","","10","","48.3","","102.50","","","","","","NA"
"2016-05-17 10:00","2016","05","17","10:00","‡","16.4","","12.4","","77","","21","","17","","48.3","","102.49","","","","","","Cloudy"
"2016-05-17 11:00","2016","05","17","11:00","‡","16.8","","11.6","","71","","22","","18","","48.3","","102.47","","","","","","NA"
"2016-05-17 12:00","2016","05","17","12:00","‡","17.6","","11.3","","66","","23","","18","","48.3","","102.43","","","","","","NA"
"2016-05-17 13:00","2016","05","17","13:00","‡","17.3","","11.0","","66","","22","","19","","48.3","","102.39","","","","","","Cloudy"
"2016-05-17 14:00","2016","05","17","14:00","‡","18.3","","10.7","","61","","22","","18","","48.3","","102.35","","","","","","NA"
"2016-05-17 15:00","2016","05","17","15:00","‡","18.0","","11.2","","64","","21","","18","","48.3","","102.29","","","","","","NA"
"2016-05-17 16:00","2016","05","17","16:00","‡","18.8","","10.7","","59","","21","","17","","48.3","","102.21","","","","","","Cloudy"
"2016-05-17 17:00","2016","05","17","17:00","‡","18.5","","10.7","","60","","22","","16","","48.3","","102.15","","","","","","NA"
"2016-05-17 18:00","2016","05","17","18:00","‡","18.0","","10.9","","63","","20","","13","","48.3","","102.10","","","","","","NA"
"2016-05-17 19:00","2016","05","17","19:00","‡","17.0","","12.0","","72","","20","","11","","32.2","","102.08","","","","","","Mostly Cloudy"
"2016-05-17 20:00","2016","05","17","20:00","‡","16.3","","10.0","","66","","16","","5","","32.2","","102.07","","","","","","NA"
"2016-05-17 21:00","2016","05","17","21:00","‡","15.4","","10.8","","74","","11","","10","","32.2","","102.06","","","","","","NA"
"2016-05-17 22:00","2016","05","17","22:00","‡","14.7","","9.8","","72","","10","","17","","32.2","","102.03","","","","","","Mostly Cloudy"
"2016-05-17 23:00","2016","05","17","23:00","‡","14.1","","9.6","","74","","9","","14","","32.2","","102.00","","","","","","NA"
"2016-05-18 00:00","2016","05","18","00:00","‡","14.6","","10.1","","74","","10","","16","","32.2","","101.97","","","","","","NA"
"2016-05-18 01:00","2016","05","18","01:00","‡","14.1","","9.4","","73","","10","","17","","32.2","","101.92","","","","","","Mostly Cloudy"
"2016-05-18 02:00","2016","05","18","02:00","‡","13.8","","8.7","","71","","10","","16","","32.2","","101.92","","","","","","NA"
"2016-05-18 03:00","2016","05","18","03:00","‡","13.7","","8.0","","68","","11","","17","","24.1","","101.88","","","","","","NA"
"2016-05-18 04:00","2016","05","18","04:00","‡","13.1","","8.4","","73","","11","","17","","24.1","","101.85","","","","","","Mostly Cloudy"
"2016-05-18 05:00","2016","05","18","05:00","‡","12.6","","8.1","","74","","10","","20","","32.2","","101.83","","","","","","NA"
"2016-05-18 06:00","2016","05","18","06:00","‡","12.9","","8.6","","75","","11","","11","","48.3","","101.84","","","","","","NA"
"2016-05-18 07:00","2016","05","18","07:00","‡","13.5","","9.4","","76","","10","","20","","48.3","","101.82","","","","","","Cloudy"
"2016-05-18 08:00","2016","05","18","08:00","‡","14.3","","9.0","","70","","10","","22","","48.3","","101.77","","","","","","NA"
"2016-05-18 09:00","2016","05","18","09:00","‡","15.0","","9.0","","67","","12","","22","","48.3","","101.72","","","","","","NA"
"2016-05-18 10:00","2016","05","18","10:00","‡","15.8","","9.1","","64","","12","","14","","48.3","","101.74","","","","","","Cloudy"
"2016-05-18 11:00","2016","05","18","11:00","‡","17.0","","8.5","","57","","13","","14","","48.3","","101.68","","","","","","NA"
"2016-05-18 12:00","2016","05","18","12:00","‡","16.8","","8.1","","56","","11","","14","","48.3","","101.61","","","","","","NA"
"2016-05-18 13:00","2016","05","18","13:00","‡","16.8","","8.6","","58","","14","","13","","48.3","","101.57","","","","","","Cloudy"
"2016-05-18 14:00","2016","05","18","14:00","‡","17.5","","9.7","","60","","14","","8","","48.3","","101.54","","","","","","NA"
"2016-05-18 15:00","2016","05","18","15:00","‡","16.4","","11.8","","74","","25","","14","","48.3","","101.44","","","","","","NA"
"2016-05-18 16:00","2016","05","18","16:00","‡","18.7","","12.1","","65","","27","","8","","48.3","","101.35","","","","","","Cloudy"
"2016-05-18 17:00","2016","05","18","17:00","‡","17.0","","11.3","","69","","22","","14","","48.3","","101.25","","","","","","NA"
"2016-05-18 18:00","2016","05","18","18:00","‡","16.0","","9.3","","64","","20","","18","","48.3","","101.21","","","","","","NA"
"2016-05-18 19:00","2016","05","18","19:00","‡","14.4","","7.3","","62","","20","","13","","32.2","","101.18","","","","","","Mostly Cloudy"
"2016-05-18 20:00","2016","05","18","20:00","‡","13.5","","10.2","","80","","29","","39","","32.2","","101.15","","","","","","NA"
"2016-05-18 21:00","2016","05","18","21:00","‡","12.6","","9.1","","79","","28","","37","","32.2","","101.16","","","","","","NA"
"2016-05-18 22:00","2016","05","18","22:00","‡","12.2","","9.6","","84","","29","","34","","32.2","","101.18","","","","","","Mostly Cloudy"
"2016-05-18 23:00","2016","05","18","23:00","‡","12.2","","9.1","","81","","28","","35","","32.2","","101.21","","","","","","NA"
"2016-05-19 00:00","2016","05","19","00:00","‡","12.0","","7.7","","75","","29","","40","","32.2","","101.19","","","","","","NA"
"2016-05-19 01:00","2016","05","19","01:00","‡","10.7","","8.1","","84","","28","","30","","19.3","","101.18","","","","","","Rain"
"2016-05-19 02:00","2016","05","19","02:00","‡","10.5","","8.1","","85","","29","","34","","19.3","","101.14","","","","","","Moderate Rain"
"2016-05-19 03:00","2016","05","19","03:00","‡","10.7","","7.2","","79","","29","","32","","24.1","","101.12","","","","","","NA"
"2016-05-19 04:00","2016","05","19","04:00","‡","10.9","","7.1","","77","","28","","31","","32.2","","101.09","","","","","","Cloudy"
"2016-05-19 05:00","2016","05","19","05:00","‡","10.8","","6.8","","76","","26","","29","","32.2","","101.10","","","","","","NA"
"2016-05-19 06:00","2016","05","19","06:00","‡","11.0","","6.8","","75","","27","","28","","32.2","","101.14","","","","","","NA"
"2016-05-19 07:00","2016","05","19","07:00","‡","11.4","","6.4","","71","","26","","20","","32.2","","101.14","","","","","","Cloudy"
"2016-05-19 08:00","2016","05","19","08:00","‡","12.6","","6.7","","67","","27","","18","","48.3","","101.14","","","","","","NA"
"2016-05-19 09:00","2016","05","19","09:00","‡","13.3","","6.7","","64","","26","","17","","32.2","","101.12","","","","","","NA"
"2016-05-19 10:00","2016","05","19","10:00","‡","12.9","","6.8","","66","","25","","15","","48.3","","101.12","","","","","","Cloudy"
"2016-05-19 11:00","2016","05","19","11:00","‡","12.8","","6.7","","66","","26","","8","","48.3","","101.10","","","","","","NA"
"2016-05-19 12:00","2016","05","19","12:00","‡","13.0","","5.7","","61","","23","","9","","48.3","","101.07","","","","","","NA"
"2016-05-19 13:00","2016","05","19","13:00","‡","12.8","","6.2","","64","","23","","10","","48.3","","101.06","","","","","","Cloudy"
"2016-05-19 14:00","2016","05","19","14:00","‡","13.6","","6.8","","63","","23","","9","","48.3","","101.05","","","","","","NA"
"2016-05-19 15:00","2016","05","19","15:00","‡","13.6","","5.8","","59","","23","","13","","48.3","","101.05","","","","","","NA"
"2016-05-19 16:00","2016","05","19","16:00","‡","13.0","","6.0","","62","","25","","7","","48.3","","101.06","","","","","","Cloudy"
"2016-05-19 17:00","2016","05","19","17:00","‡","13.6","","6.3","","61","","21","","8","","48.3","","101.03","","","","","","NA"
"2016-05-19 18:00","2016","05","19","18:00","‡","13.6","","6.0","","60","","22","","9","","48.3","","101.01","","","","","","NA"
"2016-05-19 19:00","2016","05","19","19:00","‡","12.9","","6.5","","65","","22","","9","","48.3","","101.01","","","","","","Mainly Clear"
"2016-05-19 20:00","2016","05","19","20:00","‡","11.8","","7.2","","73","","20","","5","","48.3","","101.03","","","","","","NA"
"2016-05-19 21:00","2016","05","19","21:00","‡","12.3","","6.2","","66","","16","","4","","48.3","","101.06","","","","","","NA"
"2016-05-19 22:00","2016","05","19","22:00","‡","10.5","","6.7","","77","","2","","7","","48.3","","101.07","","","","","","Mainly Clear"
"2016-05-19 23:00","2016","05","19","23:00","‡","10.5","","6.3","","75","","0","","1","","32.2","","101.06","","","","","","NA"
"2016-05-20 00:00","2016","05","20","00:00","‡","11.2","","6.8","","74","","9","","8","","32.2","","101.05","","","","","","NA"
"2016-05-20 01:00","2016","05","20","01:00","‡","11.7","","6.7","","71","","7","","7","","32.2","","101.05","","","","","","Cloudy"
"2016-05-20 02:00","2016","05","20","02:00","‡","11.0","","8.9","","87","","10","","14","","32.2","","101.07","","","","","","NA"
"2016-05-20 03:00","2016","05","20","03:00","‡","10.3","","8.6","","89","","9","","12","","32.2","","101.08","","","","","","Rain"
"2016-05-20 04:00","2016","05","20","04:00","‡","10.1","","8.7","","91","","9","","13","","32.2","","101.06","","","","","","Cloudy"
"2016-05-20 05:00","2016","05","20","05:00","‡","10.4","","8.5","","88","","10","","14","","24.1","","101.10","","","","","","NA"
"2016-05-20 06:00","2016","05","20","06:00","‡","10.4","","9.2","","92","","10","","10","","24.1","","101.13","","","","","","Rain Showers"
"2016-05-20 07:00","2016","05","20","07:00","‡","11.1","","8.5","","84","","10","","9","","24.1","","101.12","","","","","","Mostly Cloudy"
"2016-05-20 08:00","2016","05","20","08:00","‡","11.9","","8.6","","80","","13","","6","","24.1","","101.10","","","","","","NA"
"2016-05-20 09:00","2016","05","20","09:00","‡","13.0","","8.9","","76","","22","","5","","24.1","","101.06","","","","","","NA"
"2016-05-20 10:00","2016","05","20","10:00","‡","13.4","","9.1","","75","","25","","12","","24.1","","101.04","","","","","","Mostly Cloudy"
"2016-05-20 11:00","2016","05","20","11:00","‡","15.1","","7.2","","59","","26","","16","","32.2","","101.02","","","","","","NA"
"2016-05-20 12:00","2016","05","20","12:00","‡","15.9","","8.9","","63","","29","","16","","32.2","","100.96","","","","","","NA"
"2016-05-20 13:00","2016","05","20","13:00","‡","15.6","","8.7","","63","","25","","21","","48.3","","100.92","","","","","","Mainly Clear"
"2016-05-20 14:00","2016","05","20","14:00","‡","16.6","","9.4","","62","","28","","20","","48.3","","100.88","","","","","","NA"
"2016-05-20 15:00","2016","05","20","15:00","‡","16.6","","9.8","","64","","29","","28","","48.3","","100.84","","","","","","NA"
"2016-05-20 16:00","2016","05","20","16:00","‡","16.8","","10.3","","65","","29","","28","","48.3","","100.77","","","","","","Mainly Clear"
"2016-05-20 17:00","2016","05","20","17:00","‡","16.3","","10.5","","68","","29","","30","","48.3","","100.74","","","","","","NA"
"2016-05-20 18:00","2016","05","20","18:00","‡","16.0","","10.4","","69","","30","","24","","48.3","","100.73","","","","","","NA"
"2016-05-20 19:00","2016","05","20","19:00","‡","14.5","","10.8","","78","","29","","21","","48.3","","100.74","","","","","","Mainly Clear"
"2016-05-20 20:00","2016","05","20","20:00","‡","14.0","","10.8","","81","","30","","16","","48.3","","100.73","","","","","","NA"
"2016-05-20 21:00","2016","05","20","21:00","‡","13.7","","11.1","","84","","31","","17","","48.3","","100.72","","","","","","NA"
"2016-05-20 22:00","2016","05","20","22:00","‡","13.2","","11.3","","88","","30","","12","","48.3","","100.69","","","","","","Mainly Clear"
"2016-05-20 23:00","2016","05","20","23:00","‡","11.7","","9.8","","88","","32","","9","","32.2","","100.67","","","","","","NA"
"2016-05-21 00:00","2016","05","21","00:00","‡","12.2","","10.1","","87","","2","","4","","32.2","","100.64","","","","","","NA"
"2016-05-21 01:00","2016","05","21","01:00","‡","9.4","","7.5","","88","","9","","4","","32.2","","100.66","","","","","","Mainly Clear"
"2016-05-21 02:00","2016","05","21","02:00","‡","9.7","","7.0","","83","","25","","8","","32.2","","100.63","","","","","","NA"
"2016-05-21 03:00","2016","05","21","03:00","‡","12.2","","10.5","","89","","30","","17","","32.2","","100.62","","","","","","NA"
"2016-05-21 04:00","2016","05","21","04:00","‡","11.9","","10.5","","91","","29","","11","","32.2","","100.60","","","","","","Mostly Cloudy"
"2016-05-21 05:00","2016","05","21","05:00","‡","11.8","","10.1","","89","","29","","17","","32.2","","100.61","","","","","","NA"
"2016-05-21 06:00","2016","05","21","06:00","‡","11.2","","9.3","","88","","34","","4","","48.3","","100.63","","","","","","NA"
"2016-05-21 07:00","2016","05","21","07:00","‡","14.3","","11.5","","83","","29","","11","","48.3","","100.64","","","","","","Cloudy"
"2016-05-21 08:00","2016","05","21","08:00","‡","15.5","","10.1","","70","","30","","7","","48.3","","100.66","","","","","","NA"
"2016-05-21 09:00","2016","05","21","09:00","‡","15.3","","9.7","","69","","17","","3","","48.3","","100.68","","","","","","NA"
"2016-05-21 10:00","2016","05","21","10:00","‡","15.4","","10.0","","70","","24","","10","","40.2","","100.71","","","","","","Cloudy"
"2016-05-21 11:00","2016","05","21","11:00","‡","17.5","","8.7","","56","","16","","16","","48.3","","100.75","","","","","","NA"
"2016-05-21 12:00","2016","05","21","12:00","‡","17.6","","8.3","","54","","15","","19","","48.3","","100.75","","","","","","NA"
"2016-05-21 13:00","2016","05","21","13:00","‡","18.1","","8.5","","53","","12","","18","","48.3","","100.74","","","","","","Cloudy"
"2016-05-21 14:00","2016","05","21","14:00","‡","18.1","","9.0","","55","","12","","18","","48.3","","100.74","","","","","","NA"
"2016-05-21 15:00","2016","05","21","15:00","‡","18.2","","7.4","","49","","16","","17","","48.3","","100.74","","","","","","NA"
"2016-05-21 16:00","2016","05","21","16:00","‡","16.8","","8.3","","57","","15","","25","","48.3","","100.78","","","","","","Cloudy"
"2016-05-21 17:00","2016","05","21","17:00","‡","16.3","","9.1","","62","","12","","18","","48.3","","100.79","","","","","","NA"
"2016-05-21 18:00","2016","05","21","18:00","‡","15.3","","8.8","","65","","13","","21","","48.3","","100.83","","","","","","NA"
"2016-05-21 19:00","2016","05","21","19:00","‡","14.4","","10.5","","77","","11","","22","","48.3","","100.87","","","","","","Mostly Cloudy"
"2016-05-21 20:00","2016","05","21","20:00","‡","13.6","","9.9","","78","","10","","23","","48.3","","100.90","","","","","","NA"
"2016-05-21 21:00","2016","05","21","21:00","‡","13.4","","9.7","","78","","10","","23","","32.2","","100.95","","","","","","NA"
"2016-05-21 22:00","2016","05","21","22:00","‡","13.2","","9.7","","79","","10","","22","","32.2","","100.96","","","","","","Mostly Cloudy"
"2016-05-21 23:00","2016","05","21","23:00","‡","13.2","","9.9","","80","","9","","20","","32.2","","100.94","","","","","","NA"
"2016-05-22 00:00","2016","05","22","00:00","‡","13.0","","10.0","","82","","9","","19","","32.2","","100.92","","","","","","NA"
"2016-05-22 01:00","2016","05","22","01:00","‡","13.0","","10.0","","82","","9","","19","","32.2","","100.94","","","","","","Mostly Cloudy"
"2016-05-22 02:00","2016","05","22","02:00","‡","12.9","","9.8","","81","","9","","13","","32.2","","100.95","","","","","","NA"
"2016-05-22 03:00","2016","05","22","03:00","‡","12.3","","9.3","","82","","9","","12","","32.2","","100.96","","","","","","NA"
"2016-05-22 04:00","2016","05","22","04:00","‡","11.1","","9.0","","87","","9","","14","","32.2","","100.99","","","","","","Mostly Cloudy"
"2016-05-22 05:00","2016","05","22","05:00","‡","11.9","","9.3","","84","","10","","13","","24.1","","101.05","","","","","","NA"
"2016-05-22 06:00","2016","05","22","06:00","‡","12.8","","9.3","","79","","9","","9","","24.1","","101.07","","","","","","NA"
"2016-05-22 07:00","2016","05","22","07:00","‡","12.5","","9.4","","81","","8","","8","","24.1","","101.10","","","","","","Rain"
"2016-05-22 08:00","2016","05","22","08:00","‡","14.3","","10.2","","76","","9","","9","","32.2","","101.12","","","","","","NA"
"2016-05-22 09:00","2016","05","22","09:00","‡","14.6","","7.0","","60","","20","","4","","24.1","","101.11","","","","","","NA"
"2016-05-22 10:00","2016","05","22","10:00","‡","16.0","","7.1","","55","","22","","11","","24.1","","101.09","","","","","","Mostly Cloudy"
"2016-05-22 11:00","2016","05","22","11:00","‡","17.2","","7.9","","54","","22","","12","","32.2","","101.09","","","","","","NA"
"2016-05-22 12:00","2016","05","22","12:00","‡","17.3","","6.9","","50","","30","","3","","32.2","","101.08","","","","","","NA"
"2016-05-22 13:00","2016","05","22","13:00","‡","17.8","","7.1","","49","","19","","12","","32.2","","101.09","","","","","","Mostly Cloudy"
"2016-05-22 14:00","2016","05","22","14:00","‡","17.5","","7.6","","52","","20","","14","","48.3","","101.10","","","","","","NA"
"2016-05-22 15:00","2016","05","22","15:00","‡","18.6","","8.1","","50","","19","","19","","48.3","","101.10","","","","","","NA"
"2016-05-22 16:00","2016","05","22","16:00","‡","18.1","","8.5","","53","","18","","21","","48.3","","101.08","","","","","","Cloudy"
"2016-05-22 17:00","2016","05","22","17:00","‡","17.5","","8.5","","55","","19","","15","","48.3","","101.06","","","","","","NA"
"2016-05-22 18:00","2016","05","22","18:00","‡","16.9","","9.2","","60","","18","","10","","48.3","","101.04","","","","","","NA"
"2016-05-22 19:00","2016","05","22","19:00","‡","16.2","","8.3","","59","","16","","9","","32.2","","101.05","","","","","","Mostly Cloudy"
"2016-05-22 20:00","2016","05","22","20:00","‡","14.8","","8.8","","67","","15","","8","","32.2","","101.05","","","","","","NA"
"2016-05-22 21:00","2016","05","22","21:00","‡","14.6","","9.2","","70","","14","","12","","32.2","","101.07","","","","","","NA"
"2016-05-22 22:00","2016","05","22","22:00","‡","14.2","","9.9","","75","","18","","10","","32.2","","101.09","","","","","","Mostly Cloudy"
"2016-05-22 23:00","2016","05","22","23:00","‡","14.1","","9.4","","73","","20","","14","","32.2","","101.09","","","","","","NA"
"2016-05-23 00:00","2016","05","23","00:00","‡","13.7","","9.4","","75","","15","","5","","32.2","","101.10","","","","","","NA"
"2016-05-23 01:00","2016","05","23","01:00","‡","13.8","","7.8","","67","","16","","5","","32.2","","101.09","","","","","","Mostly Cloudy"
"2016-05-23 02:00","2016","05","23","02:00","‡","13.6","","8.1","","69","","36","","3","","32.2","","101.10","","","","","","NA"
"2016-05-23 03:00","2016","05","23","03:00","‡","13.1","","9.0","","76","","10","","10","","32.2","","101.11","","","","","","NA"
"2016-05-23 04:00","2016","05","23","04:00","‡","12.9","","9.2","","78","","9","","10","","32.2","","101.12","","","","","","Cloudy"
"2016-05-23 05:00","2016","05","23","05:00","‡","12.7","","9.2","","79","","9","","13","","32.2","","101.16","","","","","","NA"
"2016-05-23 06:00","2016","05","23","06:00","‡","12.7","","9.0","","78","","9","","14","","32.2","","101.18","","","","","","NA"
"2016-05-23 07:00","2016","05","23","07:00","‡","12.5","","8.8","","78","","11","","17","","32.2","","101.23","","","","","","Rain Showers"
"2016-05-23 08:00","2016","05","23","08:00","‡","12.9","","9.2","","78","","9","","16","","32.2","","101.24","","","","","","NA"
"2016-05-23 09:00","2016","05","23","09:00","‡","13.2","","9.3","","77","","9","","16","","32.2","","101.25","","","","","","NA"
"2016-05-23 10:00","2016","05","23","10:00","‡","14.4","","9.7","","73","","8","","15","","32.2","","101.26","","","","","","Cloudy"
"2016-05-23 11:00","2016","05","23","11:00","‡","15.0","","10.3","","73","","9","","16","","32.2","","101.27","","","","","","NA"
"2016-05-23 12:00","2016","05","23","12:00","‡","17.0","","11.1","","68","","9","","16","","32.2","","101.28","","","","","","NA"
"2016-05-23 13:00","2016","05","23","13:00","‡","16.7","","11.5","","71","","9","","13","","32.2","","101.26","","","","","","Cloudy"
"2016-05-23 14:00","2016","05","23","14:00","‡","16.5","","10.4","","67","","16","","13","","32.2","","101.28","","","","","","NA"
"2016-05-23 15:00","2016","05","23","15:00","‡","16.9","","10.4","","65","","22","","13","","32.2","","101.28","","","","","","NA"
"2016-05-23 16:00","2016","05","23","16:00","‡","16.3","","9.6","","64","","23","","7","","32.2","","101.28","","","","","","Mostly Cloudy"
"2016-05-23 17:00","2016","05","23","17:00","‡","15.8","","10.2","","69","","20","","12","","24.1","","101.25","","","","","","NA"
"2016-05-23 18:00","2016","05","23","18:00","‡","15.5","","9.7","","68","","19","","9","","32.2","","101.24","","","","","","NA"
"2016-05-23 19:00","2016","05","23","19:00","‡","14.8","","9.7","","71","","9","","15","","32.2","","101.24","","","","","","Cloudy"
"2016-05-23 20:00","2016","05","23","20:00","‡","14.2","","9.3","","72","","10","","12","","32.2","","101.25","","","","","","NA"
"2016-05-23 21:00","2016","05","23","21:00","‡","13.9","","9.8","","76","","9","","13","","24.1","","101.29","","","","","","NA"
"2016-05-23 22:00","2016","05","23","22:00","‡","14.1","","10.6","","79","","7","","13","","24.1","","101.29","","","","","","Cloudy"
"2016-05-23 23:00","2016","05","23","23:00","‡","14.1","","10.4","","78","","7","","12","","24.1","","101.30","","","","","","NA"
"2016-05-24 00:00","2016","05","24","00:00","‡","14.0","","10.5","","79","","8","","11","","24.1","","101.31","","","","","","NA"
"2016-05-24 01:00","2016","05","24","01:00","‡","13.7","","10.4","","80","","10","","11","","24.1","","101.29","","","","","","Cloudy"
"2016-05-24 02:00","2016","05","24","02:00","‡","13.6","","10.3","","80","","10","","10","","24.1","","101.30","","","","","","NA"
"2016-05-24 03:00","2016","05","24","03:00","‡","13.4","","10.2","","81","","10","","10","","24.1","","101.32","","","","","","NA"
"2016-05-24 04:00","2016","05","24","04:00","‡","13.3","","10.1","","81","","10","","11","","24.1","","101.31","","","","","","Cloudy"
"2016-05-24 05:00","2016","05","24","05:00","‡","13.4","","10.1","","80","","10","","12","","24.1","","101.33","","","","","","NA"
"2016-05-24 06:00","2016","05","24","06:00","‡","13.6","","10.3","","80","","10","","9","","24.1","","101.34","","","","","","NA"
"2016-05-24 07:00","2016","05","24","07:00","‡","14.1","","9.8","","75","","9","","9","","24.1","","101.38","","","","","","Cloudy"
"2016-05-24 08:00","2016","05","24","08:00","‡","15.1","","9.7","","70","","11","","7","","24.1","","101.40","","","","","","NA"
"2016-05-24 09:00","2016","05","24","09:00","‡","16.0","","9.9","","67","","7","","5","","24.1","","101.41","","","","","","NA"
"2016-05-24 10:00","2016","05","24","10:00","‡","14.6","","11.4","","81","","26","","14","","24.1","","101.44","","","","","","Cloudy"
"2016-05-24 11:00","2016","05","24","11:00","‡","14.9","","10.6","","75","","24","","13","","24.1","","101.46","","","","","","NA"
"2016-05-24 12:00","2016","05","24","12:00","‡","15.7","","10.9","","73","","26","","11","","24.1","","101.48","","","","","","NA"
"2016-05-24 13:00","2016","05","24","13:00","‡","16.4","","11.2","","71","","25","","8","","24.1","","101.50","","","","","","Cloudy"
"2016-05-24 14:00","2016","05","24","14:00","‡","17.5","","11.8","","69","","25","","11","","24.1","","101.49","","","","","","NA"
"2016-05-24 15:00","2016","05","24","15:00","‡","17.1","","12.7","","75","","24","","13","","24.1","","101.48","","","","","","NA"
"2016-05-24 16:00","2016","05","24","16:00","‡","16.9","","10.8","","67","","23","","9","","24.1","","101.46","","","","","","Mostly Cloudy"
"2016-05-24 17:00","2016","05","24","17:00","‡","16.9","","11.0","","68","","23","","9","","24.1","","101.45","","","","","","NA"
"2016-05-24 18:00","2016","05","24","18:00","‡","17.3","","10.7","","65","","22","","9","","24.1","","101.44","","","","","","NA"
"2016-05-24 19:00","2016","05","24","19:00","‡","17.0","","10.7","","66","","16","","10","","24.1","","101.45","","","","","","Mainly Clear"
"2016-05-24 20:00","2016","05","24","20:00","‡","14.9","","10.6","","75","","15","","12","","32.2","","101.50","","","","","","NA"
"2016-05-24 21:00","2016","05","24","21:00","‡","14.7","","10.4","","75","","11","","13","","32.2","","101.53","","","","","","NA"
"2016-05-24 22:00","2016","05","24","22:00","‡","14.2","","10.7","","79","","9","","14","","32.2","","101.56","","","","","","Mostly Cloudy"
"2016-05-24 23:00","2016","05","24","23:00","‡","13.9","","10.7","","81","","10","","13","","32.2","","101.58","","","","","","NA"
"2016-05-25 00:00","2016","05","25","00:00","‡","14.2","","10.7","","79","","11","","8","","32.2","","101.60","","","","","","NA"
"2016-05-25 01:00","2016","05","25","01:00","‡","13.6","","10.6","","82","","9","","14","","32.2","","101.61","","","","","","Mostly Cloudy"
"2016-05-25 02:00","2016","05","25","02:00","‡","13.4","","10.6","","83","","10","","9","","32.2","","101.64","","","","","","NA"
"2016-05-25 03:00","2016","05","25","03:00","‡","12.9","","10.5","","85","","14","","6","","32.2","","101.67","","","","","","NA"
"2016-05-25 04:00","2016","05","25","04:00","‡","12.6","","10.0","","84","","10","","6","","24.1","","101.72","","","","","","Mostly Cloudy"
"2016-05-25 05:00","2016","05","25","05:00","‡","12.6","","10.2","","85","","14","","4","","24.1","","101.76","","","","","","NA"
"2016-05-25 06:00","2016","05","25","06:00","‡","13.4","","10.6","","83","","13","","7","","24.1","","101.78","","","","","","NA"
"2016-05-25 07:00","2016","05","25","07:00","‡","13.9","","10.5","","80","","12","","8","","24.1","","101.83","","","","","","Mainly Clear"
"2016-05-25 08:00","2016","05","25","08:00","‡","14.6","","10.7","","77","","15","","5","","24.1","","101.87","","","","","","NA"
"2016-05-25 09:00","2016","05","25","09:00","‡","14.6","","11.2","","80","","24","","14","","24.1","","101.90","","","","","","NA"
"2016-05-25 10:00","2016","05","25","10:00","‡","16.6","","12.4","","76","","29","","12","","24.1","","101.92","","","","","","Mostly Cloudy"
"2016-05-25 11:00","2016","05","25","11:00","‡","16.7","","11.9","","73","","26","","13","","24.1","","101.94","","","","","","NA"
"2016-05-25 12:00","2016","05","25","12:00","‡","16.4","","11.8","","74","","23","","11","","24.1","","101.94","","","","","","NA"
"2016-05-25 13:00","2016","05","25","13:00","‡","16.4","","12.0","","75","","25","","12","","32.2","","101.96","","","","","","Mostly Cloudy"
"2016-05-25 14:00","2016","05","25","14:00","‡","17.6","","12.4","","71","","22","","16","","48.3","","101.96","","","","","","NA"
"2016-05-25 15:00","2016","05","25","15:00","‡","18.5","","13.0","","70","","20","","18","","48.3","","101.94","","","","","","NA"
"2016-05-25 16:00","2016","05","25","16:00","‡","18.7","","11.6","","63","","19","","15","","48.3","","101.93","","","","","","Mainly Clear"
"2016-05-25 17:00","2016","05","25","17:00","‡","18.6","","11.8","","64","","18","","10","","48.3","","101.91","","","","","","NA"
"2016-05-25 18:00","2016","05","25","18:00","‡","17.7","","9.9","","60","","22","","13","","48.3","","101.88","","","","","","NA"
"2016-05-25 19:00","2016","05","25","19:00","‡","16.8","","10.0","","64","","14","","12","","32.2","","101.90","","","","","","Mostly Cloudy"
"2016-05-25 20:00","2016","05","25","20:00","‡","15.8","","10.2","","69","","11","","17","","32.2","","101.91","","","","","","NA"
"2016-05-25 21:00","2016","05","25","21:00","‡","14.9","","10.0","","72","","10","","18","","32.2","","101.94","","","","","","NA"
"2016-05-25 22:00","2016","05","25","22:00","‡","14.7","","9.6","","71","","10","","18","","32.2","","101.94","","","","","","Mostly Cloudy"
"2016-05-25 23:00","2016","05","25","23:00","‡","13.6","","8.9","","73","","12","","25","","32.2","","101.96","","","","","","NA"
"2016-05-26 00:00","2016","05","26","00:00","‡","12.7","","8.6","","76","","10","","23","","32.2","","101.97","","","","","","NA"
"2016-05-26 01:00","2016","05","26","01:00","‡","12.2","","9.1","","81","","9","","21","","32.2","","102.01","","","","","","Mostly Cloudy"
"2016-05-26 02:00","2016","05","26","02:00","‡","12.0","","8.7","","80","","9","","24","","32.2","","102.02","","","","","","NA"
"2016-05-26 03:00","2016","05","26","03:00","‡","11.6","","8.3","","80","","10","","22","","32.2","","102.02","","","","","","NA"
"2016-05-26 04:00","2016","05","26","04:00","‡","11.6","","8.3","","80","","10","","23","","24.1","","102.00","","","","","","Mostly Cloudy"
"2016-05-26 05:00","2016","05","26","05:00","‡","12.0","","8.5","","79","","9","","19","","24.1","","102.03","","","","","","NA"
"2016-05-26 06:00","2016","05","26","06:00","‡","12.2","","8.5","","78","","10","","20","","24.1","","102.03","","","","","","NA"
"2016-05-26 07:00","2016","05","26","07:00","‡","12.3","","8.8","","79","","10","","18","","24.1","","102.04","","","","","","Cloudy"
"2016-05-26 08:00","2016","05","26","08:00","‡","12.4","","8.5","","77","","8","","22","","24.1","","102.02","","","","","","Drizzle"
"2016-05-26 09:00","2016","05","26","09:00","‡","12.2","","8.9","","80","","9","","19","","24.1","","102.03","","","","","","NA"
"2016-05-26 10:00","2016","05","26","10:00","‡","12.3","","9.2","","81","","9","","18","","24.1","","102.04","","","","","","Cloudy"
"2016-05-26 11:00","2016","05","26","11:00","‡","12.4","","9.4","","82","","7","","13","","24.1","","102.03","","","","","","NA"
"2016-05-26 12:00","2016","05","26","12:00","‡","13.2","","9.7","","79","","20","","3","","24.1","","102.03","","","","","","NA"
"2016-05-26 13:00","2016","05","26","13:00","‡","13.8","","9.3","","74","","15","","16","","24.1","","102.00","","","","","","Cloudy"
"2016-05-26 14:00","2016","05","26","14:00","‡","14.1","","9.0","","71","","14","","10","","24.1","","101.97","","","","","","NA"
"2016-05-26 15:00","2016","05","26","15:00","‡","14.6","","9.9","","73","","11","","17","","24.1","","101.91","","","","","","NA"
"2016-05-26 16:00","2016","05","26","16:00","‡","14.4","","8.8","","69","","12","","23","","24.1","","101.87","","","","","","Cloudy"
"2016-05-26 17:00","2016","05","26","17:00","‡","14.6","","8.8","","68","","10","","26","","24.1","","101.77","","","","","","NA"
"2016-05-26 18:00","2016","05","26","18:00","‡","14.5","","9.2","","70","","9","","22","","24.1","","101.70","","","","","","NA"
"2016-05-26 19:00","2016","05","26","19:00","‡","14.1","","6.5","","60","","16","","17","","24.1","","101.65","","","","","","Cloudy"
"2016-05-26 20:00","2016","05","26","20:00","‡","10.2","","8.5","","89","","33","","25","","19.3","","101.76","","","","","","Moderate Rain Showers"
"2016-05-26 21:00","2016","05","26","21:00","‡","10.1","","9.0","","93","","35","","12","","19.3","","101.84","","","","","","Rain Showers"
"2016-05-26 22:00","2016","05","26","22:00","‡","10.3","","8.3","","87","","5","","9","","19.3","","101.85","","","","","","Rain"
"2016-05-26 23:00","2016","05","26","23:00","‡","9.5","","8.1","","91","","14","","13","","24.1","","101.85","","","","","","Rain"
"2016-05-27 00:00","2016","05","27","00:00","‡","9.7","","8.6","","93","","10","","12","","19.3","","101.83","","","","","","Rain"
"2016-05-27 01:00","2016","05","27","01:00","‡","9.6","","8.5","","93","","9","","10","","19.3","","101.82","","","","","","Rain"
"2016-05-27 02:00","2016","05","27","02:00","‡","9.7","","8.6","","93","","7","","7","","19.3","","101.83","","","","","","Rain"
"2016-05-27 03:00","2016","05","27","03:00","‡","9.5","","8.8","","95","","12","","7","","16.1","","101.82","","","","","","Rain"
"2016-05-27 04:00","2016","05","27","04:00","‡","9.7","","8.8","","94","","12","","5","","19.3","","101.83","","","","","","Rain"
"2016-05-27 05:00","2016","05","27","05:00","‡","8.5","","8.1","","97","","10","","12","","24.1","","101.83","","","","","","NA"
"2016-05-27 06:00","2016","05","27","06:00","‡","10.2","","9.6","","96","","8","","11","","24.1","","101.88","","","","","","NA"
"2016-05-27 07:00","2016","05","27","07:00","‡","11.2","","9.1","","87","","9","","10","","24.1","","101.90","","","","","","Mostly Cloudy"
"2016-05-27 08:00","2016","05","27","08:00","‡","12.3","","8.2","","76","","22","","5","","24.1","","101.91","","","","","","NA"
"2016-05-27 09:00","2016","05","27","09:00","‡","12.9","","7.8","","71","","26","","5","","24.1","","101.92","","","","","","NA"
"2016-05-27 10:00","2016","05","27","10:00","‡","14.3","","7.9","","65","","26","","15","","24.1","","101.93","","","","","","Mainly Clear"
"2016-05-27 11:00","2016","05","27","11:00","‡","13.9","","6.8","","62","","24","","7","","24.1","","101.94","","","","","","NA"
"2016-05-27 12:00","2016","05","27","12:00","‡","14.3","","7.4","","63","","25","","16","","24.1","","101.92","","","","","","NA"
"2016-05-27 13:00","2016","05","27","13:00","‡","14.9","","7.5","","61","","22","","13","","32.2","","101.88","","","","","","Mostly Cloudy"
"2016-05-27 14:00","2016","05","27","14:00","‡","15.6","","5.9","","52","","22","","17","","32.2","","101.86","","","","","","NA"
"2016-05-27 15:00","2016","05","27","15:00","‡","15.6","","5.9","","52","","16","","17","","32.2","","101.84","","","","","","NA"
"2016-05-27 16:00","2016","05","27","16:00","‡","13.4","","6.3","","62","","21","","25","","24.1","","101.82","","","","","","Cloudy"
"2016-05-27 17:00","2016","05","27","17:00","‡","13.8","","6.5","","61","","14","","7","","24.1","","101.79","","","","","","NA"
"2016-05-27 18:00","2016","05","27","18:00","‡","13.4","","7.9","","69","","7","","11","","24.1","","101.78","","","","","","NA"
"2016-05-27 19:00","2016","05","27","19:00","‡","11.6","","8.8","","83","","1","","13","","24.1","","101.78","","","","","","Cloudy"
"2016-05-27 20:00","2016","05","27","20:00","‡","11.2","","9.0","","86","","2","","7","","24.1","","101.78","","","","","","NA"
"2016-05-27 21:00","2016","05","27","21:00","‡","11.6","","8.3","","80","","9","","8","","24.1","","101.81","","","","","","NA"
"2016-05-27 22:00","2016","05","27","22:00","‡","10.8","","8.9","","88","","9","","13","","19.3","","101.81","","","","","","Rain Showers"
"2016-05-27 23:00","2016","05","27","23:00","‡","10.6","","8.4","","86","","9","","8","","24.1","","101.78","","","","","","NA"
"2016-05-28 00:00","2016","05","28","00:00","‡","10.6","","8.9","","89","","13","","6","","19.3","","101.80","","","","","","NA"
"2016-05-28 01:00","2016","05","28","01:00","‡","10.4","","8.7","","89","","9","","10","","19.3","","101.77","","","","","","Rain"
"2016-05-28 02:00","2016","05","28","02:00","‡","9.8","","8.3","","90","","8","","14","","19.3","","101.72","","","","","","Rain"
"2016-05-28 03:00","2016","05","28","03:00","‡","9.5","","8.6","","94","","10","","12","","16.1","","101.70","","","","","","Rain"
"2016-05-28 04:00","2016","05","28","04:00","‡","9.5","","8.8","","95","","10","","13","","16.1","","101.69","","","","","","Rain"
"2016-05-28 05:00","2016","05","28","05:00","‡","9.3","","8.2","","93","","11","","16","","12.9","","101.65","","","","","","Rain"
"2016-05-28 06:00","2016","05","28","06:00","‡","9.4","","8.5","","94","","9","","18","","6.4","","101.62","","","","","","Rain,Fog"
"2016-05-28 07:00","2016","05","28","07:00","‡","9.6","","8.8","","95","","11","","19","","6.4","","101.57","","","","","","Rain,Fog"
"2016-05-28 08:00","2016","05","28","08:00","‡","9.7","","8.9","","95","","10","","21","","4.8","","101.56","","","","","","Moderate Rain,Fog"
"2016-05-28 09:00","2016","05","28","09:00","‡","9.8","","9.4","","97","","9","","23","","3.2","","101.52","","","","","","Heavy Rain,Fog"
"2016-05-28 10:00","2016","05","28","10:00","‡","10.4","","9.0","","91","","12","","26","","8.1","","101.50","","","","","","Rain,Fog"
"2016-05-28 11:00","2016","05","28","11:00","‡","10.8","","9.6","","92","","13","","20","","12.9","","101.49","","","","","","Rain"
"2016-05-28 12:00","2016","05","28","12:00","‡","11.5","","9.8","","89","","12","","26","","16.1","","101.46","","","","","","NA"
"2016-05-28 13:00","2016","05","28","13:00","‡","12.4","","10.2","","86","","13","","31","","16.1","","101.43","","","","","","Cloudy"
"2016-05-28 14:00","2016","05","28","14:00","‡","13.0","","10.7","","86","","12","","27","","16.1","","101.41","","","","","","NA"
"2016-05-28 15:00","2016","05","28","15:00","‡","12.9","","11.5","","91","","13","","23","","16.1","","101.38","","","","","","Rain Showers"
"2016-05-28 16:00","2016","05","28","16:00","‡","14.1","","11.5","","84","","14","","27","","16.1","","101.35","","","","","","Cloudy"
"2016-05-28 17:00","2016","05","28","17:00","‡","13.9","","11.3","","84","","16","","30","","16.1","","101.32","","","","","","Rain Showers"
"2016-05-28 18:00","2016","05","28","18:00","‡","14.1","","11.1","","82","","16","","25","","19.3","","101.34","","","","","","NA"
"2016-05-28 19:00","2016","05","28","19:00","‡","13.6","","11.2","","85","","16","","22","","19.3","","101.37","","","","","","Cloudy"
"2016-05-28 20:00","2016","05","28","20:00","‡","13.0","","11.1","","88","","21","","9","","19.3","","101.40","","","","","","NA"
"2016-05-28 21:00","2016","05","28","21:00","‡","12.6","","11.2","","91","","18","","9","","19.3","","101.46","","","","","","NA"
"2016-05-28 22:00","2016","05","28","22:00","‡","12.4","","11.2","","92","","9","","7","","19.3","","101.48","","","","","","Cloudy"
"2016-05-28 23:00","2016","05","28","23:00","‡","12.6","","11.4","","92","","7","","7","","19.3","","101.50","","","","","","NA"
"2016-05-29 00:00","2016","05","29","00:00","‡","11.8","","11.0","","95","","35","","9","","19.3","","101.52","","","","","","NA"
"2016-05-29 01:00","2016","05","29","01:00","‡","11.0","","10.4","","96","","33","","6","","19.3","","101.54","","","","","","Mostly Cloudy"
"2016-05-29 02:00","2016","05","29","02:00","‡","10.6","","10.0","","96","","31","","4","","19.3","","101.57","","","","","","NA"
"2016-05-29 03:00","2016","05","29","03:00","‡","9.9","","9.5","","97","","31","","7","","19.3","","101.59","","","","","","NA"
"2016-05-29 04:00","2016","05","29","04:00","‡","10.0","","9.6","","97","","36","","1","","24.1","","101.64","","","","","","Cloudy"
"2016-05-29 05:00","2016","05","29","05:00","‡","10.8","","9.4","","91","","30","","5","","32.2","","101.69","","","","","","NA"
"2016-05-29 06:00","2016","05","29","06:00","‡","11.2","","9.6","","90","","32","","10","","24.1","","101.74","","","","","","NA"
"2016-05-29 07:00","2016","05","29","07:00","‡","13.2","","10.4","","83","","31","","9","","32.2","","101.77","","","","","","Mostly Cloudy"
"2016-05-29 08:00","2016","05","29","08:00","‡","13.6","","10.3","","80","","28","","18","","32.2","","101.83","","","","","","NA"
"2016-05-29 09:00","2016","05","29","09:00","‡","13.8","","10.8","","82","","26","","17","","32.2","","101.88","","","","","","NA"
"2016-05-29 10:00","2016","05","29","10:00","‡","14.8","","10.7","","76","","28","","26","","32.2","","101.92","","","","","","Mostly Cloudy"
"2016-05-29 11:00","2016","05","29","11:00","‡","15.5","","10.3","","71","","28","","27","","32.2","","101.94","","","","","","NA"
"2016-05-29 12:00","2016","05","29","12:00","‡","15.8","","10.4","","70","","29","","24","","32.2","","101.98","","","","","","NA"
"2016-05-29 13:00","2016","05","29","13:00","‡","16.5","","10.0","","65","","28","","28","","32.2","","102.02","","","","","","Mainly Clear"
"2016-05-29 14:00","2016","05","29","14:00","‡","16.1","","10.0","","67","","25","","23","","32.2","","102.04","","","","","","NA"
"2016-05-29 15:00","2016","05","29","15:00","‡","16.2","","10.1","","67","","24","","18","","32.2","","102.05","","","","","","NA"
"2016-05-29 16:00","2016","05","29","16:00","‡","16.7","","8.0","","56","","24","","23","","48.3","","102.05","","","","","","Mainly Clear"
"2016-05-29 17:00","2016","05","29","17:00","‡","17.0","","6.9","","51","","24","","22","","48.3","","102.07","","","","","","NA"
"2016-05-29 18:00","2016","05","29","18:00","‡","16.0","","6.0","","51","","19","","17","","48.3","","102.08","","","","","","NA"
"2016-05-29 19:00","2016","05","29","19:00","‡","15.4","","9.2","","66","","16","","10","","48.3","","102.13","","","","","","Mainly Clear"
"2016-05-29 20:00","2016","05","29","20:00","‡","13.7","","7.3","","65","","15","","11","","48.3","","102.16","","","","","","NA"
"2016-05-29 21:00","2016","05","29","21:00","‡","13.4","","7.0","","65","","12","","9","","48.3","","102.23","","","","","","NA"
"2016-05-29 22:00","2016","05","29","22:00","‡","13.4","","8.7","","73","","7","","12","","48.3","","102.27","","","","","","Mainly Clear"
"2016-05-29 23:00","2016","05","29","23:00","‡","12.8","","8.3","","74","","6","","12","","48.3","","102.30","","","","","","NA"
"2016-05-30 00:00","2016","05","30","00:00","‡","11.8","","8.1","","78","","7","","10","","48.3","","102.34","","","","","","NA"
"2016-05-30 01:00","2016","05","30","01:00","‡","9.8","","7.6","","86","","9","","12","","32.2","","102.39","","","","","","Mainly Clear"
"2016-05-30 02:00","2016","05","30","02:00","‡","9.2","","7.7","","90","","11","","15","","32.2","","102.44","","","","","","NA"
"2016-05-30 03:00","2016","05","30","03:00","‡","9.8","","8.1","","89","","7","","8","","48.3","","102.48","","","","","","NA"
"2016-05-30 04:00","2016","05","30","04:00","‡","10.0","","7.6","","85","","8","","8","","48.3","","102.52","","","","","","Mostly Cloudy"
"2016-05-30 05:00","2016","05","30","05:00","‡","10.1","","7.9","","86","","7","","9","","48.3","","102.55","","","","","","NA"
"2016-05-30 06:00","2016","05","30","06:00","‡","11.6","","8.5","","81","","8","","11","","48.3","","102.58","","","","","","NA"
"2016-05-30 07:00","2016","05","30","07:00","‡","12.8","","8.9","","77","","11","","7","","48.3","","102.62","","","","","","Mainly Clear"
"2016-05-30 08:00","2016","05","30","08:00","‡","14.1","","8.8","","70","","12","","6","","48.3","","102.63","","","","","","NA"
"2016-05-30 09:00","2016","05","30","09:00","‡","15.3","","8.4","","63","","20","","8","","48.3","","102.59","","","","","","NA"
"2016-05-30 10:00","2016","05","30","10:00","‡","15.1","","10.6","","74","","23","","18","","48.3","","102.58","","","","","","Mainly Clear"
"2016-05-30 11:00","2016","05","30","11:00","‡","14.7","","10.6","","76","","23","","15","","48.3","","102.58","","","","","","NA"
"2016-05-30 12:00","2016","05","30","12:00","‡","14.7","","10.8","","77","","24","","15","","48.3","","102.56","","","","","","NA"
"2016-05-30 13:00","2016","05","30","13:00","‡","17.0","","10.7","","66","","28","","13","","48.3","","102.52","","","","","","Mostly Cloudy"
"2016-05-30 14:00","2016","05","30","14:00","‡","17.8","","8.2","","53","","27","","9","","48.3","","102.46","","","","","","NA"
"2016-05-30 15:00","2016","05","30","15:00","‡","17.0","","8.0","","55","","25","","14","","48.3","","102.42","","","","","","NA"
"2016-05-30 16:00","2016","05","30","16:00","‡","16.4","","9.4","","63","","24","","14","","48.3","","102.38","","","","","","Mostly Cloudy"
"2016-05-30 17:00","2016","05","30","17:00","‡","16.9","","8.9","","59","","24","","11","","48.3","","102.34","","","","","","NA"
"2016-05-30 18:00","2016","05","30","18:00","‡","16.9","","9.9","","63","","28","","5","","48.3","","102.30","","","","","","NA"
"2016-05-30 19:00","2016","05","30","19:00","‡","15.9","","10.1","","68","","23","","7","","48.3","","102.24","","","","","","Mostly Cloudy"
"2016-05-30 20:00","2016","05","30","20:00","‡","14.2","","9.3","","72","","28","","6","","48.3","","102.22","","","","","","NA"
"2016-05-30 21:00","2016","05","30","21:00","‡","13.6","","9.1","","74","","36","","2","","48.3","","102.22","","","","","","NA"
"2016-05-30 22:00","2016","05","30","22:00","‡","14.1","","9.4","","73","","36","","2","","48.3","","102.19","","","","","","Mainly Clear"
"2016-05-30 23:00","2016","05","30","23:00","‡","13.3","","9.6","","78","","36","","4","","48.3","","102.15","","","","","","NA"
"2016-05-31 00:00","2016","05","31","00:00","‡","13.1","","9.4","","78","","2","","4","","48.3","","102.15","","","","","","NA"
"2016-05-31 01:00","2016","05","31","01:00","‡","12.0","","9.4","","84","","2","","4","","48.3","","102.12","","","","","","Cloudy"
"2016-05-31 02:00","2016","05","31","02:00","‡","13.4","","8.9","","74","","3","","7","","48.3","","102.11","","","","","","NA"
"2016-05-31 03:00","2016","05","31","03:00","‡","12.2","","8.5","","78","","1","","6","","48.3","","102.08","","","","","","NA"
"2016-05-31 04:00","2016","05","31","04:00","‡","10.1","","7.7","","85","","0","","1","","48.3","","102.07","","","","","","Mainly Clear"
"2016-05-31 05:00","2016","05","31","05:00","‡","11.5","","9.1","","85","","2","","7","","48.3","","102.04","","","","","","NA"
"2016-05-31 06:00","2016","05","31","06:00","‡","13.7","","11.3","","85","","0","","1","","48.3","","102.03","","","","","","NA"
"2016-05-31 07:00","2016","05","31","07:00","‡","15.7","","10.9","","73","","28","","7","","48.3","","102.03","","","","","","Cloudy"
"2016-05-31 08:00","2016","05","31","08:00","‡","17.2","","9.5","","60","","26","","8","","48.3","","101.98","","","","","","NA"
"2016-05-31 09:00","2016","05","31","09:00","‡","18.4","","11.3","","63","","30","","12","","48.3","","101.95","","","","","","NA"
"2016-05-31 10:00","2016","05","31","10:00","‡","17.5","","12.0","","70","","26","","14","","48.3","","101.93","","","","","","Mostly Cloudy"
"2016-05-31 11:00","2016","05","31","11:00","‡","19.1","","12.5","","65","","29","","14","","48.3","","101.88","","","","","","NA"
"2016-05-31 12:00","2016","05","31","12:00","‡","19.6","","11.5","","59","","28","","8","","48.3","","101.80","","","","","","NA"
"2016-05-31 13:00","2016","05","31","13:00","‡","19.4","","10.2","","55","","27","","14","","48.3","","101.75","","","","","","Cloudy"
"2016-05-31 14:00","2016","05","31","14:00","‡","19.2","","11.1","","59","","30","","11","","48.3","","101.69","","","","","","NA"
"2016-05-31 15:00","2016","05","31","15:00","‡","19.6","","10.4","","55","","30","","10","","48.3","","101.62","","","","","","NA"
"2016-05-31 16:00","2016","05","31","16:00","‡","19.6","","11.5","","59","","29","","4","","48.3","","101.52","","","","","","Cloudy"
"2016-05-31 17:00","2016","05","31","17:00","‡","18.7","","12.5","","67","","25","","7","","48.3","","101.45","","","","","","NA"
"2016-05-31 18:00","2016","05","31","18:00","‡","17.6","","11.9","","69","","28","","9","","48.3","","101.42","","","","","","NA"
"2016-05-31 19:00","2016","05","31","19:00","‡","16.7","","14.2","","85","","29","","8","","48.3","","101.40","","","","","","Cloudy"
"2016-05-31 20:00","2016","05","31","20:00","‡","15.8","","13.7","","87","","30","","7","","48.3","","101.38","","","","","","NA"
"2016-05-31 21:00","2016","05","31","21:00","‡","17.0","","12.0","","72","","35","","4","","32.2","","101.34","","","","","","NA"
"2016-05-31 22:00","2016","05","31","22:00","‡","16.2","","12.4","","78","","17","","3","","32.2","","101.31","","","","","","Cloudy"
"2016-05-31 23:00","2016","05","31","23:00","‡","16.0","","12.0","","77","","21","","7","","32.2","","101.31","","","","","","NA"
