"Station Name","VANCOUVER INTL A"
"Province","BRITISH COLUMBIA"
"Latitude","49.19"
"Longitude","-123.18"
"Elevation","4.30"
"Climate Identifier","1108395"
"WMO Identifier","71892"
"TC Identifier","YVR"
"All times are specified in Local Standard Time (LST). Add 1 hour to adjust for Daylight Saving Time where and when it is observed."

"Legend"
"E","Estimated"
"M","Missing"
"NA","Not Available"
"‡","Partner data that is not subject to review by the National Climate Archives"

"Date/Time","Year","Month","Day","Time","Data Quality","Temp (°C)","Temp Flag","Dew Point Temp (°C)","Dew Point Temp Flag","Rel Hum (%)","Rel Hum Flag","Wind Dir (10s deg)","Wind Dir Flag","Wind Spd (km/h)","Wind Spd Flag","Visibility (km)","Visibility Flag","Stn Press (kPa)","Stn Press Flag","Hmdx","Hmdx Flag","Wind Chill","Wind Chill Flag","Weather"
"2017-07-01 00:00","2017","07","01","00:00","‡","16.1","","13.4","","84","","10","","13","","48.3","","101.33","","","","","","NA"
"2017-07-01 01:00","2017","07","01","01:00","‡","15.4","","13.0","","86","","9","","13","","48.3","","101.34","","","","","","Mainly Clear"
"2017-07-01 02:00","2017","07","01","02:00","‡","14.5","","12.2","","86","","14","","14","","48.3","","101.38","","","","","","NA"
"2017-07-01 03:00","2017","07","01","03:00","‡","14.1","","11.7","","86","","12","","22","","48.3","","101.43","","","","","","NA"
"2017-07-01 04:00","2017","07","01","04:00","‡","13.5","","11.4","","87","","11","","19","","48.3","","101.51","","","","","","Mainly Clear"
"2017-07-01 05:00","2017","07","01","05:00","‡","13.7","","11.2","","85","","10","","15","","48.3","","101.58","","","","","","NA"
"2017-07-01 06:00","2017","07","01","06:00","‡","14.4","","10.8","","79","","9","","19","","24.1","","101.64","","","","","","NA"
"2017-07-01 07:00","2017","07","01","07:00","‡","15.5","","10.4","","72","","9","","27","","32.2","","101.68","","","","","","Mainly Clear"
"2017-07-01 08:00","2017","07","01","08:00","‡","16.3","","10.6","","69","","12","","34","","32.2","","101.71","","","","","","NA"
"2017-07-01 09:00","2017","07","01","09:00","‡","16.9","","10.6","","66","","13","","31","","32.2","","101.72","","","","","","NA"
"2017-07-01 10:00","2017","07","01","10:00","‡","17.7","","10.5","","63","","14","","26","","32.2","","101.75","","","","","","Mainly Clear"
"2017-07-01 11:00","2017","07","01","11:00","‡","18.2","","10.9","","62","","13","","22","","32.2","","101.75","","","","","","NA"
"2017-07-01 12:00","2017","07","01","12:00","‡","19.0","","11.4","","61","","15","","11","","32.2","","101.75","","","","","","NA"
"2017-07-01 13:00","2017","07","01","13:00","‡","19.6","","11.2","","58","","12","","9","","32.2","","101.74","","","","","","Mainly Clear"
"2017-07-01 14:00","2017","07","01","14:00","‡","20.5","","12.5","","59","","17","","15","","48.3","","101.71","","","","","","NA"
"2017-07-01 15:00","2017","07","01","15:00","‡","20.8","","12.5","","59","","13","","19","","48.3","","101.69","","","","","","NA"
"2017-07-01 16:00","2017","07","01","16:00","‡","20.9","","12.5","","58","","16","","12","","48.3","","101.65","","","","","","Mainly Clear"
"2017-07-01 17:00","2017","07","01","17:00","‡","20.9","","13.0","","60","","15","","12","","48.3","","101.62","","","","","","NA"
"2017-07-01 18:00","2017","07","01","18:00","‡","20.7","","12.5","","59","","15","","12","","32.2","","101.61","","","","","","NA"
"2017-07-01 19:00","2017","07","01","19:00","‡","19.8","","12.9","","64","","14","","12","","48.3","","101.60","","","","","","Clear"
"2017-07-01 20:00","2017","07","01","20:00","‡","17.7","","11.8","","68","","10","","16","","48.3","","101.60","","","","","","NA"
"2017-07-01 21:00","2017","07","01","21:00","‡","16.7","","11.5","","71","","11","","16","","48.3","","101.62","","","","","","NA"
"2017-07-01 22:00","2017","07","01","22:00","‡","16.2","","11.2","","72","","13","","12","","48.3","","101.64","","","","","","Clear"
"2017-07-01 23:00","2017","07","01","23:00","‡","15.8","","11.6","","76","","10","","15","","32.2","","101.63","","","","","","NA"
"2017-07-02 00:00","2017","07","02","00:00","‡","15.2","","10.9","","75","","9","","14","","32.2","","101.65","","","","","","NA"
"2017-07-02 01:00","2017","07","02","01:00","‡","14.3","","10.7","","79","","10","","12","","32.2","","101.66","","","","","","Clear"
"2017-07-02 02:00","2017","07","02","02:00","‡","14.1","","10.7","","79","","10","","14","","32.2","","101.65","","","","","","NA"
"2017-07-02 03:00","2017","07","02","03:00","‡","13.2","","10.3","","82","","10","","15","","32.2","","101.68","","","","","","NA"
"2017-07-02 04:00","2017","07","02","04:00","‡","13.0","","10.4","","84","","10","","14","","32.2","","101.70","","","","","","Clear"
"2017-07-02 05:00","2017","07","02","05:00","‡","13.6","","10.8","","83","","10","","14","","32.2","","101.72","","","","","","NA"
"2017-07-02 06:00","2017","07","02","06:00","‡","14.7","","11.4","","80","","9","","16","","48.3","","101.74","","","","","","NA"
"2017-07-02 07:00","2017","07","02","07:00","‡","16.1","","12.0","","77","","10","","19","","48.3","","101.73","","","","","","Mainly Clear"
"2017-07-02 08:00","2017","07","02","08:00","‡","17.7","","12.4","","71","","14","","21","","48.3","","101.75","","","","","","NA"
"2017-07-02 09:00","2017","07","02","09:00","‡","18.7","","12.7","","68","","14","","18","","48.3","","101.76","","","","","","NA"
"2017-07-02 10:00","2017","07","02","10:00","‡","19.2","","13.2","","68","","14","","19","","48.3","","101.76","","","","","","Mainly Clear"
"2017-07-02 11:00","2017","07","02","11:00","‡","20.3","","12.2","","59","","13","","22","","48.3","","101.74","","","","","","NA"
"2017-07-02 12:00","2017","07","02","12:00","‡","21.1","","12.1","","56","","14","","23","","48.3","","101.71","","","","","","NA"
"2017-07-02 13:00","2017","07","02","13:00","‡","22.2","","13.3","","57","","16","","20","","48.3","","101.70","","25","","","","Mainly Clear"
"2017-07-02 14:00","2017","07","02","14:00","‡","23.0","","12.7","","52","","12","","15","","48.3","","101.67","","26","","","","NA"
"2017-07-02 15:00","2017","07","02","15:00","‡","23.2","","11.7","","48","","14","","13","","48.3","","101.65","","25","","","","NA"
"2017-07-02 16:00","2017","07","02","16:00","‡","23.6","","12.5","","49","","12","","13","","48.3","","101.62","","26","","","","Mainly Clear"
"2017-07-02 17:00","2017","07","02","17:00","‡","23.5","","11.3","","46","","13","","12","","48.3","","101.59","","25","","","","NA"
"2017-07-02 18:00","2017","07","02","18:00","‡","22.7","","11.8","","50","","12","","8","","48.3","","101.55","","25","","","","NA"
"2017-07-02 19:00","2017","07","02","19:00","‡","21.1","","13.1","","59","","14","","15","","32.2","","101.53","","","","","","Mainly Clear"
"2017-07-02 20:00","2017","07","02","20:00","‡","19.4","","13.2","","67","","12","","12","","32.2","","101.53","","","","","","NA"
"2017-07-02 21:00","2017","07","02","21:00","‡","17.3","","12.9","","75","","10","","16","","32.2","","101.58","","","","","","NA"
"2017-07-02 22:00","2017","07","02","22:00","‡","17.4","","12.5","","73","","11","","15","","32.2","","101.61","","","","","","Mostly Cloudy"
"2017-07-02 23:00","2017","07","02","23:00","‡","15.9","","12.5","","80","","7","","9","","32.2","","101.68","","","","","","NA"
"2017-07-03 00:00","2017","07","03","00:00","‡","14.8","","12.2","","84","","10","","12","","32.2","","101.73","","","","","","NA"
"2017-07-03 01:00","2017","07","03","01:00","‡","14.6","","12.2","","86","","10","","16","","32.2","","101.75","","","","","","Mostly Cloudy"
"2017-07-03 02:00","2017","07","03","02:00","‡","14.7","","12.2","","85","","8","","9","","32.2","","101.78","","","","","","NA"
"2017-07-03 03:00","2017","07","03","03:00","‡","15.3","","12.0","","80","","28","","24","","32.2","","101.81","","","","","","NA"
"2017-07-03 04:00","2017","07","03","04:00","‡","15.2","","11.7","","79","","27","","26","","32.2","","101.87","","","","","","Mainly Clear"
"2017-07-03 05:00","2017","07","03","05:00","‡","15.3","","11.5","","78","","27","","26","","32.2","","101.93","","","","","","NA"
"2017-07-03 06:00","2017","07","03","06:00","‡","16.0","","11.4","","74","","27","","23","","32.2","","101.98","","","","","","NA"
"2017-07-03 07:00","2017","07","03","07:00","‡","17.1","","10.6","","65","","26","","20","","48.3","","102.04","","","","","","Mainly Clear"
"2017-07-03 08:00","2017","07","03","08:00","‡","17.5","","10.1","","61","","27","","21","","48.3","","102.10","","","","","","NA"
"2017-07-03 09:00","2017","07","03","09:00","‡","17.9","","10.6","","62","","28","","21","","48.3","","102.15","","","","","","NA"
"2017-07-03 10:00","2017","07","03","10:00","‡","18.7","","11.4","","62","","27","","17","","48.3","","102.18","","","","","","Mainly Clear"
"2017-07-03 11:00","2017","07","03","11:00","‡","18.9","","11.4","","61","","27","","20","","48.3","","102.19","","","","","","NA"
"2017-07-03 12:00","2017","07","03","12:00","‡","18.9","","10.9","","59","","25","","17","","48.3","","102.18","","","","","","NA"
"2017-07-03 13:00","2017","07","03","13:00","‡","19.2","","9.1","","51","","24","","13","","48.3","","102.16","","","","","","Clear"
"2017-07-03 14:00","2017","07","03","14:00","‡","19.2","","9.6","","53","","24","","17","","48.3","","102.14","","","","","","NA"
"2017-07-03 15:00","2017","07","03","15:00","‡","19.7","","10.3","","54","","25","","12","","48.3","","102.12","","","","","","NA"
"2017-07-03 16:00","2017","07","03","16:00","‡","19.4","","10.6","","56","","22","","11","","48.3","","102.08","","","","","","Clear"
"2017-07-03 17:00","2017","07","03","17:00","‡","19.2","","9.9","","54","","24","","12","","48.3","","102.04","","","","","","NA"
"2017-07-03 18:00","2017","07","03","18:00","‡","18.7","","10.0","","57","","23","","8","","48.3","","101.99","","","","","","NA"
"2017-07-03 19:00","2017","07","03","19:00","‡","18.4","","10.1","","58","","20","","8","","48.3","","101.96","","","","","","Mainly Clear"
"2017-07-03 20:00","2017","07","03","20:00","‡","17.3","","11.1","","67","","20","","9","","48.3","","101.93","","","","","","NA"
"2017-07-03 21:00","2017","07","03","21:00","‡","16.9","","11.7","","71","","19","","5","","48.3","","101.93","","","","","","NA"
"2017-07-03 22:00","2017","07","03","22:00","‡","15.4","","11.1","","75","","17","","4","","48.3","","101.91","","","","","","Mainly Clear"
"2017-07-03 23:00","2017","07","03","23:00","‡","16.7","","11.4","","70","","13","","5","","48.3","","101.89","","","","","","NA"
"2017-07-04 00:00","2017","07","04","00:00","‡","15.1","","10.9","","75","","10","","4","","32.2","","101.85","","","","","","NA"
"2017-07-04 01:00","2017","07","04","01:00","‡","13.3","","9.7","","79","","13","","7","","32.2","","101.85","","","","","","Mainly Clear"
"2017-07-04 02:00","2017","07","04","02:00","‡","13.6","","11.2","","85","","10","","10","","32.2","","101.85","","","","","","NA"
"2017-07-04 03:00","2017","07","04","03:00","‡","12.9","","10.5","","85","","11","","8","","32.2","","101.83","","","","","","NA"
"2017-07-04 04:00","2017","07","04","04:00","‡","12.8","","11.1","","89","","9","","14","","48.3","","101.81","","","","","","Mainly Clear"
"2017-07-04 05:00","2017","07","04","05:00","‡","13.3","","10.7","","84","","9","","9","","48.3","","101.83","","","","","","NA"
"2017-07-04 06:00","2017","07","04","06:00","‡","14.9","","10.9","","77","","9","","6","","48.3","","101.84","","","","","","NA"
"2017-07-04 07:00","2017","07","04","07:00","‡","15.9","","11.1","","73","","36","","2","","48.3","","101.85","","","","","","Mainly Clear"
"2017-07-04 08:00","2017","07","04","08:00","‡","17.3","","12.0","","71","","22","","9","","48.3","","101.83","","","","","","NA"
"2017-07-04 09:00","2017","07","04","09:00","‡","18.2","","13.0","","72","","27","","10","","48.3","","101.80","","","","","","NA"
"2017-07-04 10:00","2017","07","04","10:00","‡","19.3","","13.0","","66","","29","","14","","48.3","","101.78","","","","","","Mainly Clear"
"2017-07-04 11:00","2017","07","04","11:00","‡","19.0","","12.7","","66","","28","","13","","48.3","","101.76","","","","","","NA"
"2017-07-04 12:00","2017","07","04","12:00","‡","18.6","","12.7","","68","","26","","17","","48.3","","101.75","","","","","","NA"
"2017-07-04 13:00","2017","07","04","13:00","‡","19.8","","12.5","","63","","24","","12","","48.3","","101.70","","","","","","Mainly Clear"
"2017-07-04 14:00","2017","07","04","14:00","‡","19.3","","13.8","","70","","25","","13","","48.3","","101.64","","","","","","NA"
"2017-07-04 15:00","2017","07","04","15:00","‡","19.5","","13.9","","70","","24","","14","","48.3","","101.59","","","","","","NA"
"2017-07-04 16:00","2017","07","04","16:00","‡","19.6","","13.7","","68","","23","","14","","48.3","","101.55","","","","","","Mainly Clear"
"2017-07-04 17:00","2017","07","04","17:00","‡","20.1","","14.2","","68","","24","","10","","48.3","","101.52","","","","","","NA"
"2017-07-04 18:00","2017","07","04","18:00","‡","20.0","","11.1","","56","","25","","7","","48.3","","101.48","","","","","","NA"
"2017-07-04 19:00","2017","07","04","19:00","‡","20.4","","13.5","","64","","36","","2","","48.3","","101.44","","","","","","Mainly Clear"
"2017-07-04 20:00","2017","07","04","20:00","‡","18.1","","14.1","","77","","22","","9","","48.3","","101.45","","","","","","NA"
"2017-07-04 21:00","2017","07","04","21:00","‡","16.9","","11.6","","70","","30","","4","","48.3","","101.47","","","","","","NA"
"2017-07-04 22:00","2017","07","04","22:00","‡","18.4","","11.3","","63","","36","","2","","48.3","","101.47","","","","","","Mainly Clear"
"2017-07-04 23:00","2017","07","04","23:00","‡","16.5","","11.8","","74","","9","","10","","48.3","","101.46","","","","","","NA"
"2017-07-05 00:00","2017","07","05","00:00","‡","15.9","","12.6","","80","","9","","10","","32.2","","101.47","","","","","","NA"
"2017-07-05 01:00","2017","07","05","01:00","‡","16.9","","12.6","","75","","9","","6","","32.2","","101.49","","","","","","Clear"
"2017-07-05 02:00","2017","07","05","02:00","‡","15.4","","12.7","","84","","15","","7","","32.2","","101.52","","","","","","NA"
"2017-07-05 03:00","2017","07","05","03:00","‡","14.0","","10.4","","79","","1","","4","","32.2","","101.51","","","","","","NA"
"2017-07-05 04:00","2017","07","05","04:00","‡","13.1","","10.4","","84","","0","","1","","32.2","","101.54","","","","","","Mainly Clear"
"2017-07-05 05:00","2017","07","05","05:00","‡","13.0","","10.8","","86","","36","","2","","32.2","","101.55","","","","","","NA"
"2017-07-05 06:00","2017","07","05","06:00","‡","16.3","","13.0","","80","","17","","3","","48.3","","101.58","","","","","","NA"
"2017-07-05 07:00","2017","07","05","07:00","‡","17.5","","13.8","","79","","20","","7","","48.3","","101.60","","","","","","Mainly Clear"
"2017-07-05 08:00","2017","07","05","08:00","‡","19.0","","13.5","","70","","24","","6","","40.2","","101.63","","","","","","NA"
"2017-07-05 09:00","2017","07","05","09:00","‡","19.6","","12.7","","64","","24","","11","","48.3","","101.62","","","","","","NA"
"2017-07-05 10:00","2017","07","05","10:00","‡","20.4","","13.7","","65","","26","","11","","48.3","","101.61","","","","","","Clear"
"2017-07-05 11:00","2017","07","05","11:00","‡","21.0","","13.8","","63","","25","","12","","48.3","","101.60","","","","","","NA"
"2017-07-05 12:00","2017","07","05","12:00","‡","21.7","","15.4","","67","","28","","13","","48.3","","101.58","","26","","","","NA"
"2017-07-05 13:00","2017","07","05","13:00","‡","22.1","","13.2","","57","","24","","13","","48.3","","101.56","","25","","","","Clear"
"2017-07-05 14:00","2017","07","05","14:00","‡","22.1","","12.8","","55","","24","","13","","48.3","","101.57","","25","","","","NA"
"2017-07-05 15:00","2017","07","05","15:00","‡","22.9","","12.2","","50","","26","","9","","48.3","","101.53","","25","","","","NA"
"2017-07-05 16:00","2017","07","05","16:00","‡","23.1","","12.9","","52","","24","","10","","48.3","","101.47","","26","","","","Clear"
"2017-07-05 17:00","2017","07","05","17:00","‡","22.6","","15.3","","63","","25","","10","","48.3","","101.46","","27","","","","NA"
"2017-07-05 18:00","2017","07","05","18:00","‡","21.9","","14.7","","63","","24","","9","","48.3","","101.44","","26","","","","NA"
"2017-07-05 19:00","2017","07","05","19:00","‡","21.5","","15.0","","66","","25","","3","","48.3","","101.47","","25","","","","Clear"
"2017-07-05 20:00","2017","07","05","20:00","‡","19.6","","13.9","","69","","24","","5","","48.3","","101.47","","","","","","NA"
"2017-07-05 21:00","2017","07","05","21:00","‡","18.3","","13.5","","73","","","","0","","48.3","","101.57","","","","","","NA"
"2017-07-05 22:00","2017","07","05","22:00","‡","19.6","","14.0","","70","","9","","5","","48.3","","101.61","","","","","","Clear"
"2017-07-05 23:00","2017","07","05","23:00","‡","17.8","","13.0","","73","","8","","10","","48.3","","101.65","","","","","","NA"
"2017-07-06 00:00","2017","07","06","00:00","‡","17.2","","13.7","","80","","10","","13","","48.3","","101.70","","","","","","NA"
"2017-07-06 01:00","2017","07","06","01:00","‡","16.5","","13.3","","82","","14","","9","","48.3","","101.76","","","","","","Clear"
"2017-07-06 02:00","2017","07","06","02:00","‡","15.7","","13.3","","86","","12","","8","","48.3","","101.78","","","","","","NA"
"2017-07-06 03:00","2017","07","06","03:00","‡","14.6","","12.6","","87","","11","","7","","48.3","","101.82","","","","","","NA"
"2017-07-06 04:00","2017","07","06","04:00","‡","14.3","","11.8","","84","","10","","13","","48.3","","101.89","","","","","","Clear"
"2017-07-06 05:00","2017","07","06","05:00","‡","14.8","","10.5","","76","","10","","11","","48.3","","101.94","","","","","","NA"
"2017-07-06 06:00","2017","07","06","06:00","‡","16.1","","10.7","","70","","10","","14","","48.3","","101.99","","","","","","NA"
"2017-07-06 07:00","2017","07","06","07:00","‡","17.6","","10.8","","64","","9","","13","","48.3","","102.03","","","","","","Clear"
"2017-07-06 08:00","2017","07","06","08:00","‡","19.5","","10.6","","56","","9","","8","","48.3","","102.04","","","","","","NA"
"2017-07-06 09:00","2017","07","06","09:00","‡","21.0","","11.1","","53","","17","","4","","48.3","","102.05","","","","","","NA"
"2017-07-06 10:00","2017","07","06","10:00","‡","20.9","","13.3","","61","","26","","16","","48.3","","102.01","","","","","","Clear"
"2017-07-06 11:00","2017","07","06","11:00","‡","21.0","","13.6","","62","","25","","14","","48.3","","101.98","","","","","","NA"
"2017-07-06 12:00","2017","07","06","12:00","‡","22.3","","15.1","","63","","25","","11","","48.3","","101.96","","26","","","","NA"
"2017-07-06 13:00","2017","07","06","13:00","‡","21.7","","14.2","","62","","25","","12","","48.3","","101.92","","25","","","","Clear"
"2017-07-06 14:00","2017","07","06","14:00","‡","22.5","","13.5","","56","","24","","13","","48.3","","101.89","","26","","","","NA"
"2017-07-06 15:00","2017","07","06","15:00","‡","24.1","","15.2","","57","","30","","8","","48.3","","101.83","","28","","","","NA"
"2017-07-06 16:00","2017","07","06","16:00","‡","23.5","","13.2","","52","","23","","9","","48.3","","101.77","","26","","","","Clear"
"2017-07-06 17:00","2017","07","06","17:00","‡","21.8","","15.9","","69","","23","","11","","48.3","","101.69","","26","","","","NA"
"2017-07-06 18:00","2017","07","06","18:00","‡","21.3","","13.5","","61","","24","","10","","48.3","","101.65","","","","","","NA"
"2017-07-06 19:00","2017","07","06","19:00","‡","21.3","","13.3","","60","","23","","5","","48.3","","101.62","","","","","","Clear"
"2017-07-06 20:00","2017","07","06","20:00","‡","20.2","","14.5","","69","","36","","2","","48.3","","101.59","","","","","","NA"
"2017-07-06 21:00","2017","07","06","21:00","‡","20.7","","14.2","","66","","12","","7","","48.3","","101.64","","","","","","NA"
"2017-07-06 22:00","2017","07","06","22:00","‡","18.4","","12.9","","70","","9","","11","","48.3","","101.65","","","","","","Clear"
"2017-07-06 23:00","2017","07","06","23:00","‡","18.5","","12.7","","69","","9","","17","","48.3","","101.65","","","","","","NA"
"2017-07-07 00:00","2017","07","07","00:00","‡","17.4","","12.2","","71","","10","","17","","48.3","","101.65","","","","","","NA"
"2017-07-07 01:00","2017","07","07","01:00","‡","16.8","","12.7","","77","","10","","16","","48.3","","101.62","","","","","","Clear"
"2017-07-07 02:00","2017","07","07","02:00","‡","17.1","","12.1","","72","","10","","17","","48.3","","101.64","","","","","","NA"
"2017-07-07 03:00","2017","07","07","03:00","‡","15.8","","10.3","","69","","14","","9","","48.3","","101.68","","","","","","NA"
"2017-07-07 04:00","2017","07","07","04:00","‡","14.3","","11.3","","82","","14","","8","","48.3","","101.70","","","","","","Clear"
"2017-07-07 05:00","2017","07","07","05:00","‡","15.5","","9.6","","68","","13","","16","","48.3","","101.75","","","","","","NA"
"2017-07-07 06:00","2017","07","07","06:00","‡","16.2","","10.4","","68","","13","","23","","48.3","","101.83","","","","","","NA"
"2017-07-07 07:00","2017","07","07","07:00","‡","16.9","","11.7","","71","","13","","26","","48.3","","101.91","","","","","","Mainly Clear"
"2017-07-07 08:00","2017","07","07","08:00","‡","18.4","","11.3","","63","","11","","25","","48.3","","101.99","","","","","","NA"
"2017-07-07 09:00","2017","07","07","09:00","‡","20.4","","11.0","","54","","10","","28","","48.3","","102.04","","","","","","NA"
"2017-07-07 10:00","2017","07","07","10:00","‡","20.1","","11.4","","57","","12","","32","","48.3","","102.08","","","","","","Mostly Cloudy"
"2017-07-07 11:00","2017","07","07","11:00","‡","20.4","","10.8","","54","","12","","31","","48.3","","102.14","","","","","","NA"
"2017-07-07 12:00","2017","07","07","12:00","‡","21.6","","11.0","","50","","14","","32","","48.3","","102.20","","","","","","NA"
"2017-07-07 13:00","2017","07","07","13:00","‡","21.7","","11.1","","50","","11","","31","","48.3","","102.23","","","","","","Clear"
"2017-07-07 14:00","2017","07","07","14:00","‡","21.6","","11.2","","51","","11","","27","","48.3","","102.25","","","","","","NA"
"2017-07-07 15:00","2017","07","07","15:00","‡","21.9","","10.9","","49","","13","","24","","48.3","","102.24","","","","","","NA"
"2017-07-07 16:00","2017","07","07","16:00","‡","22.2","","10.8","","48","","11","","23","","48.3","","102.20","","","","","","Mainly Clear"
"2017-07-07 17:00","2017","07","07","17:00","‡","22.1","","10.5","","47","","14","","23","","48.3","","102.15","","","","","","NA"
"2017-07-07 18:00","2017","07","07","18:00","‡","21.1","","10.2","","49","","14","","20","","48.3","","102.13","","","","","","NA"
"2017-07-07 19:00","2017","07","07","19:00","‡","19.7","","9.3","","50","","14","","17","","48.3","","102.12","","","","","","Mainly Clear"
"2017-07-07 20:00","2017","07","07","20:00","‡","18.1","","9.5","","57","","13","","17","","48.3","","102.08","","","","","","NA"
"2017-07-07 21:00","2017","07","07","21:00","‡","16.7","","10.6","","67","","13","","9","","48.3","","102.12","","","","","","NA"
"2017-07-07 22:00","2017","07","07","22:00","‡","15.9","","10.7","","71","","9","","8","","48.3","","102.10","","","","","","Mainly Clear"
"2017-07-07 23:00","2017","07","07","23:00","‡","15.0","","11.3","","78","","14","","9","","48.3","","102.11","","","","","","NA"
"2017-07-08 00:00","2017","07","08","00:00","‡","14.6","","11.3","","81","","14","","10","","48.3","","102.10","","","","","","NA"
"2017-07-08 01:00","2017","07","08","01:00","‡","14.2","","10.7","","79","","11","","10","","48.3","","102.12","","","","","","Cloudy"
"2017-07-08 02:00","2017","07","08","02:00","‡","14.0","","10.8","","81","","9","","10","","48.3","","102.11","","","","","","NA"
"2017-07-08 03:00","2017","07","08","03:00","‡","13.8","","10.3","","79","","11","","8","","48.3","","102.10","","","","","","NA"
"2017-07-08 04:00","2017","07","08","04:00","‡","13.3","","10.5","","83","","14","","9","","48.3","","102.10","","","","","","Mainly Clear"
"2017-07-08 05:00","2017","07","08","05:00","‡","13.5","","11.5","","87","","36","","3","","32.2","","102.15","","","","","","NA"
"2017-07-08 06:00","2017","07","08","06:00","‡","14.9","","11.7","","81","","11","","6","","32.2","","102.13","","","","","","NA"
"2017-07-08 07:00","2017","07","08","07:00","‡","16.4","","12.1","","75","","10","","6","","48.3","","102.10","","","","","","Mainly Clear"
"2017-07-08 08:00","2017","07","08","08:00","‡","17.9","","11.9","","67","","0","","1","","48.3","","102.07","","","","","","NA"
"2017-07-08 09:00","2017","07","08","09:00","‡","18.6","","13.0","","69","","24","","11","","48.3","","102.03","","","","","","NA"
"2017-07-08 10:00","2017","07","08","10:00","‡","19.0","","13.1","","68","","25","","14","","48.3","","101.99","","","","","","Mainly Clear"
"2017-07-08 11:00","2017","07","08","11:00","‡","19.3","","12.6","","65","","23","","14","","48.3","","101.98","","","","","","NA"
"2017-07-08 12:00","2017","07","08","12:00","‡","19.8","","13.7","","67","","26","","9","","48.3","","101.93","","","","","","NA"
"2017-07-08 13:00","2017","07","08","13:00","‡","20.7","","14.6","","68","","23","","13","","48.3","","101.86","","","","","","Mostly Cloudy"
"2017-07-08 14:00","2017","07","08","14:00","‡","20.5","","13.8","","65","","24","","14","","48.3","","101.79","","","","","","NA"
"2017-07-08 15:00","2017","07","08","15:00","‡","20.0","","13.7","","66","","23","","10","","48.3","","101.74","","","","","","NA"
"2017-07-08 16:00","2017","07","08","16:00","‡","20.8","","13.5","","63","","24","","7","","48.3","","101.69","","","","","","Mostly Cloudy"
"2017-07-08 17:00","2017","07","08","17:00","‡","22.7","","13.4","","55","","26","","5","","48.3","","101.61","","26","","","","NA"
"2017-07-08 18:00","2017","07","08","18:00","‡","21.0","","13.0","","60","","21","","6","","48.3","","101.57","","","","","","NA"
"2017-07-08 19:00","2017","07","08","19:00","‡","20.8","","13.3","","62","","26","","3","","48.3","","101.57","","","","","","Mostly Cloudy"
"2017-07-08 20:00","2017","07","08","20:00","‡","21.1","","13.1","","60","","16","","4","","32.2","","101.57","","","","","","NA"
"2017-07-08 21:00","2017","07","08","21:00","‡","19.5","","13.1","","66","","9","","16","","32.2","","101.61","","","","","","NA"
"2017-07-08 22:00","2017","07","08","22:00","‡","19.0","","13.6","","70","","10","","16","","32.2","","101.60","","","","","","Mostly Cloudy"
"2017-07-08 23:00","2017","07","08","23:00","‡","18.6","","13.9","","74","","12","","13","","32.2","","101.61","","","","","","NA"
"2017-07-09 00:00","2017","07","09","00:00","‡","17.7","","12.5","","71","","11","","19","","32.2","","101.64","","","","","","NA"
"2017-07-09 01:00","2017","07","09","01:00","‡","16.1","","12.3","","78","","10","","15","","32.2","","101.65","","","","","","Mostly Cloudy"
"2017-07-09 02:00","2017","07","09","02:00","‡","15.8","","11.9","","77","","13","","14","","32.2","","101.67","","","","","","NA"
"2017-07-09 03:00","2017","07","09","03:00","‡","15.4","","11.6","","78","","9","","22","","32.2","","101.68","","","","","","NA"
"2017-07-09 04:00","2017","07","09","04:00","‡","15.1","","10.6","","74","","9","","16","","32.2","","101.72","","","","","","Mostly Cloudy"
"2017-07-09 05:00","2017","07","09","05:00","‡","15.7","","10.9","","73","","10","","17","","32.2","","101.77","","","","","","NA"
"2017-07-09 06:00","2017","07","09","06:00","‡","16.7","","11.3","","70","","10","","16","","48.3","","101.79","","","","","","NA"
"2017-07-09 07:00","2017","07","09","07:00","‡","16.4","","11.7","","73","","10","","20","","48.3","","101.83","","","","","","Mostly Cloudy"
"2017-07-09 08:00","2017","07","09","08:00","‡","18.6","","12.1","","66","","12","","21","","48.3","","101.83","","","","","","NA"
"2017-07-09 09:00","2017","07","09","09:00","‡","19.2","","12.3","","64","","11","","19","","32.2","","101.85","","","","","","NA"
"2017-07-09 10:00","2017","07","09","10:00","‡","20.4","","12.4","","59","","13","","15","","32.2","","101.86","","","","","","Mostly Cloudy"
"2017-07-09 11:00","2017","07","09","11:00","‡","21.7","","13.4","","59","","17","","9","","32.2","","101.88","","25","","","","NA"
"2017-07-09 12:00","2017","07","09","12:00","‡","23.7","","13.4","","52","","12","","8","","48.3","","101.87","","27","","","","NA"
"2017-07-09 13:00","2017","07","09","13:00","‡","21.6","","14.8","","65","","25","","16","","48.3","","101.85","","25","","","","Mostly Cloudy"
"2017-07-09 14:00","2017","07","09","14:00","‡","20.6","","15.1","","70","","25","","16","","48.3","","101.83","","25","","","","NA"
"2017-07-09 15:00","2017","07","09","15:00","‡","21.4","","12.8","","58","","25","","16","","48.3","","101.79","","","","","","NA"
"2017-07-09 16:00","2017","07","09","16:00","‡","20.6","","14.3","","66","","24","","11","","48.3","","101.73","","","","","","Mainly Clear"
"2017-07-09 17:00","2017","07","09","17:00","‡","21.6","","14.7","","64","","26","","13","","48.3","","101.68","","25","","","","NA"
"2017-07-09 18:00","2017","07","09","18:00","‡","20.5","","15.2","","71","","25","","11","","48.3","","101.63","","25","","","","NA"
"2017-07-09 19:00","2017","07","09","19:00","‡","20.3","","15.5","","73","","27","","17","","48.3","","101.60","","25","","","","Mainly Clear"
"2017-07-09 20:00","2017","07","09","20:00","‡","19.6","","16.3","","81","","27","","20","","48.3","","101.56","","","","","","NA"
"2017-07-09 21:00","2017","07","09","21:00","‡","19.0","","16.5","","85","","26","","18","","48.3","","101.57","","","","","","NA"
"2017-07-09 22:00","2017","07","09","22:00","‡","19.1","","14.5","","74","","28","","31","","48.3","","101.56","","","","","","Mainly Clear"
"2017-07-09 23:00","2017","07","09","23:00","‡","18.8","","14.1","","74","","28","","27","","48.3","","101.54","","","","","","NA"
"2017-07-10 00:00","2017","07","10","00:00","‡","18.3","","13.1","","71","","29","","32","","48.3","","101.50","","","","","","NA"
"2017-07-10 01:00","2017","07","10","01:00","‡","17.3","","13.1","","76","","29","","30","","48.3","","101.49","","","","","","Clear"
"2017-07-10 02:00","2017","07","10","02:00","‡","16.9","","12.8","","76","","29","","33","","48.3","","101.49","","","","","","NA"
"2017-07-10 03:00","2017","07","10","03:00","‡","16.5","","12.9","","79","","29","","31","","48.3","","101.48","","","","","","NA"
"2017-07-10 04:00","2017","07","10","04:00","‡","16.0","","12.4","","79","","29","","26","","48.3","","101.49","","","","","","Clear"
"2017-07-10 05:00","2017","07","10","05:00","‡","16.1","","12.9","","81","","29","","27","","48.3","","101.50","","","","","","NA"
"2017-07-10 06:00","2017","07","10","06:00","‡","16.9","","12.8","","76","","29","","29","","48.3","","101.52","","","","","","NA"
"2017-07-10 07:00","2017","07","10","07:00","‡","17.1","","13.0","","77","","29","","24","","48.3","","101.57","","","","","","Mostly Cloudy"
"2017-07-10 08:00","2017","07","10","08:00","‡","17.9","","13.2","","74","","29","","25","","48.3","","101.60","","","","","","NA"
"2017-07-10 09:00","2017","07","10","09:00","‡","17.6","","12.9","","74","","28","","22","","48.3","","101.63","","","","","","NA"
"2017-07-10 10:00","2017","07","10","10:00","‡","18.4","","12.9","","70","","29","","22","","48.3","","101.64","","","","","","Mostly Cloudy"
"2017-07-10 11:00","2017","07","10","11:00","‡","19.0","","12.9","","67","","28","","13","","48.3","","101.63","","","","","","NA"
"2017-07-10 12:00","2017","07","10","12:00","‡","19.7","","12.6","","63","","26","","10","","48.3","","101.63","","","","","","NA"
"2017-07-10 13:00","2017","07","10","13:00","‡","19.3","","12.6","","65","","27","","10","","48.3","","101.63","","","","","","Cloudy"
"2017-07-10 14:00","2017","07","10","14:00","‡","18.9","","13.0","","68","","27","","11","","48.3","","101.65","","","","","","NA"
"2017-07-10 15:00","2017","07","10","15:00","‡","18.6","","12.4","","67","","25","","9","","48.3","","101.64","","","","","","NA"
"2017-07-10 16:00","2017","07","10","16:00","‡","18.7","","12.4","","66","","27","","8","","48.3","","101.63","","","","","","Cloudy"
"2017-07-10 17:00","2017","07","10","17:00","‡","19.3","","13.0","","67","","31","","7","","48.3","","101.62","","","","","","NA"
"2017-07-10 18:00","2017","07","10","18:00","‡","18.9","","12.7","","67","","28","","12","","48.3","","101.63","","","","","","NA"
"2017-07-10 19:00","2017","07","10","19:00","‡","18.5","","13.2","","71","","28","","12","","48.3","","101.63","","","","","","Mostly Cloudy"
"2017-07-10 20:00","2017","07","10","20:00","‡","17.1","","11.9","","72","","25","","8","","48.3","","101.64","","","","","","NA"
"2017-07-10 21:00","2017","07","10","21:00","‡","17.0","","11.4","","69","","26","","8","","48.3","","101.67","","","","","","NA"
"2017-07-10 22:00","2017","07","10","22:00","‡","17.0","","12.1","","73","","36","","3","","32.2","","101.69","","","","","","Mostly Cloudy"
"2017-07-10 23:00","2017","07","10","23:00","‡","15.2","","12.3","","83","","13","","9","","32.2","","101.71","","","","","","NA"
"2017-07-11 00:00","2017","07","11","00:00","‡","14.0","","11.1","","82","","9","","17","","32.2","","101.73","","","","","","NA"
"2017-07-11 01:00","2017","07","11","01:00","‡","13.6","","11.1","","84","","11","","14","","32.2","","101.75","","","","","","Mainly Clear"
"2017-07-11 02:00","2017","07","11","02:00","‡","12.8","","10.7","","87","","10","","15","","32.2","","101.78","","","","","","NA"
"2017-07-11 03:00","2017","07","11","03:00","‡","12.3","","10.4","","88","","9","","14","","32.2","","101.82","","","","","","NA"
"2017-07-11 04:00","2017","07","11","04:00","‡","12.8","","10.9","","88","","10","","14","","32.2","","101.82","","","","","","Mostly Cloudy"
"2017-07-11 05:00","2017","07","11","05:00","‡","12.9","","11.1","","88","","11","","13","","32.2","","101.86","","","","","","NA"
"2017-07-11 06:00","2017","07","11","06:00","‡","13.9","","11.0","","83","","11","","17","","24.1","","101.89","","","","","","NA"
"2017-07-11 07:00","2017","07","11","07:00","‡","15.5","","11.5","","77","","11","","14","","32.2","","101.92","","","","","","Mostly Cloudy"
"2017-07-11 08:00","2017","07","11","08:00","‡","16.8","","11.0","","69","","10","","13","","48.3","","101.94","","","","","","NA"
"2017-07-11 09:00","2017","07","11","09:00","‡","17.5","","11.2","","66","","14","","12","","48.3","","101.93","","","","","","NA"
"2017-07-11 10:00","2017","07","11","10:00","‡","18.7","","11.1","","61","","12","","7","","48.3","","101.92","","","","","","Mainly Clear"
"2017-07-11 11:00","2017","07","11","11:00","‡","18.6","","14.1","","74","","24","","8","","48.3","","101.89","","","","","","NA"
"2017-07-11 12:00","2017","07","11","12:00","‡","19.8","","14.1","","69","","21","","19","","48.3","","101.86","","","","","","NA"
"2017-07-11 13:00","2017","07","11","13:00","‡","21.1","","13.7","","62","","21","","16","","48.3","","101.83","","","","","","Mainly Clear"
"2017-07-11 14:00","2017","07","11","14:00","‡","20.9","","14.3","","65","","21","","17","","48.3","","101.79","","","","","","NA"
"2017-07-11 15:00","2017","07","11","15:00","‡","21.4","","13.0","","58","","22","","13","","48.3","","101.75","","","","","","NA"
"2017-07-11 16:00","2017","07","11","16:00","‡","21.1","","12.9","","59","","22","","17","","48.3","","101.66","","","","","","Mainly Clear"
"2017-07-11 17:00","2017","07","11","17:00","‡","21.2","","12.2","","56","","21","","13","","48.3","","101.61","","","","","","NA"
"2017-07-11 18:00","2017","07","11","18:00","‡","20.9","","11.6","","55","","21","","14","","48.3","","101.58","","","","","","NA"
"2017-07-11 19:00","2017","07","11","19:00","‡","19.5","","12.5","","63","","18","","13","","48.3","","101.56","","","","","","Mostly Cloudy"
"2017-07-11 20:00","2017","07","11","20:00","‡","19.0","","11.8","","62","","16","","12","","48.3","","101.55","","","","","","NA"
"2017-07-11 21:00","2017","07","11","21:00","‡","17.5","","13.0","","74","","9","","14","","48.3","","101.56","","","","","","NA"
"2017-07-11 22:00","2017","07","11","22:00","‡","16.4","","12.1","","75","","9","","17","","32.2","","101.54","","","","","","Mostly Cloudy"
"2017-07-11 23:00","2017","07","11","23:00","‡","15.7","","11.8","","77","","10","","17","","32.2","","101.53","","","","","","NA"
"2017-07-12 00:00","2017","07","12","00:00","‡","15.0","","11.4","","79","","10","","18","","32.2","","101.53","","","","","","NA"
"2017-07-12 01:00","2017","07","12","01:00","‡","15.0","","10.5","","74","","10","","15","","32.2","","101.54","","","","","","Mainly Clear"
"2017-07-12 02:00","2017","07","12","02:00","‡","14.1","","10.3","","77","","10","","16","","32.2","","101.54","","","","","","NA"
"2017-07-12 03:00","2017","07","12","03:00","‡","13.8","","9.7","","76","","10","","18","","32.2","","101.55","","","","","","NA"
"2017-07-12 04:00","2017","07","12","04:00","‡","13.5","","9.4","","76","","11","","22","","32.2","","101.58","","","","","","Mainly Clear"
"2017-07-12 05:00","2017","07","12","05:00","‡","13.4","","9.6","","77","","11","","20","","32.2","","101.61","","","","","","NA"
"2017-07-12 06:00","2017","07","12","06:00","‡","14.5","","9.9","","74","","10","","25","","48.3","","101.63","","","","","","NA"
"2017-07-12 07:00","2017","07","12","07:00","‡","15.8","","10.6","","71","","10","","23","","48.3","","101.68","","","","","","Mainly Clear"
"2017-07-12 08:00","2017","07","12","08:00","‡","16.9","","10.9","","67","","12","","21","","48.3","","101.69","","","","","","NA"
"2017-07-12 09:00","2017","07","12","09:00","‡","18.3","","11.2","","63","","15","","19","","48.3","","101.70","","","","","","NA"
"2017-07-12 10:00","2017","07","12","10:00","‡","19.5","","10.6","","56","","14","","19","","48.3","","101.71","","","","","","Mostly Cloudy"
"2017-07-12 11:00","2017","07","12","11:00","‡","20.5","","11.3","","55","","14","","17","","48.3","","101.72","","","","","","NA"
"2017-07-12 12:00","2017","07","12","12:00","‡","21.2","","10.7","","51","","15","","16","","48.3","","101.70","","","","","","NA"
"2017-07-12 13:00","2017","07","12","13:00","‡","20.7","","12.2","","58","","18","","12","","48.3","","101.67","","","","","","Mostly Cloudy"
"2017-07-12 14:00","2017","07","12","14:00","‡","22.1","","12.3","","53","","15","","13","","48.3","","101.64","","25","","","","NA"
"2017-07-12 15:00","2017","07","12","15:00","‡","22.8","","13.0","","54","","16","","16","","48.3","","101.59","","26","","","","NA"
"2017-07-12 16:00","2017","07","12","16:00","‡","22.4","","11.6","","50","","9","","12","","48.3","","101.52","","","","","","Mostly Cloudy"
"2017-07-12 17:00","2017","07","12","17:00","‡","23.3","","11.8","","48","","16","","11","","48.3","","101.47","","25","","","","NA"
"2017-07-12 18:00","2017","07","12","18:00","‡","21.5","","10.7","","50","","17","","8","","48.3","","101.42","","","","","","NA"
"2017-07-12 19:00","2017","07","12","19:00","‡","20.3","","13.3","","64","","20","","9","","48.3","","101.39","","","","","","Mainly Clear"
"2017-07-12 20:00","2017","07","12","20:00","‡","19.0","","12.1","","64","","14","","11","","48.3","","101.40","","","","","","NA"
"2017-07-12 21:00","2017","07","12","21:00","‡","18.5","","11.5","","63","","11","","8","","48.3","","101.42","","","","","","NA"
"2017-07-12 22:00","2017","07","12","22:00","‡","17.6","","12.1","","70","","9","","12","","32.2","","101.42","","","","","","Mostly Cloudy"
"2017-07-12 23:00","2017","07","12","23:00","‡","16.7","","12.8","","77","","10","","12","","32.2","","101.43","","","","","","NA"
"2017-07-13 00:00","2017","07","13","00:00","‡","17.0","","12.3","","74","","12","","13","","32.2","","101.44","","","","","","NA"
"2017-07-13 01:00","2017","07","13","01:00","‡","16.9","","12.3","","74","","10","","14","","32.2","","101.42","","","","","","Mostly Cloudy"
"2017-07-13 02:00","2017","07","13","02:00","‡","16.6","","13.0","","79","","14","","14","","32.2","","101.46","","","","","","NA"
"2017-07-13 03:00","2017","07","13","03:00","‡","15.7","","12.1","","79","","14","","11","","24.1","","101.53","","","","","","NA"
"2017-07-13 04:00","2017","07","13","04:00","‡","15.4","","12.4","","82","","9","","13","","32.2","","101.57","","","","","","Mostly Cloudy"
"2017-07-13 05:00","2017","07","13","05:00","‡","15.5","","12.4","","82","","10","","15","","32.2","","101.61","","","","","","NA"
"2017-07-13 06:00","2017","07","13","06:00","‡","15.6","","12.9","","84","","9","","18","","48.3","","101.66","","","","","","NA"
"2017-07-13 07:00","2017","07","13","07:00","‡","16.0","","12.8","","81","","9","","19","","48.3","","101.71","","","","","","Cloudy"
"2017-07-13 08:00","2017","07","13","08:00","‡","17.2","","13.2","","77","","8","","15","","48.3","","101.77","","","","","","NA"
"2017-07-13 09:00","2017","07","13","09:00","‡","18.8","","11.4","","61","","8","","13","","24.1","","101.86","","","","","","NA"
"2017-07-13 10:00","2017","07","13","10:00","‡","21.5","","12.5","","56","","36","","1","","32.2","","101.93","","","","","","Cloudy"
"2017-07-13 11:00","2017","07","13","11:00","‡","20.1","","12.6","","62","","12","","14","","32.2","","101.95","","","","","","NA"
"2017-07-13 12:00","2017","07","13","12:00","‡","21.0","","11.5","","54","","16","","12","","48.3","","101.96","","","","","","NA"
"2017-07-13 13:00","2017","07","13","13:00","‡","20.7","","11.4","","55","","18","","13","","48.3","","102.02","","","","","","Mostly Cloudy"
"2017-07-13 14:00","2017","07","13","14:00","‡","22.0","","11.7","","51","","13","","14","","48.3","","101.99","","","","","","NA"
"2017-07-13 15:00","2017","07","13","15:00","‡","21.6","","12.3","","55","","19","","20","","48.3","","102.01","","","","","","NA"
"2017-07-13 16:00","2017","07","13","16:00","‡","22.2","","10.5","","47","","16","","18","","48.3","","101.98","","","","","","Mainly Clear"
"2017-07-13 17:00","2017","07","13","17:00","‡","21.5","","12.2","","55","","17","","18","","48.3","","101.97","","","","","","NA"
"2017-07-13 18:00","2017","07","13","18:00","‡","20.6","","10.9","","53","","15","","14","","48.3","","101.93","","","","","","NA"
"2017-07-13 19:00","2017","07","13","19:00","‡","19.9","","10.5","","54","","14","","13","","48.3","","101.92","","","","","","Clear"
"2017-07-13 20:00","2017","07","13","20:00","‡","17.6","","10.6","","63","","14","","15","","48.3","","101.94","","","","","","NA"
"2017-07-13 21:00","2017","07","13","21:00","‡","16.8","","11.1","","69","","11","","11","","48.3","","101.98","","","","","","NA"
"2017-07-13 22:00","2017","07","13","22:00","‡","16.1","","11.1","","72","","8","","12","","48.3","","101.98","","","","","","Clear"
"2017-07-13 23:00","2017","07","13","23:00","‡","14.9","","10.7","","75","","10","","13","","48.3","","102.00","","","","","","NA"
"2017-07-14 00:00","2017","07","14","00:00","‡","14.8","","10.8","","76","","10","","11","","48.3","","102.02","","","","","","NA"
"2017-07-14 01:00","2017","07","14","01:00","‡","14.1","","10.2","","77","","9","","8","","48.3","","102.02","","","","","","Clear"
"2017-07-14 02:00","2017","07","14","02:00","‡","13.8","","10.2","","79","","10","","12","","48.3","","102.03","","","","","","NA"
"2017-07-14 03:00","2017","07","14","03:00","‡","13.3","","10.0","","80","","9","","12","","48.3","","102.04","","","","","","NA"
"2017-07-14 04:00","2017","07","14","04:00","‡","12.8","","9.7","","82","","10","","12","","48.3","","102.06","","","","","","Mainly Clear"
"2017-07-14 05:00","2017","07","14","05:00","‡","13.3","","10.2","","81","","9","","10","","32.2","","102.10","","","","","","NA"
"2017-07-14 06:00","2017","07","14","06:00","‡","13.7","","10.8","","83","","10","","12","","48.3","","102.11","","","","","","NA"
"2017-07-14 07:00","2017","07","14","07:00","‡","15.6","","10.8","","73","","11","","11","","48.3","","102.13","","","","","","Mainly Clear"
"2017-07-14 08:00","2017","07","14","08:00","‡","17.9","","10.9","","63","","10","","9","","48.3","","102.12","","","","","","NA"
"2017-07-14 09:00","2017","07","14","09:00","‡","19.5","","10.9","","57","","13","","8","","48.3","","102.09","","","","","","NA"
"2017-07-14 10:00","2017","07","14","10:00","‡","18.1","","13.4","","74","","22","","19","","48.3","","102.09","","","","","","Mainly Clear"
"2017-07-14 11:00","2017","07","14","11:00","‡","18.4","","13.2","","71","","22","","16","","48.3","","102.07","","","","","","NA"
"2017-07-14 12:00","2017","07","14","12:00","‡","19.3","","12.6","","65","","24","","14","","48.3","","102.03","","","","","","NA"
"2017-07-14 13:00","2017","07","14","13:00","‡","19.4","","11.8","","61","","26","","13","","48.3","","101.99","","","","","","Mainly Clear"
"2017-07-14 14:00","2017","07","14","14:00","‡","20.7","","13.5","","63","","28","","7","","48.3","","101.94","","","","","","NA"
"2017-07-14 15:00","2017","07","14","15:00","‡","21.3","","12.6","","57","","23","","10","","48.3","","101.89","","","","","","NA"
"2017-07-14 16:00","2017","07","14","16:00","‡","21.8","","12.8","","56","","23","","12","","48.3","","101.84","","","","","","Clear"
"2017-07-14 17:00","2017","07","14","17:00","‡","22.5","","13.9","","58","","25","","9","","48.3","","101.77","","26","","","","NA"
"2017-07-14 18:00","2017","07","14","18:00","‡","21.4","","14.3","","64","","23","","10","","48.3","","101.73","","25","","","","NA"
"2017-07-14 19:00","2017","07","14","19:00","‡","21.1","","12.8","","59","","19","","12","","48.3","","101.71","","","","","","Clear"
"2017-07-14 20:00","2017","07","14","20:00","‡","20.0","","11.1","","56","","14","","12","","48.3","","101.73","","","","","","NA"
"2017-07-14 21:00","2017","07","14","21:00","‡","18.6","","11.2","","62","","14","","9","","48.3","","101.77","","","","","","NA"
"2017-07-14 22:00","2017","07","14","22:00","‡","18.3","","11.5","","64","","13","","12","","48.3","","101.80","","","","","","Mostly Cloudy"
"2017-07-14 23:00","2017","07","14","23:00","‡","17.4","","12.4","","72","","9","","15","","48.3","","101.82","","","","","","NA"
"2017-07-15 00:00","2017","07","15","00:00","‡","16.8","","11.8","","72","","10","","13","","48.3","","101.83","","","","","","NA"
"2017-07-15 01:00","2017","07","15","01:00","‡","16.6","","12.6","","77","","12","","15","","32.2","","101.85","","","","","","Mostly Cloudy"
"2017-07-15 02:00","2017","07","15","02:00","‡","15.9","","11.1","","73","","11","","18","","32.2","","101.88","","","","","","NA"
"2017-07-15 03:00","2017","07","15","03:00","‡","15.0","","11.4","","79","","12","","15","","32.2","","101.93","","","","","","NA"
"2017-07-15 04:00","2017","07","15","04:00","‡","13.9","","11.2","","84","","10","","20","","32.2","","101.95","","","","","","Mainly Clear"
"2017-07-15 05:00","2017","07","15","05:00","‡","13.8","","11.3","","85","","12","","12","","32.2","","102.01","","","","","","NA"
"2017-07-15 06:00","2017","07","15","06:00","‡","14.9","","11.4","","79","","10","","19","","48.3","","102.05","","","","","","NA"
"2017-07-15 07:00","2017","07","15","07:00","‡","16.3","","11.0","","70","","11","","22","","48.3","","102.09","","","","","","Mainly Clear"
"2017-07-15 08:00","2017","07","15","08:00","‡","17.4","","10.2","","62","","12","","20","","48.3","","102.12","","","","","","NA"
"2017-07-15 09:00","2017","07","15","09:00","‡","18.6","","9.6","","55","","13","","19","","48.3","","102.13","","","","","","NA"
"2017-07-15 10:00","2017","07","15","10:00","‡","19.6","","9.6","","52","","13","","15","","48.3","","102.14","","","","","","Mainly Clear"
"2017-07-15 11:00","2017","07","15","11:00","‡","20.9","","9.3","","47","","13","","12","","48.3","","102.12","","","","","","NA"
"2017-07-15 12:00","2017","07","15","12:00","‡","22.1","","11.0","","49","","18","","8","","48.3","","102.12","","","","","","NA"
"2017-07-15 13:00","2017","07","15","13:00","‡","22.9","","9.8","","43","","17","","10","","48.3","","102.10","","","","","","Mainly Clear"
"2017-07-15 14:00","2017","07","15","14:00","‡","23.0","","10.4","","44","","20","","19","","48.3","","102.09","","","","","","NA"
"2017-07-15 15:00","2017","07","15","15:00","‡","23.4","","10.6","","44","","20","","14","","48.3","","102.05","","25","","","","NA"
"2017-07-15 16:00","2017","07","15","16:00","‡","23.4","","11.6","","47","","20","","14","","48.3","","102.02","","25","","","","Mainly Clear"
"2017-07-15 17:00","2017","07","15","17:00","‡","21.8","","11.0","","50","","20","","16","","48.3","","101.99","","","","","","NA"
"2017-07-15 18:00","2017","07","15","18:00","‡","20.8","","11.1","","54","","20","","22","","48.3","","101.98","","","","","","NA"
"2017-07-15 19:00","2017","07","15","19:00","‡","19.0","","13.6","","70","","27","","24","","48.3","","101.96","","","","","","Mainly Clear"
"2017-07-15 20:00","2017","07","15","20:00","‡","18.4","","12.0","","66","","29","","19","","48.3","","101.96","","","","","","NA"
"2017-07-15 21:00","2017","07","15","21:00","‡","18.0","","8.4","","53","","26","","34","","48.3","","101.98","","","","","","NA"
"2017-07-15 22:00","2017","07","15","22:00","‡","17.5","","8.9","","56","","25","","26","","48.3","","101.99","","","","","","Mostly Cloudy"
"2017-07-15 23:00","2017","07","15","23:00","‡","16.9","","8.9","","59","","24","","22","","48.3","","102.01","","","","","","NA"
"2017-07-16 00:00","2017","07","16","00:00","‡","16.2","","9.3","","63","","24","","23","","48.3","","102.04","","","","","","NA"
"2017-07-16 01:00","2017","07","16","01:00","‡","15.6","","9.6","","67","","24","","17","","48.3","","102.06","","","","","","Mainly Clear"
"2017-07-16 02:00","2017","07","16","02:00","‡","16.0","","9.3","","64","","24","","16","","48.3","","102.10","","","","","","NA"
"2017-07-16 03:00","2017","07","16","03:00","‡","16.0","","9.5","","65","","23","","16","","48.3","","102.13","","","","","","NA"
"2017-07-16 04:00","2017","07","16","04:00","‡","15.7","","9.2","","65","","23","","19","","48.3","","102.19","","","","","","Mostly Cloudy"
"2017-07-16 05:00","2017","07","16","05:00","‡","15.9","","10.1","","68","","22","","12","","48.3","","102.24","","","","","","NA"
"2017-07-16 06:00","2017","07","16","06:00","‡","16.4","","9.6","","64","","24","","15","","48.3","","102.27","","","","","","NA"
"2017-07-16 07:00","2017","07","16","07:00","‡","17.1","","8.9","","58","","23","","11","","48.3","","102.33","","","","","","Mostly Cloudy"
"2017-07-16 08:00","2017","07","16","08:00","‡","17.4","","10.2","","63","","24","","13","","48.3","","102.36","","","","","","NA"
"2017-07-16 09:00","2017","07","16","09:00","‡","19.0","","12.6","","66","","30","","8","","48.3","","102.37","","","","","","NA"
"2017-07-16 10:00","2017","07","16","10:00","‡","19.3","","11.8","","61","","29","","12","","48.3","","102.39","","","","","","Mainly Clear"
"2017-07-16 11:00","2017","07","16","11:00","‡","18.8","","11.6","","62","","21","","10","","48.3","","102.41","","","","","","NA"
"2017-07-16 12:00","2017","07","16","12:00","‡","19.5","","11.3","","59","","26","","11","","48.3","","102.40","","","","","","NA"
"2017-07-16 13:00","2017","07","16","13:00","‡","19.6","","11.9","","61","","24","","11","","48.3","","102.39","","","","","","Mainly Clear"
"2017-07-16 14:00","2017","07","16","14:00","‡","19.7","","11.4","","58","","21","","13","","48.3","","102.36","","","","","","NA"
"2017-07-16 15:00","2017","07","16","15:00","‡","20.0","","11.4","","57","","22","","15","","48.3","","102.31","","","","","","NA"
"2017-07-16 16:00","2017","07","16","16:00","‡","20.0","","9.2","","49","","22","","14","","48.3","","102.25","","","","","","Mainly Clear"
"2017-07-16 17:00","2017","07","16","17:00","‡","20.0","","7.6","","44","","24","","10","","48.3","","102.19","","","","","","NA"
"2017-07-16 18:00","2017","07","16","18:00","‡","19.1","","9.0","","52","","22","","8","","48.3","","102.16","","","","","","NA"
"2017-07-16 19:00","2017","07","16","19:00","‡","18.4","","10.0","","58","","29","","13","","48.3","","102.15","","","","","","Mostly Cloudy"
"2017-07-16 20:00","2017","07","16","20:00","‡","17.1","","10.8","","66","","29","","8","","48.3","","102.13","","","","","","NA"
"2017-07-16 21:00","2017","07","16","21:00","‡","17.1","","11.4","","69","","25","","9","","48.3","","102.12","","","","","","NA"
"2017-07-16 22:00","2017","07","16","22:00","‡","16.9","","11.8","","71","","22","","9","","48.3","","102.07","","","","","","Mainly Clear"
"2017-07-16 23:00","2017","07","16","23:00","‡","15.8","","10.8","","72","","29","","14","","48.3","","102.04","","","","","","NA"
"2017-07-17 00:00","2017","07","17","00:00","‡","16.0","","11.4","","74","","29","","17","","48.3","","102.01","","","","","","NA"
"2017-07-17 01:00","2017","07","17","01:00","‡","15.6","","9.6","","67","","5","","11","","48.3","","102.01","","","","","","Clear"
"2017-07-17 02:00","2017","07","17","02:00","‡","13.6","","8.9","","73","","9","","6","","48.3","","101.99","","","","","","NA"
"2017-07-17 03:00","2017","07","17","03:00","‡","13.3","","9.1","","76","","9","","4","","48.3","","101.98","","","","","","NA"
"2017-07-17 04:00","2017","07","17","04:00","‡","11.5","","8.5","","82","","36","","2","","48.3","","101.99","","","","","","Clear"
"2017-07-17 05:00","2017","07","17","05:00","‡","13.3","","8.9","","74","","8","","5","","48.3","","102.01","","","","","","NA"
"2017-07-17 06:00","2017","07","17","06:00","‡","15.4","","10.5","","72","","12","","4","","48.3","","102.02","","","","","","NA"
"2017-07-17 07:00","2017","07","17","07:00","‡","17.4","","11.3","","67","","16","","5","","48.3","","102.02","","","","","","Mainly Clear"
"2017-07-17 08:00","2017","07","17","08:00","‡","18.2","","11.7","","65","","26","","12","","48.3","","102.00","","","","","","NA"
"2017-07-17 09:00","2017","07","17","09:00","‡","18.7","","11.9","","64","","29","","18","","48.3","","101.97","","","","","","NA"
"2017-07-17 10:00","2017","07","17","10:00","‡","19.5","","12.6","","64","","29","","22","","48.3","","101.94","","","","","","Mostly Cloudy"
"2017-07-17 11:00","2017","07","17","11:00","‡","19.7","","13.1","","65","","29","","25","","48.3","","101.89","","","","","","NA"
"2017-07-17 12:00","2017","07","17","12:00","‡","20.7","","12.4","","59","","28","","25","","40.2","","101.86","","","","","","NA"
"2017-07-17 13:00","2017","07","17","13:00","‡","20.6","","13.2","","62","","28","","26","","40.2","","101.83","","","","","","Mostly Cloudy"
"2017-07-17 14:00","2017","07","17","14:00","‡","21.3","","14.4","","64","","29","","22","","40.2","","101.76","","25","","","","NA"
"2017-07-17 15:00","2017","07","17","15:00","‡","22.3","","13.7","","58","","29","","20","","32.2","","101.70","","25","","","","NA"
"2017-07-17 16:00","2017","07","17","16:00","‡","21.6","","14.0","","61","","30","","19","","40.2","","101.65","","25","","","","Cloudy"
"2017-07-17 17:00","2017","07","17","17:00","‡","21.8","","13.7","","60","","28","","17","","32.2","","101.59","","25","","","","NA"
"2017-07-17 18:00","2017","07","17","18:00","‡","20.7","","14.3","","67","","28","","12","","48.3","","101.56","","","","","","NA"
"2017-07-17 19:00","2017","07","17","19:00","‡","20.1","","13.2","","64","","22","","11","","32.2","","101.54","","","","","","Mostly Cloudy"
"2017-07-17 20:00","2017","07","17","20:00","‡","18.1","","14.1","","77","","23","","10","","48.3","","101.53","","","","","","NA"
"2017-07-17 21:00","2017","07","17","21:00","‡","17.4","","13.8","","79","","26","","9","","32.2","","101.56","","","","","","NA"
"2017-07-17 22:00","2017","07","17","22:00","‡","16.9","","14.3","","84","","21","","10","","32.2","","101.58","","","","","","Mainly Clear"
"2017-07-17 23:00","2017","07","17","23:00","‡","16.4","","12.7","","79","","18","","5","","32.2","","101.58","","","","","","NA"
"2017-07-18 00:00","2017","07","18","00:00","‡","14.9","","11.3","","79","","9","","8","","32.2","","101.59","","","","","","NA"
"2017-07-18 01:00","2017","07","18","01:00","‡","16.5","","12.8","","79","","7","","7","","32.2","","101.57","","","","","","Mainly Clear"
"2017-07-18 02:00","2017","07","18","02:00","‡","14.7","","12.1","","84","","10","","14","","32.2","","101.58","","","","","","NA"
"2017-07-18 03:00","2017","07","18","03:00","‡","14.0","","12.3","","89","","10","","10","","32.2","","101.59","","","","","","NA"
"2017-07-18 04:00","2017","07","18","04:00","‡","13.7","","11.8","","88","","9","","8","","32.2","","101.61","","","","","","Mainly Clear"
"2017-07-18 05:00","2017","07","18","05:00","‡","13.4","","10.8","","85","","10","","7","","48.3","","101.63","","","","","","NA"
"2017-07-18 06:00","2017","07","18","06:00","‡","15.5","","12.2","","81","","9","","7","","24.1","","101.65","","","","","","NA"
"2017-07-18 07:00","2017","07","18","07:00","‡","17.0","","12.5","","75","","11","","10","","24.1","","101.67","","","","","","Clear"
"2017-07-18 08:00","2017","07","18","08:00","‡","18.8","","12.4","","66","","10","","8","","24.1","","101.68","","","","","","NA"
"2017-07-18 09:00","2017","07","18","09:00","‡","20.6","","10.3","","51","","14","","5","","32.2","","101.65","","","","","","NA"
"2017-07-18 10:00","2017","07","18","10:00","‡","20.2","","13.2","","64","","24","","14","","48.3","","101.62","","","","","","Clear"
"2017-07-18 11:00","2017","07","18","11:00","‡","20.3","","13.2","","63","","23","","12","","48.3","","101.62","","","","","","NA"
"2017-07-18 12:00","2017","07","18","12:00","‡","20.6","","13.2","","62","","25","","14","","48.3","","101.59","","","","","","NA"
"2017-07-18 13:00","2017","07","18","13:00","‡","21.4","","12.9","","58","","25","","11","","48.3","","101.56","","","","","","Clear"
"2017-07-18 14:00","2017","07","18","14:00","‡","22.0","","12.8","","55","","24","","11","","48.3","","101.53","","25","","","","NA"
"2017-07-18 15:00","2017","07","18","15:00","‡","22.2","","12.4","","53","","23","","14","","48.3","","101.49","","25","","","","NA"
"2017-07-18 16:00","2017","07","18","16:00","‡","22.1","","11.9","","52","","24","","13","","48.3","","101.47","","","","","","Clear"
"2017-07-18 17:00","2017","07","18","17:00","‡","22.2","","13.4","","57","","25","","9","","32.2","","101.43","","25","","","","NA"
"2017-07-18 18:00","2017","07","18","18:00","‡","21.9","","12.7","","55","","22","","10","","32.2","","101.40","","25","","","","NA"
"2017-07-18 19:00","2017","07","18","19:00","‡","21.6","","14.3","","63","","23","","4","","32.2","","101.41","","25","","","","Mainly Clear"
"2017-07-18 20:00","2017","07","18","20:00","‡","22.4","","9.4","","43","","13","","5","","32.2","","101.41","","","","","","NA"
"2017-07-18 21:00","2017","07","18","21:00","‡","19.9","","13.2","","65","","9","","17","","32.2","","101.44","","","","","","NA"
"2017-07-18 22:00","2017","07","18","22:00","‡","18.2","","11.9","","66","","10","","18","","32.2","","101.49","","","","","","Mainly Clear"
"2017-07-18 23:00","2017","07","18","23:00","‡","17.1","","11.1","","68","","10","","13","","32.2","","101.51","","","","","","NA"
"2017-07-19 00:00","2017","07","19","00:00","‡","17.9","","11.0","","64","","11","","18","","32.2","","101.55","","","","","","NA"
"2017-07-19 01:00","2017","07","19","01:00","‡","16.3","","10.5","","68","","10","","18","","32.2","","101.57","","","","","","Mainly Clear"
"2017-07-19 02:00","2017","07","19","02:00","‡","15.5","","9.0","","65","","10","","16","","32.2","","101.61","","","","","","NA"
"2017-07-19 03:00","2017","07","19","03:00","‡","14.3","","7.7","","64","","10","","19","","32.2","","101.64","","","","","","NA"
"2017-07-19 04:00","2017","07","19","04:00","‡","14.3","","7.0","","61","","10","","20","","48.3","","101.68","","","","","","Mainly Clear"
"2017-07-19 05:00","2017","07","19","05:00","‡","14.7","","7.7","","63","","9","","20","","48.3","","101.73","","","","","","NA"
"2017-07-19 06:00","2017","07","19","06:00","‡","15.0","","9.0","","67","","10","","24","","48.3","","101.76","","","","","","NA"
"2017-07-19 07:00","2017","07","19","07:00","‡","16.3","","10.1","","66","","10","","26","","48.3","","101.80","","","","","","Mainly Clear"
"2017-07-19 08:00","2017","07","19","08:00","‡","18.1","","10.4","","60","","10","","26","","48.3","","101.81","","","","","","NA"
"2017-07-19 09:00","2017","07","19","09:00","‡","19.5","","10.2","","55","","10","","27","","48.3","","101.82","","","","","","NA"
"2017-07-19 10:00","2017","07","19","10:00","‡","20.5","","8.9","","47","","13","","25","","48.3","","101.80","","","","","","Mainly Clear"
"2017-07-19 11:00","2017","07","19","11:00","‡","21.8","","9.0","","43","","12","","21","","48.3","","101.79","","","","","","NA"
"2017-07-19 12:00","2017","07","19","12:00","‡","22.5","","9.5","","43","","16","","17","","48.3","","101.76","","","","","","NA"
"2017-07-19 13:00","2017","07","19","13:00","‡","23.6","","8.4","","37","","13","","12","","48.3","","101.70","","","","","","Mostly Cloudy"
"2017-07-19 14:00","2017","07","19","14:00","‡","23.1","","10.0","","43","","20","","22","","48.3","","101.62","","","","","","NA"
"2017-07-19 15:00","2017","07","19","15:00","‡","21.7","","11.6","","52","","20","","19","","48.3","","101.56","","","","","","NA"
"2017-07-19 16:00","2017","07","19","16:00","‡","21.8","","8.9","","43","","19","","17","","48.3","","101.52","","","","","","Cloudy"
"2017-07-19 17:00","2017","07","19","17:00","‡","21.6","","10.2","","48","","18","","8","","48.3","","101.45","","","","","","NA"
"2017-07-19 18:00","2017","07","19","18:00","‡","22.3","","8.4","","41","","13","","7","","48.3","","101.42","","","","","","NA"
"2017-07-19 19:00","2017","07","19","19:00","‡","21.6","","11.5","","52","","13","","9","","48.3","","101.42","","","","","","Mostly Cloudy"
"2017-07-19 20:00","2017","07","19","20:00","‡","19.6","","12.2","","62","","10","","14","","48.3","","101.43","","","","","","NA"
"2017-07-19 21:00","2017","07","19","21:00","‡","19.1","","12.2","","64","","13","","18","","48.3","","101.44","","","","","","NA"
"2017-07-19 22:00","2017","07","19","22:00","‡","18.9","","13.3","","70","","11","","19","","32.2","","101.44","","","","","","Cloudy"
"2017-07-19 23:00","2017","07","19","23:00","‡","16.9","","13.3","","79","","11","","20","","32.2","","101.46","","","","","","Rain"
"2017-07-20 00:00","2017","07","20","00:00","‡","16.8","","13.5","","81","","13","","13","","32.2","","101.49","","","","","","NA"
"2017-07-20 01:00","2017","07","20","01:00","‡","16.8","","12.7","","77","","10","","16","","32.2","","101.49","","","","","","Mostly Cloudy"
"2017-07-20 02:00","2017","07","20","02:00","‡","16.5","","12.7","","78","","10","","19","","32.2","","101.49","","","","","","NA"
"2017-07-20 03:00","2017","07","20","03:00","‡","16.0","","13.0","","82","","9","","18","","24.1","","101.52","","","","","","Rain"
"2017-07-20 04:00","2017","07","20","04:00","‡","16.3","","13.0","","81","","8","","18","","32.2","","101.57","","","","","","Cloudy"
"2017-07-20 05:00","2017","07","20","05:00","‡","16.2","","13.0","","81","","10","","15","","24.1","","101.63","","","","","","NA"
"2017-07-20 06:00","2017","07","20","06:00","‡","16.5","","13.7","","84","","7","","14","","24.1","","101.67","","","","","","NA"
"2017-07-20 07:00","2017","07","20","07:00","‡","17.6","","14.6","","82","","11","","13","","24.1","","101.72","","","","","","Cloudy"
"2017-07-20 08:00","2017","07","20","08:00","‡","17.2","","14.2","","83","","11","","18","","24.1","","101.76","","","","","","NA"
"2017-07-20 09:00","2017","07","20","09:00","‡","17.8","","13.4","","75","","11","","14","","24.1","","101.76","","","","","","NA"
"2017-07-20 10:00","2017","07","20","10:00","‡","20.6","","12.7","","60","","15","","18","","24.1","","101.80","","","","","","Mostly Cloudy"
"2017-07-20 11:00","2017","07","20","11:00","‡","21.2","","13.5","","61","","11","","17","","48.3","","101.86","","","","","","NA"
"2017-07-20 12:00","2017","07","20","12:00","‡","21.4","","12.6","","57","","16","","23","","48.3","","101.89","","","","","","NA"
"2017-07-20 13:00","2017","07","20","13:00","‡","22.9","","12.5","","52","","14","","22","","48.3","","101.90","","25","","","","Mostly Cloudy"
"2017-07-20 14:00","2017","07","20","14:00","‡","21.9","","11.9","","53","","15","","18","","48.3","","101.89","","","","","","NA"
"2017-07-20 15:00","2017","07","20","15:00","‡","22.1","","11.5","","51","","17","","23","","48.3","","101.90","","","","","","NA"
"2017-07-20 16:00","2017","07","20","16:00","‡","22.7","","11.4","","48","","18","","16","","48.3","","101.87","","25","","","","Mostly Cloudy"
"2017-07-20 17:00","2017","07","20","17:00","‡","22.3","","10.8","","48","","18","","17","","48.3","","101.85","","","","","","NA"
"2017-07-20 18:00","2017","07","20","18:00","‡","21.9","","11.8","","52","","19","","15","","48.3","","101.86","","","","","","NA"
"2017-07-20 19:00","2017","07","20","19:00","‡","21.4","","10.7","","50","","17","","14","","48.3","","101.86","","","","","","Mostly Cloudy"
"2017-07-20 20:00","2017","07","20","20:00","‡","19.5","","11.0","","58","","17","","9","","48.3","","101.86","","","","","","NA"
"2017-07-20 21:00","2017","07","20","21:00","‡","18.5","","11.2","","62","","14","","9","","48.3","","101.89","","","","","","NA"
"2017-07-20 22:00","2017","07","20","22:00","‡","16.7","","12.5","","76","","9","","17","","48.3","","101.90","","","","","","Mainly Clear"
"2017-07-20 23:00","2017","07","20","23:00","‡","16.0","","11.8","","76","","10","","16","","48.3","","101.91","","","","","","NA"
"2017-07-21 00:00","2017","07","21","00:00","‡","15.7","","12.2","","80","","11","","13","","48.3","","101.93","","","","","","NA"
"2017-07-21 01:00","2017","07","21","01:00","‡","15.6","","12.5","","82","","11","","13","","48.3","","101.92","","","","","","Mainly Clear"
"2017-07-21 02:00","2017","07","21","02:00","‡","14.7","","12.5","","87","","10","","15","","48.3","","101.92","","","","","","NA"
"2017-07-21 03:00","2017","07","21","03:00","‡","14.6","","12.7","","88","","11","","13","","48.3","","101.93","","","","","","NA"
"2017-07-21 04:00","2017","07","21","04:00","‡","14.3","","12.5","","89","","10","","13","","48.3","","101.94","","","","","","Mostly Cloudy"
"2017-07-21 05:00","2017","07","21","05:00","‡","14.3","","12.3","","88","","9","","12","","48.3","","101.93","","","","","","NA"
"2017-07-21 06:00","2017","07","21","06:00","‡","15.4","","12.8","","84","","9","","13","","48.3","","101.97","","","","","","NA"
"2017-07-21 07:00","2017","07","21","07:00","‡","16.8","","12.8","","77","","11","","17","","48.3","","102.00","","","","","","Cloudy"
"2017-07-21 08:00","2017","07","21","08:00","‡","17.4","","12.6","","73","","11","","12","","48.3","","102.02","","","","","","NA"
"2017-07-21 09:00","2017","07","21","09:00","‡","18.7","","12.6","","67","","14","","12","","48.3","","102.04","","","","","","NA"
"2017-07-21 10:00","2017","07","21","10:00","‡","19.1","","12.0","","63","","10","","8","","48.3","","102.06","","","","","","Cloudy"
"2017-07-21 11:00","2017","07","21","11:00","‡","19.3","","11.7","","61","","15","","7","","48.3","","102.08","","","","","","Rain"
"2017-07-21 12:00","2017","07","21","12:00","‡","20.3","","11.8","","57","","13","","9","","32.2","","102.08","","","","","","Rain"
"2017-07-21 13:00","2017","07","21","13:00","‡","20.1","","12.1","","59","","20","","10","","48.3","","102.09","","","","","","Rain Showers"
"2017-07-21 14:00","2017","07","21","14:00","‡","19.4","","12.2","","63","","22","","12","","32.2","","102.09","","","","","","Rain Showers"
"2017-07-21 15:00","2017","07","21","15:00","‡","18.9","","11.4","","61","","21","","10","","48.3","","102.08","","","","","","NA"
"2017-07-21 16:00","2017","07","21","16:00","‡","19.1","","12.9","","67","","29","","8","","48.3","","102.06","","","","","","Rain Showers"
"2017-07-21 17:00","2017","07","21","17:00","‡","18.7","","12.9","","69","","30","","5","","48.3","","102.03","","","","","","NA"
"2017-07-21 18:00","2017","07","21","18:00","‡","18.6","","11.9","","65","","25","","8","","32.2","","102.03","","","","","","NA"
"2017-07-21 19:00","2017","07","21","19:00","‡","18.3","","12.6","","69","","25","","6","","32.2","","102.01","","","","","","Cloudy"
"2017-07-21 20:00","2017","07","21","20:00","‡","17.5","","12.9","","75","","31","","7","","32.2","","102.00","","","","","","NA"
"2017-07-21 21:00","2017","07","21","21:00","‡","17.7","","13.4","","76","","27","","4","","32.2","","102.01","","","","","","NA"
"2017-07-21 22:00","2017","07","21","22:00","‡","16.8","","14.6","","86","","29","","7","","32.2","","101.99","","","","","","Rain Showers"
"2017-07-21 23:00","2017","07","21","23:00","‡","16.6","","15.3","","92","","30","","7","","32.2","","101.98","","","","","","Rain Showers"
"2017-07-22 00:00","2017","07","22","00:00","‡","16.9","","15.3","","90","","29","","5","","32.2","","102.01","","","","","","Rain Showers"
"2017-07-22 01:00","2017","07","22","01:00","‡","17.4","","13.6","","78","","36","","3","","32.2","","102.03","","","","","","Rain Showers"
"2017-07-22 02:00","2017","07","22","02:00","‡","15.8","","14.0","","89","","4","","14","","24.1","","102.07","","","","","","Rain Showers"
"2017-07-22 03:00","2017","07","22","03:00","‡","15.5","","14.6","","95","","4","","21","","16.1","","102.04","","","","","","Rain Showers"
"2017-07-22 04:00","2017","07","22","04:00","‡","15.7","","14.3","","91","","5","","13","","24.1","","102.06","","","","","","Cloudy"
"2017-07-22 05:00","2017","07","22","05:00","‡","16.1","","14.7","","91","","8","","13","","24.1","","102.09","","","","","","NA"
"2017-07-22 06:00","2017","07","22","06:00","‡","16.4","","15.1","","92","","8","","13","","24.1","","102.13","","","","","","NA"
"2017-07-22 07:00","2017","07","22","07:00","‡","16.5","","14.7","","89","","9","","17","","24.1","","102.20","","","","","","Cloudy"
"2017-07-22 08:00","2017","07","22","08:00","‡","16.9","","14.6","","86","","8","","19","","24.1","","102.22","","","","","","NA"
"2017-07-22 09:00","2017","07","22","09:00","‡","17.2","","14.7","","85","","9","","17","","24.1","","102.22","","","","","","NA"
"2017-07-22 10:00","2017","07","22","10:00","‡","18.1","","14.8","","81","","9","","18","","24.1","","102.22","","","","","","Cloudy"
"2017-07-22 11:00","2017","07","22","11:00","‡","19.2","","14.7","","75","","8","","15","","32.2","","102.23","","","","","","NA"
"2017-07-22 12:00","2017","07","22","12:00","‡","18.1","","15.4","","84","","12","","17","","16.1","","102.25","","","","","","Drizzle"
"2017-07-22 13:00","2017","07","22","13:00","‡","18.3","","15.9","","86","","6","","14","","24.1","","102.22","","","","","","Drizzle"
"2017-07-22 14:00","2017","07","22","14:00","‡","19.6","","15.5","","77","","7","","14","","24.1","","102.18","","","","","","NA"
"2017-07-22 15:00","2017","07","22","15:00","‡","20.3","","15.5","","74","","6","","11","","24.1","","102.12","","25","","","","NA"
"2017-07-22 16:00","2017","07","22","16:00","‡","21.0","","15.1","","69","","4","","16","","24.1","","102.06","","25","","","","Cloudy"
"2017-07-22 17:00","2017","07","22","17:00","‡","21.1","","15.2","","69","","6","","11","","24.1","","102.01","","25","","","","NA"
"2017-07-22 18:00","2017","07","22","18:00","‡","21.7","","15.4","","67","","7","","11","","32.2","","101.96","","26","","","","NA"
"2017-07-22 19:00","2017","07","22","19:00","‡","20.8","","14.7","","68","","10","","5","","32.2","","101.93","","25","","","","Mostly Cloudy"
"2017-07-22 20:00","2017","07","22","20:00","‡","20.7","","15.6","","72","","7","","9","","32.2","","101.91","","25","","","","NA"
"2017-07-22 21:00","2017","07","22","21:00","‡","19.1","","16.3","","83","","23","","8","","32.2","","101.93","","","","","","NA"
"2017-07-22 22:00","2017","07","22","22:00","‡","18.8","","16.7","","88","","22","","5","","32.2","","101.89","","","","","","Mostly Cloudy"
"2017-07-22 23:00","2017","07","22","23:00","‡","17.1","","16.5","","96","","27","","9","","32.2","","101.89","","","","","","NA"
"2017-07-23 00:00","2017","07","23","00:00","‡","16.5","","16.1","","97","","35","","8","","32.2","","101.86","","","","","","NA"
"2017-07-23 01:00","2017","07","23","01:00","‡","17.5","","16.0","","91","","34","","3","","32.2","","101.83","","","","","","Cloudy"
"2017-07-23 02:00","2017","07","23","02:00","‡","17.5","","16.6","","94","","32","","4","","32.2","","101.81","","","","","","NA"
"2017-07-23 03:00","2017","07","23","03:00","‡","17.7","","16.3","","91","","30","","10","","32.2","","101.79","","","","","","NA"
"2017-07-23 04:00","2017","07","23","04:00","‡","17.6","","16.4","","92","","29","","16","","32.2","","101.78","","","","","","Mostly Cloudy"
"2017-07-23 05:00","2017","07","23","05:00","‡","17.2","","16.4","","95","","29","","20","","32.2","","101.76","","","","","","NA"
"2017-07-23 06:00","2017","07","23","06:00","‡","17.2","","16.1","","93","","29","","22","","24.1","","101.77","","","","","","NA"
"2017-07-23 07:00","2017","07","23","07:00","‡","17.5","","15.3","","86","","29","","37","","32.2","","101.79","","","","","","Cloudy"
"2017-07-23 08:00","2017","07","23","08:00","‡","17.4","","14.6","","83","","29","","32","","32.2","","101.82","","","","","","NA"
"2017-07-23 09:00","2017","07","23","09:00","‡","18.6","","14.7","","78","","29","","32","","32.2","","101.82","","","","","","NA"
"2017-07-23 10:00","2017","07","23","10:00","‡","18.9","","14.1","","74","","29","","32","","32.2","","101.82","","","","","","Mostly Cloudy"
"2017-07-23 11:00","2017","07","23","11:00","‡","19.7","","14.0","","69","","28","","35","","48.3","","101.82","","","","","","NA"
"2017-07-23 12:00","2017","07","23","12:00","‡","20.8","","14.4","","66","","28","","32","","48.3","","101.79","","","","","","NA"
"2017-07-23 13:00","2017","07","23","13:00","‡","21.2","","14.1","","64","","28","","35","","48.3","","101.77","","25","","","","Mainly Clear"
"2017-07-23 14:00","2017","07","23","14:00","‡","22.0","","13.7","","59","","28","","33","","48.3","","101.78","","25","","","","NA"
"2017-07-23 15:00","2017","07","23","15:00","‡","21.6","","13.5","","60","","28","","35","","48.3","","101.73","","25","","","","NA"
"2017-07-23 16:00","2017","07","23","16:00","‡","21.5","","13.2","","59","","27","","29","","48.3","","101.66","","","","","","Clear"
"2017-07-23 17:00","2017","07","23","17:00","‡","20.6","","13.3","","62","","27","","25","","48.3","","101.68","","","","","","NA"
"2017-07-23 18:00","2017","07","23","18:00","‡","20.2","","13.5","","65","","27","","29","","48.3","","101.60","","","","","","NA"
"2017-07-23 19:00","2017","07","23","19:00","‡","19.2","","13.9","","71","","29","","22","","48.3","","101.60","","","","","","Clear"
"2017-07-23 20:00","2017","07","23","20:00","‡","18.2","","13.8","","75","","28","","28","","48.3","","101.58","","","","","","NA"
"2017-07-23 21:00","2017","07","23","21:00","‡","18.1","","14.6","","80","","28","","28","","48.3","","101.60","","","","","","NA"
"2017-07-23 22:00","2017","07","23","22:00","‡","16.7","","14.8","","89","","29","","17","","48.3","","101.61","","","","","","Clear"
"2017-07-23 23:00","2017","07","23","23:00","‡","17.4","","14.0","","80","","31","","20","","32.2","","101.64","","","","","","NA"
"2017-07-24 00:00","2017","07","24","00:00","‡","16.7","","13.7","","82","","31","","21","","48.3","","101.67","","","","","","NA"
"2017-07-24 01:00","2017","07","24","01:00","‡","16.5","","13.3","","81","","29","","28","","48.3","","101.69","","","","","","Clear"
"2017-07-24 02:00","2017","07","24","02:00","‡","16.3","","13.7","","84","","30","","26","","48.3","","101.66","","","","","","NA"
"2017-07-24 03:00","2017","07","24","03:00","‡","16.1","","13.6","","85","","30","","22","","48.3","","101.67","","","","","","NA"
"2017-07-24 04:00","2017","07","24","04:00","‡","16.0","","13.4","","85","","30","","26","","48.3","","101.67","","","","","","Clear"
"2017-07-24 05:00","2017","07","24","05:00","‡","15.8","","13.4","","85","","30","","27","","48.3","","101.68","","","","","","NA"
"2017-07-24 06:00","2017","07","24","06:00","‡","16.5","","13.7","","83","","29","","28","","48.3","","101.71","","","","","","NA"
"2017-07-24 07:00","2017","07","24","07:00","‡","17.2","","13.7","","80","","30","","28","","48.3","","101.73","","","","","","Mainly Clear"
"2017-07-24 08:00","2017","07","24","08:00","‡","18.3","","13.8","","75","","29","","25","","48.3","","101.75","","","","","","NA"
"2017-07-24 09:00","2017","07","24","09:00","‡","18.9","","13.3","","70","","30","","28","","48.3","","101.73","","","","","","NA"
"2017-07-24 10:00","2017","07","24","10:00","‡","19.9","","14.2","","69","","29","","30","","48.3","","101.70","","","","","","Mainly Clear"
"2017-07-24 11:00","2017","07","24","11:00","‡","20.0","","14.7","","71","","29","","32","","48.3","","101.69","","","","","","NA"
"2017-07-24 12:00","2017","07","24","12:00","‡","20.4","","14.7","","70","","29","","31","","48.3","","101.66","","","","","","NA"
"2017-07-24 13:00","2017","07","24","13:00","‡","20.2","","14.7","","70","","29","","29","","48.3","","101.58","","","","","","Mostly Cloudy"
"2017-07-24 14:00","2017","07","24","14:00","‡","21.6","","15.1","","66","","30","","28","","48.3","","101.54","","26","","","","NA"
"2017-07-24 15:00","2017","07","24","15:00","‡","21.4","","14.9","","66","","30","","29","","48.3","","101.50","","25","","","","NA"
"2017-07-24 16:00","2017","07","24","16:00","‡","20.7","","14.7","","68","","30","","26","","48.3","","101.43","","","","","","Mainly Clear"
"2017-07-24 17:00","2017","07","24","17:00","‡","20.6","","14.8","","69","","28","","25","","48.3","","101.41","","","","","","NA"
"2017-07-24 18:00","2017","07","24","18:00","‡","19.9","","14.9","","73","","29","","19","","48.3","","101.36","","","","","","NA"
"2017-07-24 19:00","2017","07","24","19:00","‡","19.1","","15.2","","78","","30","","22","","48.3","","101.33","","","","","","Clear"
"2017-07-24 20:00","2017","07","24","20:00","‡","17.9","","14.8","","82","","30","","20","","48.3","","101.33","","","","","","NA"
"2017-07-24 21:00","2017","07","24","21:00","‡","17.2","","14.9","","86","","30","","14","","48.3","","101.36","","","","","","NA"
"2017-07-24 22:00","2017","07","24","22:00","‡","17.4","","14.3","","82","","31","","14","","48.3","","101.38","","","","","","Clear"
"2017-07-24 23:00","2017","07","24","23:00","‡","17.6","","14.4","","81","","30","","18","","48.3","","101.38","","","","","","NA"
"2017-07-25 00:00","2017","07","25","00:00","‡","17.2","","14.4","","83","","30","","17","","48.3","","101.43","","","","","","NA"
"2017-07-25 01:00","2017","07","25","01:00","‡","16.3","","14.7","","90","","30","","17","","48.3","","101.46","","","","","","Clear"
"2017-07-25 02:00","2017","07","25","02:00","‡","16.7","","14.3","","86","","30","","21","","48.3","","101.51","","","","","","NA"
"2017-07-25 03:00","2017","07","25","03:00","‡","15.7","","13.7","","87","","29","","13","","48.3","","101.55","","","","","","NA"
"2017-07-25 04:00","2017","07","25","04:00","‡","16.3","","14.3","","88","","30","","22","","48.3","","101.57","","","","","","Mainly Clear"
"2017-07-25 05:00","2017","07","25","05:00","‡","15.6","","13.7","","88","","31","","15","","48.3","","101.60","","","","","","NA"
"2017-07-25 06:00","2017","07","25","06:00","‡","16.9","","14.3","","84","","30","","18","","48.3","","101.64","","","","","","NA"
"2017-07-25 07:00","2017","07","25","07:00","‡","17.9","","14.0","","78","","31","","18","","48.3","","101.66","","","","","","Mainly Clear"
"2017-07-25 08:00","2017","07","25","08:00","‡","18.4","","14.2","","76","","30","","25","","48.3","","101.66","","","","","","NA"
"2017-07-25 09:00","2017","07","25","09:00","‡","19.5","","14.4","","72","","29","","23","","48.3","","101.70","","","","","","NA"
"2017-07-25 10:00","2017","07","25","10:00","‡","20.4","","14.8","","70","","30","","21","","48.3","","101.69","","","","","","Clear"
"2017-07-25 11:00","2017","07","25","11:00","‡","20.7","","14.5","","67","","29","","21","","48.3","","101.68","","","","","","NA"
"2017-07-25 12:00","2017","07","25","12:00","‡","21.8","","15.8","","68","","29","","14","","48.3","","101.66","","26","","","","NA"
"2017-07-25 13:00","2017","07","25","13:00","‡","21.6","","15.1","","66","","27","","14","","48.3","","101.64","","26","","","","Clear"
"2017-07-25 14:00","2017","07","25","14:00","‡","22.3","","15.4","","65","","28","","14","","48.3","","101.60","","27","","","","NA"
"2017-07-25 15:00","2017","07","25","15:00","‡","23.5","","16.0","","62","","29","","14","","48.3","","101.57","","28","","","","NA"
"2017-07-25 16:00","2017","07","25","16:00","‡","23.3","","14.9","","59","","27","","12","","48.3","","101.52","","27","","","","Clear"
"2017-07-25 17:00","2017","07","25","17:00","‡","22.4","","15.3","","64","","28","","10","","48.3","","101.48","","27","","","","NA"
"2017-07-25 18:00","2017","07","25","18:00","‡","21.3","","15.2","","68","","30","","9","","48.3","","101.45","","25","","","","NA"
"2017-07-25 19:00","2017","07","25","19:00","‡","21.1","","14.8","","67","","29","","6","","48.3","","101.44","","25","","","","Clear"
"2017-07-25 20:00","2017","07","25","20:00","‡","19.2","","15.3","","78","","21","","8","","48.3","","101.44","","","","","","NA"
"2017-07-25 21:00","2017","07","25","21:00","‡","19.4","","15.4","","77","","21","","4","","48.3","","101.47","","","","","","NA"
"2017-07-25 22:00","2017","07","25","22:00","‡","18.9","","15.5","","80","","16","","4","","48.3","","101.48","","","","","","Clear"
"2017-07-25 23:00","2017","07","25","23:00","‡","17.3","","13.6","","78","","9","","8","","48.3","","101.51","","","","","","NA"
"2017-07-26 00:00","2017","07","26","00:00","‡","16.3","","14.2","","87","","10","","12","","48.3","","101.55","","","","","","NA"
"2017-07-26 01:00","2017","07","26","01:00","‡","16.0","","13.0","","82","","9","","13","","48.3","","101.55","","","","","","Clear"
"2017-07-26 02:00","2017","07","26","02:00","‡","15.4","","12.4","","82","","11","","11","","48.3","","101.56","","","","","","NA"
"2017-07-26 03:00","2017","07","26","03:00","‡","15.1","","11.1","","77","","12","","9","","48.3","","101.59","","","","","","NA"
"2017-07-26 04:00","2017","07","26","04:00","‡","14.3","","11.0","","81","","11","","17","","48.3","","101.61","","","","","","Clear"
"2017-07-26 05:00","2017","07","26","05:00","‡","13.9","","11.8","","87","","9","","19","","48.3","","101.67","","","","","","NA"
"2017-07-26 06:00","2017","07","26","06:00","‡","14.9","","12.3","","84","","11","","21","","48.3","","101.70","","","","","","NA"
"2017-07-26 07:00","2017","07","26","07:00","‡","16.3","","12.6","","79","","13","","16","","48.3","","101.75","","","","","","Mainly Clear"
"2017-07-26 08:00","2017","07","26","08:00","‡","18.1","","12.6","","70","","13","","14","","48.3","","101.78","","","","","","NA"
"2017-07-26 09:00","2017","07","26","09:00","‡","19.9","","13.2","","65","","11","","17","","48.3","","101.76","","","","","","NA"
"2017-07-26 10:00","2017","07","26","10:00","‡","21.6","","13.3","","59","","13","","17","","48.3","","101.75","","25","","","","Mostly Cloudy"
"2017-07-26 11:00","2017","07","26","11:00","‡","22.3","","13.1","","56","","14","","17","","48.3","","101.73","","25","","","","NA"
"2017-07-26 12:00","2017","07","26","12:00","‡","22.8","","13.5","","55","","11","","18","","48.3","","101.72","","26","","","","NA"
"2017-07-26 13:00","2017","07","26","13:00","‡","23.4","","13.1","","52","","14","","14","","48.3","","101.69","","26","","","","Mostly Cloudy"
"2017-07-26 14:00","2017","07","26","14:00","‡","22.2","","13.4","","57","","12","","12","","48.3","","101.70","","25","","","","NA"
"2017-07-26 15:00","2017","07","26","15:00","‡","24.4","","13.6","","50","","14","","4","","48.3","","101.68","","28","","","","NA"
"2017-07-26 16:00","2017","07","26","16:00","‡","25.2","","13.3","","47","","14","","10","","48.3","","101.60","","28","","","","Mostly Cloudy"
"2017-07-26 17:00","2017","07","26","17:00","‡","24.3","","14.0","","52","","16","","9","","48.3","","101.56","","28","","","","NA"
"2017-07-26 18:00","2017","07","26","18:00","‡","22.4","","13.1","","55","","14","","13","","48.3","","101.55","","25","","","","NA"
"2017-07-26 19:00","2017","07","26","19:00","‡","22.1","","12.6","","54","","11","","12","","48.3","","101.53","","25","","","","Mostly Cloudy"
"2017-07-26 20:00","2017","07","26","20:00","‡","19.3","","13.0","","66","","10","","20","","48.3","","101.51","","","","","","NA"
"2017-07-26 21:00","2017","07","26","21:00","‡","17.7","","12.9","","74","","10","","16","","48.3","","101.53","","","","","","NA"
"2017-07-26 22:00","2017","07","26","22:00","‡","17.5","","12.9","","74","","12","","21","","48.3","","101.54","","","","","","Mainly Clear"
"2017-07-26 23:00","2017","07","26","23:00","‡","17.0","","12.6","","75","","12","","19","","48.3","","101.56","","","","","","NA"
"2017-07-27 00:00","2017","07","27","00:00","‡","15.9","","11.9","","77","","12","","23","","48.3","","101.59","","","","","","NA"
"2017-07-27 01:00","2017","07","27","01:00","‡","15.7","","11.6","","76","","12","","22","","48.3","","101.63","","","","","","Mostly Cloudy"
"2017-07-27 02:00","2017","07","27","02:00","‡","15.2","","11.5","","79","","12","","20","","48.3","","101.65","","","","","","NA"
"2017-07-27 03:00","2017","07","27","03:00","‡","14.2","","11.6","","84","","11","","21","","48.3","","101.66","","","","","","NA"
"2017-07-27 04:00","2017","07","27","04:00","‡","13.8","","12.0","","89","","12","","21","","48.3","","101.70","","","","","","Mainly Clear"
"2017-07-27 05:00","2017","07","27","05:00","‡","13.6","","12.0","","90","","11","","23","","32.2","","101.79","","","","","","NA"
"2017-07-27 06:00","2017","07","27","06:00","‡","14.4","","12.2","","86","","9","","25","","48.3","","101.82","","","","","","NA"
"2017-07-27 07:00","2017","07","27","07:00","‡","15.3","","12.0","","80","","11","","23","","48.3","","101.87","","","","","","Cloudy"
"2017-07-27 08:00","2017","07","27","08:00","‡","16.1","","12.2","","77","","11","","25","","48.3","","101.91","","","","","","NA"
"2017-07-27 09:00","2017","07","27","09:00","‡","17.1","","12.4","","74","","12","","21","","48.3","","101.94","","","","","","NA"
"2017-07-27 10:00","2017","07","27","10:00","‡","18.0","","12.3","","69","","11","","24","","48.3","","101.97","","","","","","Cloudy"
"2017-07-27 11:00","2017","07","27","11:00","‡","20.4","","12.3","","59","","12","","21","","48.3","","101.99","","","","","","NA"
"2017-07-27 12:00","2017","07","27","12:00","‡","21.0","","12.2","","56","","12","","13","","48.3","","101.99","","","","","","NA"
"2017-07-27 13:00","2017","07","27","13:00","‡","21.8","","12.2","","54","","14","","13","","48.3","","101.99","","","","","","Mainly Clear"
"2017-07-27 14:00","2017","07","27","14:00","‡","22.3","","12.6","","54","","12","","8","","48.3","","101.94","","25","","","","NA"
"2017-07-27 15:00","2017","07","27","15:00","‡","22.7","","12.8","","53","","18","","20","","48.3","","101.92","","25","","","","NA"
"2017-07-27 16:00","2017","07","27","16:00","‡","22.2","","12.0","","52","","17","","17","","48.3","","101.87","","","","","","Clear"
"2017-07-27 17:00","2017","07","27","17:00","‡","21.7","","12.4","","55","","13","","18","","48.3","","101.85","","","","","","NA"
"2017-07-27 18:00","2017","07","27","18:00","‡","20.3","","11.9","","58","","13","","17","","48.3","","101.83","","","","","","NA"
"2017-07-27 19:00","2017","07","27","19:00","‡","18.8","","11.3","","62","","12","","16","","48.3","","101.81","","","","","","Clear"
"2017-07-27 20:00","2017","07","27","20:00","‡","16.8","","11.0","","68","","11","","16","","48.3","","101.80","","","","","","NA"
"2017-07-27 21:00","2017","07","27","21:00","‡","16.2","","10.7","","70","","12","","17","","48.3","","101.83","","","","","","NA"
"2017-07-27 22:00","2017","07","27","22:00","‡","14.9","","10.8","","76","","10","","14","","48.3","","101.80","","","","","","Clear"
"2017-07-27 23:00","2017","07","27","23:00","‡","14.8","","11.4","","80","","10","","11","","48.3","","101.81","","","","","","NA"
"2017-07-28 00:00","2017","07","28","00:00","‡","14.3","","11.0","","81","","10","","12","","48.3","","101.81","","","","","","NA"
"2017-07-28 01:00","2017","07","28","01:00","‡","13.7","","10.5","","81","","10","","13","","48.3","","101.83","","","","","","Clear"
"2017-07-28 02:00","2017","07","28","02:00","‡","13.2","","10.1","","81","","10","","11","","48.3","","101.85","","","","","","NA"
"2017-07-28 03:00","2017","07","28","03:00","‡","12.8","","10.1","","83","","10","","10","","48.3","","101.85","","","","","","NA"
"2017-07-28 04:00","2017","07","28","04:00","‡","12.8","","9.9","","83","","11","","8","","48.3","","101.87","","","","","","Mainly Clear"
"2017-07-28 05:00","2017","07","28","05:00","‡","12.3","","10.0","","86","","10","","12","","48.3","","101.90","","","","","","NA"
"2017-07-28 06:00","2017","07","28","06:00","‡","14.6","","11.2","","80","","11","","14","","48.3","","101.90","","","","","","NA"
"2017-07-28 07:00","2017","07","28","07:00","‡","15.2","","11.7","","79","","12","","12","","48.3","","101.93","","","","","","Mainly Clear"
"2017-07-28 08:00","2017","07","28","08:00","‡","17.0","","12.2","","73","","13","","6","","48.3","","101.94","","","","","","NA"
"2017-07-28 09:00","2017","07","28","09:00","‡","17.8","","12.1","","69","","16","","13","","48.3","","101.93","","","","","","NA"
"2017-07-28 10:00","2017","07","28","10:00","‡","17.7","","13.5","","76","","24","","11","","48.3","","101.92","","","","","","Clear"
"2017-07-28 11:00","2017","07","28","11:00","‡","17.8","","13.8","","77","","23","","13","","48.3","","101.89","","","","","","NA"
"2017-07-28 12:00","2017","07","28","12:00","‡","19.1","","14.2","","73","","23","","18","","48.3","","101.85","","","","","","NA"
"2017-07-28 13:00","2017","07","28","13:00","‡","20.1","","15.0","","72","","22","","18","","48.3","","101.82","","","","","","Clear"
"2017-07-28 14:00","2017","07","28","14:00","‡","21.8","","13.7","","59","","21","","18","","48.3","","101.79","","25","","","","NA"
"2017-07-28 15:00","2017","07","28","15:00","‡","21.3","","13.1","","59","","21","","16","","48.3","","101.77","","","","","","NA"
"2017-07-28 16:00","2017","07","28","16:00","‡","21.7","","14.0","","61","","21","","11","","48.3","","101.73","","25","","","","Mainly Clear"
"2017-07-28 17:00","2017","07","28","17:00","‡","22.0","","14.0","","60","","20","","13","","48.3","","101.69","","25","","","","NA"
"2017-07-28 18:00","2017","07","28","18:00","‡","22.0","","13.9","","60","","19","","14","","48.3","","101.67","","25","","","","NA"
"2017-07-28 19:00","2017","07","28","19:00","‡","21.7","","12.8","","56","","19","","12","","48.3","","101.65","","","","","","Mainly Clear"
"2017-07-28 20:00","2017","07","28","20:00","‡","20.3","","13.3","","64","","12","","10","","48.3","","101.66","","","","","","NA"
"2017-07-28 21:00","2017","07","28","21:00","‡","18.4","","13.0","","70","","10","","13","","48.3","","101.71","","","","","","NA"
"2017-07-28 22:00","2017","07","28","22:00","‡","17.0","","12.5","","75","","9","","18","","32.2","","101.73","","","","","","Clear"
"2017-07-28 23:00","2017","07","28","23:00","‡","16.0","","11.9","","77","","10","","14","","32.2","","101.73","","","","","","NA"
"2017-07-29 00:00","2017","07","29","00:00","‡","16.0","","12.3","","78","","13","","14","","32.2","","101.76","","","","","","NA"
"2017-07-29 01:00","2017","07","29","01:00","‡","15.5","","11.8","","78","","13","","15","","32.2","","101.76","","","","","","Clear"
"2017-07-29 02:00","2017","07","29","02:00","‡","14.4","","11.8","","85","","13","","13","","24.1","","101.80","","","","","","NA"
"2017-07-29 03:00","2017","07","29","03:00","‡","13.9","","11.3","","85","","13","","11","","24.1","","101.84","","","","","","NA"
"2017-07-29 04:00","2017","07","29","04:00","‡","13.3","","10.8","","85","","10","","17","","32.2","","101.85","","","","","","Clear"
"2017-07-29 05:00","2017","07","29","05:00","‡","12.8","","10.4","","85","","10","","12","","48.3","","101.89","","","","","","NA"
"2017-07-29 06:00","2017","07","29","06:00","‡","14.4","","11.1","","81","","10","","17","","48.3","","101.93","","","","","","NA"
"2017-07-29 07:00","2017","07","29","07:00","‡","15.9","","11.0","","72","","12","","19","","48.3","","101.98","","","","","","Clear"
"2017-07-29 08:00","2017","07","29","08:00","‡","17.2","","11.2","","67","","12","","21","","48.3","","102.00","","","","","","NA"
"2017-07-29 09:00","2017","07","29","09:00","‡","18.8","","11.7","","63","","11","","25","","48.3","","102.03","","","","","","NA"
"2017-07-29 10:00","2017","07","29","10:00","‡","20.6","","11.2","","54","","12","","21","","48.3","","102.05","","","","","","Clear"
"2017-07-29 11:00","2017","07","29","11:00","‡","21.0","","10.4","","50","","13","","22","","48.3","","102.05","","","","","","NA"
"2017-07-29 12:00","2017","07","29","12:00","‡","22.3","","10.3","","46","","15","","19","","48.3","","102.04","","","","","","NA"
"2017-07-29 13:00","2017","07","29","13:00","‡","23.0","","10.6","","45","","15","","16","","48.3","","102.04","","25","","","","Clear"
"2017-07-29 14:00","2017","07","29","14:00","‡","24.5","","10.3","","40","","13","","14","","48.3","","102.02","","26","","","","NA"
"2017-07-29 15:00","2017","07","29","15:00","‡","24.8","","10.8","","41","","13","","11","","48.3","","101.98","","26","","","","NA"
"2017-07-29 16:00","2017","07","29","16:00","‡","25.1","","9.8","","38","","12","","12","","48.3","","101.95","","26","","","","Mainly Clear"
"2017-07-29 17:00","2017","07","29","17:00","‡","25.3","","8.2","","33","","14","","13","","48.3","","101.90","","26","","","","NA"
"2017-07-29 18:00","2017","07","29","18:00","‡","24.4","","9.4","","38","","13","","8","","48.3","","101.88","","25","","","","NA"
"2017-07-29 19:00","2017","07","29","19:00","‡","22.6","","11.9","","50","","9","","15","","48.3","","101.90","","25","","","","Mainly Clear"
"2017-07-29 20:00","2017","07","29","20:00","‡","19.9","","12.3","","61","","10","","14","","48.3","","101.93","","","","","","NA"
"2017-07-29 21:00","2017","07","29","21:00","‡","19.1","","13.5","","70","","14","","11","","48.3","","101.97","","","","","","NA"
"2017-07-29 22:00","2017","07","29","22:00","‡","18.1","","13.3","","73","","9","","17","","48.3","","101.99","","","","","","Mainly Clear"
"2017-07-29 23:00","2017","07","29","23:00","‡","17.4","","13.3","","77","","9","","16","","48.3","","102.02","","","","","","NA"
"2017-07-30 00:00","2017","07","30","00:00","‡","16.4","","13.3","","82","","9","","16","","48.3","","102.06","","","","","","NA"
"2017-07-30 01:00","2017","07","30","01:00","‡","15.6","","13.3","","86","","9","","20","","48.3","","102.10","","","","","","Clear"
"2017-07-30 02:00","2017","07","30","02:00","‡","15.3","","13.6","","89","","10","","19","","48.3","","102.12","","","","","","NA"
"2017-07-30 03:00","2017","07","30","03:00","‡","16.3","","13.6","","84","","9","","16","","48.3","","102.15","","","","","","NA"
"2017-07-30 04:00","2017","07","30","04:00","‡","15.5","","13.3","","87","","10","","18","","48.3","","102.18","","","","","","Mainly Clear"
"2017-07-30 05:00","2017","07","30","05:00","‡","15.2","","13.2","","88","","10","","19","","32.2","","102.23","","","","","","NA"
"2017-07-30 06:00","2017","07","30","06:00","‡","16.4","","14.0","","85","","10","","16","","32.2","","102.31","","","","","","NA"
"2017-07-30 07:00","2017","07","30","07:00","‡","17.7","","13.8","","78","","9","","19","","32.2","","102.36","","","","","","Mainly Clear"
"2017-07-30 08:00","2017","07","30","08:00","‡","18.9","","13.9","","72","","12","","18","","32.2","","102.41","","","","","","NA"
"2017-07-30 09:00","2017","07","30","09:00","‡","20.4","","14.4","","68","","12","","13","","48.3","","102.42","","","","","","NA"
"2017-07-30 10:00","2017","07","30","10:00","‡","22.0","","14.0","","60","","14","","11","","48.3","","102.45","","25","","","","Mainly Clear"
"2017-07-30 11:00","2017","07","30","11:00","‡","23.3","","14.6","","58","","14","","14","","48.3","","102.46","","27","","","","NA"
"2017-07-30 12:00","2017","07","30","12:00","‡","22.2","","14.9","","63","","21","","14","","48.3","","102.46","","26","","","","NA"
"2017-07-30 13:00","2017","07","30","13:00","‡","22.3","","14.3","","60","","22","","13","","48.3","","102.43","","26","","","","Mainly Clear"
"2017-07-30 14:00","2017","07","30","14:00","‡","23.3","","13.4","","53","","23","","11","","48.3","","102.39","","26","","","","NA"
"2017-07-30 15:00","2017","07","30","15:00","‡","23.2","","13.3","","53","","23","","11","","48.3","","102.36","","26","","","","NA"
"2017-07-30 16:00","2017","07","30","16:00","‡","23.1","","13.7","","55","","25","","9","","48.3","","102.35","","26","","","","Clear"
"2017-07-30 17:00","2017","07","30","17:00","‡","22.4","","14.2","","59","","25","","10","","48.3","","102.33","","26","","","","NA"
"2017-07-30 18:00","2017","07","30","18:00","‡","21.7","","13.9","","61","","25","","11","","48.3","","102.32","","25","","","","NA"
"2017-07-30 19:00","2017","07","30","19:00","‡","20.8","","15.2","","70","","27","","9","","48.3","","102.31","","25","","","","Clear"
"2017-07-30 20:00","2017","07","30","20:00","‡","20.4","","12.7","","61","","22","","6","","48.3","","102.33","","","","","","NA"
"2017-07-30 21:00","2017","07","30","21:00","‡","18.7","","14.7","","78","","36","","1","","48.3","","102.36","","","","","","NA"
"2017-07-30 22:00","2017","07","30","22:00","‡","17.4","","14.5","","83","","35","","4","","48.3","","102.37","","","","","","Clear"
"2017-07-30 23:00","2017","07","30","23:00","‡","16.7","","13.8","","82","","10","","10","","48.3","","102.38","","","","","","NA"
"2017-07-31 00:00","2017","07","31","00:00","‡","15.8","","12.1","","79","","10","","11","","48.3","","102.40","","","","","","NA"
"2017-07-31 01:00","2017","07","31","01:00","‡","15.2","","11.8","","80","","10","","10","","48.3","","102.41","","","","","","Clear"
"2017-07-31 02:00","2017","07","31","02:00","‡","14.4","","10.8","","79","","9","","14","","48.3","","102.44","","","","","","NA"
"2017-07-31 03:00","2017","07","31","03:00","‡","14.3","","10.8","","80","","9","","14","","48.3","","102.45","","","","","","NA"
"2017-07-31 04:00","2017","07","31","04:00","‡","13.8","","10.4","","80","","10","","9","","48.3","","102.46","","","","","","Clear"
"2017-07-31 05:00","2017","07","31","05:00","‡","14.3","","11.2","","81","","8","","9","","48.3","","102.49","","","","","","NA"
"2017-07-31 06:00","2017","07","31","06:00","‡","15.8","","12.2","","79","","10","","7","","48.3","","102.52","","","","","","NA"
"2017-07-31 07:00","2017","07","31","07:00","‡","17.9","","12.1","","69","","10","","6","","48.3","","102.53","","","","","","Clear"
"2017-07-31 08:00","2017","07","31","08:00","‡","19.8","","11.6","","59","","20","","5","","48.3","","102.54","","","","","","NA"
"2017-07-31 09:00","2017","07","31","09:00","‡","20.2","","14.7","","71","","25","","14","","48.3","","102.52","","","","","","NA"
"2017-07-31 10:00","2017","07","31","10:00","‡","21.3","","14.5","","65","","30","","20","","48.3","","102.50","","25","","","","Clear"
"2017-07-31 11:00","2017","07","31","11:00","‡","21.5","","14.8","","66","","29","","23","","48.3","","102.46","","25","","","","NA"
"2017-07-31 12:00","2017","07","31","12:00","‡","21.9","","15.0","","64","","30","","24","","48.3","","102.41","","26","","","","NA"
"2017-07-31 13:00","2017","07","31","13:00","‡","22.3","","14.9","","63","","29","","22","","48.3","","102.35","","26","","","","Clear"
"2017-07-31 14:00","2017","07","31","14:00","‡","22.8","","15.2","","62","","28","","22","","48.3","","102.31","","27","","","","NA"
"2017-07-31 15:00","2017","07","31","15:00","‡","23.5","","15.7","","61","","30","","20","","48.3","","102.22","","28","","","","NA"
"2017-07-31 16:00","2017","07","31","16:00","‡","23.4","","15.9","","62","","30","","22","","48.3","","102.14","","28","","","","Clear"
"2017-07-31 17:00","2017","07","31","17:00","‡","23.7","","15.7","","60","","29","","21","","48.3","","102.10","","28","","","","NA"
"2017-07-31 18:00","2017","07","31","18:00","‡","22.3","","15.3","","64","","29","","18","","48.3","","102.05","","26","","","","NA"
"2017-07-31 19:00","2017","07","31","19:00","‡","21.1","","15.6","","70","","29","","12","","48.3","","102.02","","25","","","","Mainly Clear"
"2017-07-31 20:00","2017","07","31","20:00","‡","19.6","","14.9","","74","","30","","8","","48.3","","102.02","","","","","","NA"
"2017-07-31 21:00","2017","07","31","21:00","‡","20.5","","14.0","","66","","30","","16","","48.3","","102.03","","","","","","NA"
"2017-07-31 22:00","2017","07","31","22:00","‡","20.0","","14.8","","72","","31","","17","","48.3","","102.02","","","","","","Mainly Clear"
"2017-07-31 23:00","2017","07","31","23:00","‡","19.3","","15.8","","80","","2","","9","","48.3","","102.03","","","","","","NA"
